{"type": "FeatureCollection", "features": [{"type": "Feature", "properties": {"identifier": "016d7bf9-d944-4bdc-83cf-bc1aca1b176f", "name": "Museum Alte S\u00e4ge Valens", "description": "1990 wurden die S\u00e4ge durch den Eigent\u00fcmer Ferdinand Reiter Junior stillgelegt und 2004/2005 durch Valens Tourismus, unter F\u00fchrung von Kurt Wyrsch, restauriert und als Museum f\u00fcr die \u00d6ffentlichkeit wiederer\u00f6ffnet. Die Alte S\u00e4ge Valens ist das ganze Jahr frei zug\u00e4nglich und ein spannender Zeitzeuge der Holzwirtschaft des letzten Jahrhunderts.", "url": "http://www.valens-tourismus.ch", "image": "https://hltpimtsoch.sos-ch-dk-2.exoscale-cdn.com/catalog/2/f/0/d/2f0d064f5575bbe873c161617eb27babe9354389_maxresdefault.jpeg", "openstreetmap_id": "way/883151730"}, "geometry": {"type": "Point", "coordinates": ["9.481201171875002", "46.97268790109085"]}}, {"type": "Feature", "properties": {"identifier": "048a601a-3918-4456-8a7a-6c87cc08f159", "name": "Bahnhof M\u00fchlehorn", "description": "<div>Der Bahnhof M&uuml;hlehorn liegt direkt am Walensee und ist ein praktischer Ankunfts- und Ausgangspunkt fu\u0308r Ausflu\u0308ge entlang des Seeuferwegs. Der kleine Bahnhof u\u0308berzeugt mit seiner Lage nahe beim Wasser und guter Anbindung an die umliegenden Orte. Wer mit dem Auto oder dem Velo anreist, findet am Bahnhof 18 Parkpl&auml;tze sowie ein u\u0308berdachtes Veloparking. Von hier aus lassen sich Spaziergaenge, Velotouren oder Badeplaetze am Walensee bequem erreichen.</div>", "url": "https://www.sbb.ch/de/reiseinformationen/bahnhoefe/bahnhof-finden/bahnhof.9418.muehlehorn.html", "image": "https://hltpimtsoch.sos-ch-dk-2.exoscale-cdn.com/catalog/e/c/4/f/ec4fc650001b1ea98063f46ec2e21dba9f8c2264_Bahnhof_Piktogramm_HLT.png", "openstreetmap_id": "node/1793087592"}, "geometry": {"type": "Point", "coordinates": ["9.172768", "47.1178636"]}}, {"type": "Feature", "properties": {"identifier": "0b75c1e5-cd8f-4cf1-91ab-f45d1e1fd6dd", "name": "Anlegestelle Hafen Murg-West", "description": "<p>Erforschen Sie die tiefblaue Mitte der Region und geniessen Sie die atemberaubende Bergkulisse auf dem Walensee. Lassen Sie sich von den majest&auml;tischen Churfirsten, der wild romantischen Natur, dem glasklaren Wasser und den fantastischen Stimmungen am Walensee verzaubern. Der Walensee, das Paradies f&uuml;r nah und fern. Die Schiffsbetrieb Walensee AG verbindet Orte, Angebote und Aktivit&auml;ten in idealer Weise. Die Verbindung nach Quinten ist auch im Winter durchgehend in Betrieb.</p><h3>Zugangsinformationen</h3><div class=\"rte\"><ul><li>Stufenloser Zugang</li><li>Ein- und Ausstieg durch Personalhilfestellung</li><li>Gruppen ab 10 Personen und Rollst&uuml;hle m&uuml;ssen im Voraus angemeldet werden.</li><li>Kein taktiles Leitsystem vorhanden</li></ul></div>", "url": "https://walenseeschiff.ch/de/fahrplan/anlegestellen/murg-west.html", "image": "https://hltpimtsoch.sos-ch-dk-2.exoscale-cdn.com/catalog/9/b/6/3/9b63244d6c6413aa1b399261afb6dc7987b59224_Anlegestelle_Hafen_Piktogramm_HLT.png", "openstreetmap_id": "node/984732615"}, "geometry": {"type": "Point", "coordinates": ["9.2112148", "47.1132277"]}}, {"type": "Feature", "properties": {"identifier": "1798f9fe-33c6-44ea-9609-27547b36268d", "name": "Feuerstelle Murg", "description": "<div>Die Feuerstelle in Murg am Walensee liegt in unmittelbarer N&auml;he zum Campingplatz und eignet sich ideal f&uuml;r eine gem&uuml;tliche Grillpause am See. Ein Abfalleimer ist vorhanden. Toiletten und ein Kiosk mit Snacks befinden sich beim nahegelegenen Camping Murg. Ein Spielplatz vom Spielerlebnis Walensee liegt in der N&auml;he. Die Feuerstelle wird vom Verkehrsverein Murg in Zusammenarbeit mit dem Camping Murg unterhalten.</div>", "url": "https://www.heidiland.com", "image": "https://hltpimtsoch.sos-ch-dk-2.exoscale-cdn.com/catalog/0/d/0/7/0d0779206fe308c99e7d519bc109496782e2ff34_Feuerstelle_Piktogramm_HLT.png", "openstreetmap_id": "9919671782"}, "geometry": {"type": "Point", "coordinates": ["9.216692447662355", "47.115028777446774"]}}, {"type": "Feature", "properties": {"identifier": "19a1ec89-b583-4b84-82f8-08c1e664f683", "name": "Spielplatz Prodalp Flumserberg", "description": "<p>Ein abwechslungsreicher Spielplatz mit einem H\u00fcpfkissen und einer H\u00fcpfburg, die den Kindern viel Raum f\u00fcr energievolles Springen und Toben bieten. Es gibt mehrere Schaukeln, die sowohl f\u00fcr kleinere als auch f\u00fcr gr\u00f6\u00dfere Kinder geeignet sind. Ein Spielturm mit Kletterelementen und einer kleinen Rutschbahn l\u00e4dt zu Abenteuern und ersten Kletterversuchen ein. Au\u00dferdem sorgt ein spezieller Veloparcours f\u00fcr die Kleinen daf\u00fcr, dass sie mit ihren Fahrr\u00e4dern oder den vorhandenen Laufr\u00e4dern sicher fahren und ihre Geschicklichkeit verbessern k\u00f6nnen. Ein Ort voller Bewegung und Spa\u00df f\u00fcr Kinder unterschiedlichen Alters! In der N\u00e4he befindet sich das Restaurant Prodalp, sowie der Kletterturm \u00abCliimber\u00bb. </p>", "image": "https://hltpimtsoch.sos-ch-dk-2.exoscale-cdn.com/catalog/6/f/5/a/6f5a37c7bff6ede25318564d8bf6de18df91a817_tkv_hlt_spielplaetze_007_Prodalp_002A8499.jpg", "openstreetmap_id": "way/194824439"}, "geometry": {"type": "Point", "coordinates": ["9.2893443", "47.0806776"]}}, {"type": "Feature", "properties": {"identifier": "1e0fb5ef-18ad-4677-868b-fecdad041d7c", "name": "Bahnhof Unterterzen", "description": "<div>Der Bahnhof Unterterzen liegt nahe am Walensee und ist ein wichtiger Ankunfts- und Ausgangspunkt f&uuml;r Ausfl&uuml;ge in die Region sowie Richtung Flumserberg mit der Gondelbahn SeeJet. Der Bahnhof ist gut erschlossen und eignet sich ideal f&uuml;r eine kombinierte Anreise mit Bahn, Auto oder Velo. Am Bahnhof stehen 5 Parkpl&auml;tze (P+Rail Unterterzen) zur Verf&uuml;gung sowie ein &uuml;berdachtes Veloparking mit 18 Pl&auml;tzen.</div>", "url": "https://www.sbb.ch/de/reiseinformationen/bahnhoefe/bahnhof-finden/bahnhof.9416.unterterzen.html", "image": "https://hltpimtsoch.sos-ch-dk-2.exoscale-cdn.com/catalog/b/9/f/d/b9fd2984fdc3f7d448b534f90f35c5863485e510_Bahnhof_Piktogramm_HLT.png", "openstreetmap_id": "node/2051540372"}, "geometry": {"type": "Point", "coordinates": ["9.2549987", "47.1138237"]}}, {"type": "Feature", "properties": {"identifier": "2236050a-0fd1-44cd-ad11-27056cae9138", "name": "Feuerstelle Freudenberg", "description": "<p>Die Feuerstelle Freudenberg befindet sich rund einen Kilometer nordwestlich von Bad Ragaz im Burghof der Ruine Freudenberg. Sie liegt neben einer grossen Wiese, die zum Verweilen und Spielen einl&auml;dt, und ist von den historischen Mauern der Ruine umgeben. Der Grillplatz ist mehrheitlich sonnig, einzelne B&auml;ume spenden etwas Schatten.</p><p>Vor Ort stehen eine Feuerstelle mit Rost, Sitzgelegenheiten sowie Brennholz zur Verf&uuml;gung. Ein Brunnen mit Trinkwasser, Abfallentsorgung und eine Toilette sind ebenfalls vorhanden. Die Feuerstelle eignet sich gut f&uuml;r Einzelpersonen, Paare und Familien, jedoch nicht f&uuml;r gr&ouml;ssere Gruppen.</p><p>Der Zugang erfolgt ab den Parkm&ouml;glichkeiten &uuml;ber eine asphaltierte Strasse und einen gut begehbaren Kiesweg zur Ruine. Oben angekommen bietet sich eine sch&ouml;ne Aussicht auf Bad Ragaz und die umliegenden Berge.</p><p><strong>Lage</strong></p><ul><li>1 km nordwestlich von Bad Ragaz</li><li>Burghof der Ruine Freudenberg</li><li>600 m &uuml;. M.</li><li>Mehrheitlich sonnig</li></ul><p><strong>Erreichbarkeit</strong></p><ul><li>Zu Fuss oder mit dem Velo erreichbar</li><li>&Ouml;V: Bad Ragaz, Schulhaus Kleinfeld (1,7 km)</li><li>Parkpl&auml;tze im Dorf Bad Ragaz</li></ul><p><strong>Ausstattung</strong></p><ul><li>Feuerstelle mit Rost</li><li>Brennholz vorhanden</li><li>Ca. 15 Sitzpl&auml;tze an der Feuerstelle</li><li>Zus&auml;tzliche Sitzgelegenheiten</li><li>Nicht geeignet f&uuml;r gr&ouml;ssere Gruppen</li></ul><p><strong>Umgebung</strong></p><ul><li>Grosse Wiese in der Ruine</li><li>Spielm&ouml;glichkeiten vorhanden</li><li>Burg Freudenberg</li></ul><p><strong>Besonderes</strong></p><ul><li>Abfallentsorgung vorhanden</li><li>Trinkwasser (Brunnen)</li><li>WC vorhanden</li><li>Wanderweg Richtung Vilters</li></ul><p>Die Grillstelle wird unterhalten durch die Ortsgemeinde Bad Ragaz. Allf&auml;llige Besch&auml;digungen bitte diesem Kontakt melden.&nbsp;</p>", "url": "https://www.og-badragaz.ch/", "image": "https://hltpimtsoch.sos-ch-dk-2.exoscale-cdn.com/catalog/8/f/0/d/8f0dea63725c57c38755f28268a34dc357d31fb9_Freudenberg_Bad_Ragaz.jpg", "openstreetmap_id": "node/6883313956"}, "geometry": {"type": "Point", "coordinates": ["9.4924324", "47.008979"]}}, {"type": "Feature", "properties": {"identifier": "2a77a924-b43d-4a99-a7ee-e5f55d9a1172", "name": "Kr\u00e4uter-Pfarrer K\u00fcnzle Museum", "description": "<p>Hoch &uuml;ber Vilters, im ehemaligen Pfarrhaus, &ouml;ffnete am 10. November 2019 das &laquo;Kr&auml;uter-Pfarrer K&uuml;nzle&raquo; Museum seine T&uuml;ren. Die Dauerausstellung zeigt das Leben und Wirken des Kr&auml;uterpfarrers, der w&auml;hrend elf Jahren in Wangs-Vilters als Pfarrer t&auml;tig war und dort auch 1945 begraben wurde. Ge&ouml;ffnet ist das Museum jeweils jeden ersten und dritten Sonntag im Monat, von 10 - 12 und 13-16 Uhr.</p><p>Flyer mit Daten <a href=\"https://pfarrerkuenzle.ch/wp-content/uploads/2026/01/Flyer-2026.pdf\">https://pfarrerkuenzle.ch/wp-content/uploads/2026/01/Flyer-2026.pdf</a></p>", "url": "https://pfarrerkuenzle.ch/", "image": "https://hltpimtsoch.sos-ch-dk-2.exoscale-cdn.com/catalog/e/3/b/f/e3bf5f3e558ac11f81bbfc735b44dde0bee2c7a0_Museum_mit_Kirche.jpg", "openstreetmap_id": "way/119360990"}, "geometry": {"type": "Point", "coordinates": ["9.448006153106691", "47.02292944947706"]}}, {"type": "Feature", "properties": {"identifier": "38fc028b-ca2f-409a-8429-1fd2dc9d75a4", "name": "Anlegestelle Hafen Walenstadt", "description": "<p>Erforschen Sie die tiefblaue Mitte der Region und geniessen Sie die atemberaubende Bergkulisse auf dem Walensee. Lassen Sie sich von den majest&auml;tischen Churfirsten, der wild romantischen Natur, dem glasklaren Wasser und den fantastischen Stimmungen am Walensee verzaubern. Der Walensee, das Paradies f&uuml;r nah und fern. Die Schiffsbetrieb Walensee AG verbindet Orte, Angebote und Aktivit&auml;ten in idealer Weise. Die Verbindung nach Quinten ist auch im Winter durchgehend in Betrieb.</p><h3>Zugangsinformationen</h3><div class=\"rte\"><ul><li>Stufenloser Zugang</li><li>Ein- und Ausstieg durch Personalhilfestellung</li><li>Gruppen ab 10 Personen und Rollst&uuml;hle m&uuml;ssen im Voraus angemeldet werden.</li><li>Kein taktiles Leitsystem vorhanden</li></ul></div>", "url": "https://walenseeschiff.ch/de/fahrplan/anlegestellen/walenstadt.html", "image": "https://hltpimtsoch.sos-ch-dk-2.exoscale-cdn.com/catalog/e/9/e/4/e9e4080f5b32fc3edbb2b9cdd67ee87e459a6d0f_Anlegestelle_Hafen_Piktogramm_HLT.png", "openstreetmap_id": "node/8221514692"}, "geometry": {"type": "Point", "coordinates": ["9.30146098136902", "47.12757423628905"]}}, {"type": "Feature", "properties": {"identifier": "39f4348c-0333-4760-84ee-16a3fdac5c75", "name": "Seilbahn Sch\u00f6nhalden", "description": "<p>Unsere Seilbahn ist seit 1976 in Betrieb und wurde von der einheimischen Firma Bartholet AG erbaut. Die Pendelbahn mit je zwei gekoppelten 4er-Kabinen kann pro Stunde 40 Personen bef&ouml;rdern. Die Talstation in Flums Saxli liegt auf 640m &uuml;.M. von wo die Seilbahn auf einer L&auml;nge von 2'407m direkt bis zum Berghotel Sch&ouml;nhalden auf 1494m &uuml;.M. f&auml;hrt.</p>", "url": "https://www.schoenhalden.ch/seilbahn/", "image": "https://hltpimtsoch.sos-ch-dk-2.exoscale-cdn.com/catalog/8/7/a/d/87ad1d3fac1dc267a647330e60fd14c4ce82013b_Sch__nhalden_Sommer__1_.jpg", "openstreetmap_id": "node/2428613804"}, "geometry": {"type": "Point", "coordinates": ["9.3498915", "47.078528"]}}, {"type": "Feature", "properties": {"identifier": "3abdf12a-7658-4df7-bd79-e3366dfe8983", "name": "Feuerstelle Unterterzen", "description": "<div>Die Feuerstelle verf&uuml;gt &uuml;ber Tische und Sitzgelegenheiten und ist gut f&uuml;r eine gem&uuml;tliche Grillpause geeignet. Toiletten sowie Abfalleimer sind vor Ort vorhanden. Die Grillstelle wird vom Touristikverein Quarten Walensee unterhalten.</div>", "url": "https://www.heidiland.com", "image": "https://hltpimtsoch.sos-ch-dk-2.exoscale-cdn.com/catalog/8/8/9/0/88906317df347bd1ea9c1464fc4d395b5607314a_Feuerstelle_Piktogramm_HLT.png", "openstreetmap_id": "13729567171"}, "geometry": {"type": "Point", "coordinates": ["9.248873591423036", "47.11327670990599"]}}, {"type": "Feature", "properties": {"identifier": "3b30c9b2-bf7d-46b5-9beb-10f1c8a0068f", "name": "Bergk\u00e4serei M\u00e4dris", "description": "In der Bergk\u00e4serei M\u00e4dris wird die silofreie Bergmilch, die naturbelassene Rohmilch der K\u00fche von f\u00fcnf Bergbauernfamilien, zu hochwertigen Milchprodukten veredelt. Im K\u00e4sekeller und im K\u00fchlraum reifen die unverf\u00e4lschten Melser Bergk\u00e4se und weitere Spezialit\u00e4ten heran. \nEinzigartig ist ihr Geschmack, den das duftende Bergheu in den Wintermonaten und die saftigen Kr\u00e4uter im Fr\u00fchjahr in die Milchprodukte bringen. Unsere Bergheimet und Maiens\u00e4sse liegen an der Bergflanke am Melser Hinterberg von 800-1200m H\u00f6he. In diesem Lebensraum ist auch das Naturschutzgebiet Chapfensee eingebettet.\n\nK\u00e4sereibesuch f\u00fcr Gruppen (Winter)\nF\u00fcr Gruppen offerieren wir eine unvergessliche Besichtigung unserer Bergk\u00e4serei. \nAngebot von Mitte Oktober bis Ende Mai (\u00fcbrige Zeit nur ohne K\u00e4seherstellung).\n- Begr\u00fcssung durch einen der drei Eigent\u00fcmer der Bergk\u00e4serei M\u00e4dris\n- Rundgang Milchannahme und K\u00e4serei\n- Einblick in unseren Reifekeller\n- K\u00e4sedegustation mit den Melser Bergk\u00e4sen mild / w\u00fcrzig / rezent, Chapf\u00e4-Mutschli, Bergtr\u00e4umli, Degustation der M\u00e4driser Jogurt\n- Gelegenheit zum K\u00e4sekauf direkt ab K\u00e4sekeller\nEine Anmeldung ist erforderlich.\n\nVerbinden Sie einen K\u00e4sereibesuch bei uns mit einem Ausflug in die Natur. Bei bester Aussicht erlebt man die Wildheit des Melser Hinterbergs bei einem sanften Spaziergang durch das botanisch wertvolle Naturschutzgebiet Chapfensee. Lohnenswert im Sommer oder im Winter ist auch ein Abstecher ins wildromantische Weisstannental.\nDer Bergweiler M\u00e4dris und die dazugeh\u00f6rigen Maiens\u00e4sse liegen an einer Bergflanke hoch \u00fcber dem Seeztal. Ein bezauberndes Eldorado f\u00fcr Wanderer und Biker. Von kleinen Rundwanderungen bis hin zu mehrt\u00e4gigen Bergtouren bieten sich unz\u00e4hlige M\u00f6glichkeiten:\n- Rundwanderung durch gesch\u00fctzte Moorlandschaften am Chapfensee\n- Rundwanderung vom Chapfensee zur Sonnenterrasse Vermol\n- Themenpfad Melser Geoweg\n- Erdpyramiden und Wasserkraft: Wanderung ins Seeztobel\n- Bergwanderung Vermol - Alp Tamons - H\u00fcenerchopf\n- Panoramaweg Chapfensee - Schwarzenberg - Berghotel Sch\u00f6nhalden\n- WALSA-H\u00f6henweg, Bad Ragaz - Amden\n- Skitour oder Schneeschuhlaufen Vermol - Tamons - H\u00fceneri\n- Bergtalwanderung Vermol - Schwendi - Weisstannen", "url": "http://www.maedris.ch", "image": "https://hltpimtsoch.sos-ch-dk-2.exoscale-cdn.com/catalog/e/f/6/a/ef6a9d82db5d84b0d58513dd641d9387b737ecf7_Bergk__serei_M__dris_6.jpg", "openstreetmap_id": "way/388129219"}, "geometry": {"type": "Point", "coordinates": ["9.392086458162218", "47.05219913986842"]}}, {"type": "Feature", "properties": {"identifier": "473d7015-be91-4781-8073-a26ac5244fee", "name": "Adanks kleine Farm", "description": "Demeter-Bauernhof mit viel Flair f\u00fcr das Aussergew\u00f6hnliche. \nWir halten schottische Hochlandrinder und Bruderh\u00e4hne. Auf unseren Feldern w\u00e4chst Safran, Polentamais, Knoblauch und nat\u00fcrlich Gras f\u00fcr unsere Rinder\nDie wertvollen Produkte werden im sch\u00f6nen Hofladen angeboten. \nDer Hof liegt am Fuss des Fl\u00e4scherbergs 1\u00a0km nach der Rheinbr\u00fccke nach Fl\u00e4sch.", "url": "http://adankskleinefarm.ch/#home", "image": "https://hltpimtsoch.sos-ch-dk-2.exoscale-cdn.com/catalog/3/1/f/0/31f0c997b4804b2be599aa1df05f1580957cb697_FC939D07_0EA8_4B2D_BD14_86FF81EBB5A0.jpeg", "openstreetmap_id": "way/1037787064"}, "geometry": {"type": "Point", "coordinates": ["9.505635589917608", "47.031034"]}}, {"type": "Feature", "properties": {"identifier": "479545b4-6a07-4be2-b99e-90327e41c7b9", "name": "Sarganserl\u00e4nder Maskenmuseum Flums", "description": "Im Sarganserland gelten Flums, Mels und Walenstadt als die Hochburgen der Maskenschnitzer. Doch auch in anderen Gemeinden der Region wird dieser \u00fcber 200 Jahre alte Brauch heute noch gepflegt. Rund 200 historische und zeitgen\u00f6ssische Holzmasken sind im Museum zu sehen und pr\u00e4sentieren das typische Brauchtum der Region. \n \nDas Sarganserl\u00e4nder Maskenmuseum wurde im Rahmen des 50-Jahr-Jubil\u00e4ums der Talgemeinschaft Sarganserland Walensee 2006 in den Kellerr\u00e4umlichkeiten des Flumser Rathauses realisiert. Die Ausstellung ist in drei R\u00e4ume aufgeteilt. Der Raum der Region enth\u00e4lt typische Masken aus allen acht Sarganserl\u00e4nder Gemeinden. Hier erz\u00e4hlt eine Videoschau \u00fcber die Entstehung einer einzelnen Holzmaske. Im Raum der Maskengeschichte sind historische Masken und wertvolle Rarit\u00e4ten sowie die zur Herstellung ben\u00f6tigten Schnitzwerkzeuge zu sehen. Der dritte Raum, der Raum der Masken, ist schliesslich den neueren Masken von zeitgen\u00f6ssischen Schnitzern gewidmet.", "url": "https://www.flums.ch/sehenswuerdigkeiten/8451", "image": "https://hltpimtsoch.sos-ch-dk-2.exoscale-cdn.com/catalog/0/7/9/b/079b61ba8b39c3b4b3a929dceb12b2b34eaa63e7_Sarganserl__nder_Maskenmuseum_5.jpg", "openstreetmap_id": "way/194917725"}, "geometry": {"type": "Point", "coordinates": ["9.343642234774673", "47.090096599999995"]}}, {"type": "Feature", "properties": {"identifier": "4b40c314-ff35-4391-a2dd-e7303190498b", "name": "Milit\u00e4rmuseum St.Luzisteig", "description": "40 Jahre lang war die Festung auf der St.Luzisteig Heimat der Trainrekrutenschulen und -truppen. Die bewegte Vorgeschichte und Geschichte der Luzisteig geht jedoch bis ins 15. Jahrhundert zur\u00fcck.\nHeute befindet sich auf der Passh\u00f6he St.Luzisteig (zwischen Maienfeld und Balzers) im alten Arsenal ein sehenswertes Milit\u00e4rmuseum. Erleben Sie dort ein spannendes und bedeutendes St\u00fcck Zeitgeschichte. Nebst der Ausstellung wird dem Besucher ein Kurzfilm \u00fcber die Geschichte rund um die St.Luzisteig vorgef\u00fchrt. \n\nEintrittspreise: \nErwachsene CHF 10.00\nKinder (6-16 Jahre) CHF 5.00\nMilit\u00e4r (uniformiert) CHF 3.00\n\nF\u00fcr Gruppen ab 10 Personen:\nErwachsene CHF 5.00\nKinder (6-16 Jahre) CHF 3.00\nMilit\u00e4r (uniformiert) CHF 3.00\n\nDas General-St\u00fcbli kann f\u00fcr diverse Anl\u00e4sse und Bewirtungen auf Anfrage gebucht werden und bietet Platz bis zu 45 Personen.", "url": "https://www.luzisteig.ch/home/", "image": "https://hltpimtsoch.sos-ch-dk-2.exoscale-cdn.com/catalog/0/1/9/8/0198ded5211d87c50a5546f0dab536c3cea444f5_Luzisteig_Milit__rmuseum.jpg", "openstreetmap_id": "node/1456728108"}, "geometry": {"type": "Point", "coordinates": ["9.529239535331728", "47.02959419495996"]}}, {"type": "Feature", "properties": {"identifier": "5174356a-1a0e-4ce2-8d5a-119b9ca0d241", "name": "Seilbahn V\u00e4ttnerberg", "description": "<p>Die Seilbahn V&auml;ttnerberg, betrieben von der V&auml;ttnerberg Korporation, verbindet V&auml;ttis/Taminatal mit dem V&auml;ttnerberg (ca.\u202f1600&ndash;1800\u202fm &uuml;.M.). Die Bahn wurde urspr&uuml;nglich 1932 errichtet, 1972 elektrifiziert und 2000 umgebaut. Sie spannt sich &uuml;ber eine Seill&auml;nge von 1\u202f065\u202fm bei 625\u202fm H&ouml;hendifferenz.</p>", "url": "https://www.v\u00e4ttnerberg.ch/seilbahn/", "image": "https://hltpimtsoch.sos-ch-dk-2.exoscale-cdn.com/catalog/a/1/5/a/a15ad92d2d5042d1b9060c924961b682c2d7d4a6_Muntaluna_V__ttnerberg.jpg", "openstreetmap_id": "node/560106340"}, "geometry": {"type": "Point", "coordinates": ["9.4560546", "46.9219972"]}}, {"type": "Feature", "properties": {"identifier": "63f490ec-c7d6-4942-9669-c43fe5a43e59", "name": "Hof Eggenberger", "description": "Unsere 2-Generationenhof liegt inmitten der sonnigen B\u00fcndner Herrschaft im Herzen des Weinbaudorfes Jenins. Zusammen bewirtschaften wir mit viel Begeisterung und Elan unseren Landwirtschaftsbetrieb mit integrierten Hofladen und SCHLAFF-FASS.", "url": "https://www.hofeggenberger.ch", "image": "https://hltpimtsoch.sos-ch-dk-2.exoscale-cdn.com/catalog/d/c/6/8/dc688be87cfd613f2cf07a84934469413df5a376_a60bfd5416bb90b0ff51e1c6e4d6ac96e3c0d441_image_28_02_22_09_35_1.jpeg", "openstreetmap_id": "way/445547459"}, "geometry": {"type": "Point", "coordinates": ["9.558609724044802", "46.99974157452924"]}}, {"type": "Feature", "properties": {"identifier": "6d36b0b7-e698-4153-a38e-f27a91f4fd1f", "name": "Bahnhof Murg", "description": "<div>Der Bahnhof Murg liegt in unmittelbarer N&auml;he des Walensees und dient als praktischer Ankunfts- und Ausgangspunkt fu\u0308r Ausflu\u0308ge in die Region sowie entlang des Seeuferwegs Walensee. Der Bahnhof ist u\u0308bersichtlich und gut angebunden. Wer mit dem Auto anreist, findet beim Bahnhof 15 Parkpl&auml;tze (P+Rail Murg). Von hier aus lassen sich Spazierg&auml;nge, Badepl&auml;tze und das Murgtal bequem erreichen.</div>", "url": "https://www.sbb.ch/de/reiseinformationen/bahnhoefe/bahnhof-finden/bahnhof.9417.murg.html", "image": "https://hltpimtsoch.sos-ch-dk-2.exoscale-cdn.com/catalog/5/d/e/0/5de0a7674dc9319ca9e79fa02c798c835c31ac95_Bahnhof_Piktogramm_HLT.png", "openstreetmap_id": "node/418160521"}, "geometry": {"type": "Point", "coordinates": ["9.214890003204347", "47.11332056556371"]}}, {"type": "Feature", "properties": {"identifier": "7b3b71e1-93fa-4968-9910-7f97c6099834", "name": "Altes Bad Pf\u00e4fers bei der Taminaschlucht", "description": "Das Alte Bad Pf\u00e4fers ist das \u00e4lteste erhaltene Barockbad der Schweiz. Heute ist das historische Geb\u00e4ude eine Kultursehensw\u00fcrdigkeit mit \u00fcberregionaler Ausstrahlung. Das geschichtstr\u00e4chtige Haus steht am Eingang der Taminaschlucht, wo das ber\u00fchmte 36,5\u00b0 C warme Thermalwasser entspringt.\n\nDie Geschichte des Alten Bad Pf\u00e4fers beginnt im Jahr 1240, als zwei J\u00e4ger eine 36,5\u00b0 C warme Quelle in der Taminaschlucht entdecken. In deren Wasser erkennen die M\u00f6nche des nahe gelegenen Benediktiner-Klosters eine heilende Wirkung. Im Laufe der Jahrhunderte w\u00e4chst das Bad zu einer international renommierten Kurst\u00e4tte heran. Gebadet wird in Bad Pf\u00e4fers heute jedoch schon lange nicht mehr. Zwischen 1983 und 1995 wurde es umfassend renoviert. Es beheimatet heute ein beliebtes Restaurant und ist immer wieder Schauplatz diverser kultureller Veranstaltungen.\n\nDas Museum Badgeschichte vermittelt einen Einblick in die wechselvolle Geschichte des Bades und des Badens von den Urspr\u00fcngen bis in die Gegenwart.\n\nDas Museum Kloster Pf\u00e4fers zeigt die enge Verbindung zur Geschichte des Bades und stellt das Benediktiner-Kloster als geistliches und kulturelles Zentrum des Sarganserlandes dar, von der Gr\u00fcndung um 730 bis zur Aufhebung im Jahr 1838.\n\nDie Paracelsus-Gedenkst\u00e4tte zeigt das Leben und Wirken des Paracelsus, der als erster Badearzt im Alten Bad Pf\u00e4fers wirkte. Aber auch die neugotische Badkapelle und die restaurierte alte K\u00fcche sind einen Besuch wert.\n\nDie grossz\u00fcgig gestaltete Mediathek l\u00e4dt zum Verweilen ein. \u00dcber verschiedene Medien wird die Geschichte des Alten Bad Pf\u00e4fers vermittelt.\nEin neuer Audiowalk l\u00e4dt auf einen virtuellen Spaziergang zur Bl\u00fctezeit des Bad Pf\u00e4fers um 1833 ein.", "url": "http://www.altes-bad-pfaefers.ch", "image": "https://hltpimtsoch.sos-ch-dk-2.exoscale-cdn.com/catalog/c/1/f/8/c1f86574153c154cd4cceb2cf99dac333a97d66d_Bad_Pfaefers_Mai13.JPG", "openstreetmap_id": "node/10730436961"}, "geometry": {"type": "Point", "coordinates": ["9.487643", "46.9739994"]}}, {"type": "Feature", "properties": {"identifier": "7b4819e6-37ee-4d8b-848f-f73ee15ba1aa", "name": "Burgruine Gr\u00e4pplang", "description": "<div>Die <strong>Burgruine Gr&auml;pplang</strong> thront hoch &uuml;ber Flums und bietet eine eindrucksvolle Aussicht auf das Sarganserland.</div><p>&nbsp;</p><p>Auf dem Burgh&uuml;gel steht die Ruine der im Mittelalter bekannt gewordenen Ritterburg, welche die Herren von Flums um 1220 auf der \"crap long\", dem \"langen Felsen\", errichteten. Nach mehreren Lehen-Besitzern f&auml;llt die Burg 1419 an Z&uuml;rich. 1440 wird sie durch Glarner und Schwyzer Truppen zerst&ouml;rt. Ludwig Tschudi kauft 1528 die Festung, die nach reger Baut&auml;tigkeit 1767 infolge finanzieller Probleme wieder ver&auml;ussert werden muss. Es folgen mehrere Besitzer, bis die Burg, verwahrlost, im Jahre 1804 zum Abbruch verkauft wird. 1923 erwirbt, renoviert und unterh&auml;lt die Gemeinde Flums die Ruine.</p><p>Dass nicht alle Burgherren gute Herren gewesen sind, zeigen die Legenden &bdquo;Schloss Gr&auml;pplang&ldquo; und &bdquo;Der b&ouml;se Burgherr&ldquo;. Beide berichten von einem Tyrannen, der seine Untertanen ausn&uuml;tzt. Betreten Sie die gut restaurierte Ruine und versetzen Sie sich in fr&uuml;here Zeiten. Die Mauern und eingezogenen Treppen vermitteln Ihnen ein gutes Bild der Burg. Geniessen Sie im oberen, grossen Raum die Aussicht. Hier finden Sie einen kraftvollen Ort, der sich von seiner Energiequalit&auml;t her als Kultplatz eignet. F&uuml;r die Bewohner der Burg ist der Platz sicherlich zu stark gewesen. Hat eventuell einer der b&ouml;sen Burgherren hier getafelt oder gar hier geschlafen, k&ouml;nnen wir uns seine Unausgeglichenheit, die sich zur Tyrannei entwickelt hat, gut vorstellen.</p><p>Bei der Feuerstelle im ehemaligen Burghof finden Sie nochmals einen Kraftplatz mit Kultplatzqualit&auml;ten. Die Intensit&auml;t seiner Energien ist bedeutend h&ouml;her als im Rest der Burg. Funde belegen, dass der Ort schon vor seiner Besiedelung, seit der Jungsteinzeit, von Menschen besucht worden ist.</p>", "url": "https://www.ruinegraepplang.ch/", "image": "https://hltpimtsoch.sos-ch-dk-2.exoscale-cdn.com/catalog/7/7/c/3/77c379b8c23700010eb5059c52f8519958d57db1_tkv_graepplang_DJI_0055_HDR.JPG", "openstreetmap_id": "node/572206579.0"}, "geometry": {"type": "Point", "coordinates": ["9.332059621810915", "47.10285654399423"]}}, {"type": "Feature", "properties": {"identifier": "8977ce24-4adc-4996-a934-4ba82331b345", "name": "Anlegestelle Hafen Betlis", "description": "<p>Erforschen Sie die tiefblaue Mitte der Region und geniessen Sie die atemberaubende Bergkulisse auf dem Walensee. Lassen Sie sich von den majest&auml;tischen Churfirsten, der wild romantischen Natur, dem glasklaren Wasser und den fantastischen Stimmungen am Walensee verzaubern. Der Walensee, das Paradies f&uuml;r nah und fern. Die Schiffsbetrieb Walensee AG verbindet Orte, Angebote und Aktivit&auml;ten in idealer Weise. Die Verbindung nach Quinten ist auch im Winter durchgehend in Betrieb.</p><h3>Zugangsinformationen</h3><div class=\"rte\"><ul><li>Stufenloser Zugang</li><li>Ein- und Ausstieg durch Personalhilfestellung</li><li>Gruppen ab 10 Personen und Rollst&uuml;hle m&uuml;ssen im Voraus angemeldet werden.</li><li>Kein taktiles Leitsystem vorhanden</li></ul></div>", "url": "https://walenseeschiff.ch/de/fahrplan/anlegestellen/betlis.html", "image": "https://hltpimtsoch.sos-ch-dk-2.exoscale-cdn.com/catalog/b/a/4/7/ba4755ef6117ca3a2957b129e0fd817cf5031410_Anlegestelle_Hafen_Piktogramm_HLT.png", "openstreetmap_id": "node/2936555487"}, "geometry": {"type": "Point", "coordinates": ["9.1459512", "47.1343466"]}}, {"type": "Feature", "properties": {"identifier": "8b2c1425-db3a-41f7-8f57-081ebb03e5ff", "name": "Ortsmuseum Walenstadt", "description": "Das Ortsmuseum widmet sich der Geschichte von Walenstadt. Neben Urkunden der Stadt werden Bilder bedeutender Pers\u00f6nlichkeiten pr\u00e4sentiert. Der Verkehrsweg Sarganserland-Walensee und die Wasserkraftnutzung Widenbach werden anschaulich dargestellt. Spezielle Exponate sind die Originalmasken der Gemeinder\u00f6lli von Walenstadt und die Holzmasken von Berschis.\n\n\u00d6ffnungszeiten: 1. Samstag jeden Monats: Von 10.00 - 11. 00 Uhr. Um 10.00 Uhr F\u00fchrung durch das Ortsmuseum, bei Interessen mit Stadtrundgang.\nAnmeldungen f\u00fcr F\u00fchrungen ausserhalb dieses Termins sind per Mail m\u00f6glich.", "url": "https://www.ortsgemeinde-walenstadt.ch/oeffentlichkeit/ortsmuseum/", "image": "https://hltpimtsoch.sos-ch-dk-2.exoscale-cdn.com/catalog/c/7/9/d/c79da53115823a0e66a2854da11a25f1806d8d35_690_online_1_Altes_Rathaus_Walenstadt_Ortsmuseum.jpg", "openstreetmap_id": "node/5813467555"}, "geometry": {"type": "Point", "coordinates": ["9.3148602", "47.1242197"]}}, {"type": "Feature", "properties": {"identifier": "8d942e32-50a0-4956-b517-02d47599afc0", "name": "Burganlage Neu-Aspermont", "description": "Die Burg Neu-Aspermont stammt aus dem 13. Jahrhundert. In den Urkunden wird im Jahr 1120 ein Ritter Aspermont, Vice-Domenicus des Bischofs von Chur, erw\u00e4hnt. Die Burg blieb \u00fcber Generationen in dessen Familie. Die Grafen von Aspermont hatten auch bei Thorenb\u00fcren, dem heutigen Dornbirn, verschiedene Besitzt\u00fcmer. Ulrich XI \u00fcbersiedelte 1376 auf einen Sitz innerhalb der dortigen L\u00e4ndereien und nahm den Namen Rauenberg an, was so viel wie Aspermont bedeuten k\u00f6nnte. \n\nW\u00e4hrend des so genannten Schwabenkriegs 1499 wurde Neu-Aspermont zerst\u00f6rt. Adelsmann Dietpold von Schlandersberg liess die Burg wieder aufbauen und den Turm um zwei Geschosse aufstocken. Um 1538 \u00fcbernahm zwischenzeitlich der Gr\u00fcscher Peter von Finer, seines Zeichens Landvogt zu Castels, die Burg. Der legend\u00e4re Ritter von Molina war im Jahr 1630 einer der letzten Bewohner von Neu-Aspermont. \n\n1863 konnte Hauptmann Ernst Rhomberg aus Dornbirn die Burg von drei Jeninser B\u00fcrgern erwerben. Von 1999-2025 wurden durch den Verein und die Stiftung Burg Neu-Aspermont umfassende Konservierungsarbeiten durchgef\u00fchrt. 2014 gelangte die Burg in den Besitz des Vereins und 2017 wurde sie der Stiftung Burg Neu-Aspermont \u00fcbertragen. Die Burg ist \u00f6ffentlich zug\u00e4nglich mit einer Wendeltreppe im Innern des Turms.", "url": "https://www.neu-aspermont.ch/", "image": "https://hltpimtsoch.sos-ch-dk-2.exoscale-cdn.com/catalog/3/d/0/f/3d0f600c310421e6514a5a5c236ca974bd2df1b5_Aspermont_Turm.jpg", "openstreetmap_id": "node/281744674"}, "geometry": {"type": "Point", "coordinates": ["9.5652261", "47.0032475"]}}, {"type": "Feature", "properties": {"identifier": "907ec4a4-9c87-417d-bb37-64d7684e38a8", "name": "Bahnhof Ziegelbr\u00fccke", "description": "<div><p>Der <strong>Bahnhof Ziegelbr&uuml;cke</strong> verf&uuml;gt &uuml;ber eine gut ausgebaute Infrastruktur f&uuml;r Reisende und Pendlerinnen sowie Pendler. Zur Ausstattung geh&ouml;ren <strong>Schliessf&auml;cher auf Stadtebene</strong> in verschiedenen Gr&ouml;ssen f&uuml;r die sichere Aufbewahrung von Gep&auml;ck. Die Schliessf&auml;cher stehen in den Gr&ouml;ssen S und M zur Verf&uuml;gung und k&ouml;nnen je nach Saison und Mietdauer genutzt werden.</p><p>F&uuml;r die umweltfreundliche Anreise mit dem Fahrrad stehen <strong>72 &uuml;berdachte Veloparkpl&auml;tze</strong> zur Verf&uuml;gung. Zudem bietet das <strong>P+Rail\u2011Angebot in Ziegelbr&uuml;cke 105 Parkpl&auml;tze</strong>, die eine komfortable Kombination von Auto und Bahn erm&ouml;glichen.</p><p>Dank dieser Ausstattung eignet sich der Bahnhof Ziegelbr&uuml;cke ideal als Umsteige\u2011 und Ausgangspunkt f&uuml;r Reisen in die Region sowie f&uuml;r den t&auml;glichen Pendlerverkehr.</p></div>", "url": "https://www.sbb.ch/de/reiseinformationen/bahnhoefe/bahnhof-finden/bahnhof.3225.ziegelbruecke.html", "image": "https://hltpimtsoch.sos-ch-dk-2.exoscale-cdn.com/catalog/6/4/0/c/640c6c83a381055f3b0c6e7cefda2ba0a0b2ae58_Bahnhof_Piktogramm_HLT.png", "openstreetmap_id": "node/1720777156"}, "geometry": {"type": "Point", "coordinates": ["9.0599519", "47.1361374"]}}, {"type": "Feature", "properties": {"identifier": "91104eaa-c668-4d79-b848-74bd514628c6", "name": "Feuerstelle Mols", "description": "<p>Die Feuerstelle in Mols liegt direkt am Strand und eignet sich ideal zum Grillieren und Baden am Walensee. In unmittelbarer N&auml;he befinden sich ein Spielplatz vom Spielerlebnis Walensee, das Bistro Hafen West, eine beliebte Strandschaukel als Fotopoint sowie eine &ouml;ffentliche Toilette. Kostenpflichtige Parkpl&auml;tze sind ebenfalls vorhanden.</p>", "url": "https://www.heidiland.com", "image": "https://hltpimtsoch.sos-ch-dk-2.exoscale-cdn.com/catalog/0/0/5/8/00583c31fc00ca1151f7c4d3f3e194427ae653a4_Feuerstelle_Piktogramm_HLT.png", "openstreetmap_id": "12067760985"}, "geometry": {"type": "Point", "coordinates": ["9.284627437591555", "47.113590678624234"]}}, {"type": "Feature", "properties": {"identifier": "9605cf4e-626c-415f-9d47-acb9de0741c7", "name": "Anlegestelle Hafen M\u00fchlehorn", "description": "<p>Erforschen Sie die tiefblaue Mitte der Region und geniessen Sie die atemberaubende Bergkulisse auf dem Walensee. Lassen Sie sich von den majest&auml;tischen Churfirsten, der wild romantischen Natur, dem glasklaren Wasser und den fantastischen Stimmungen am Walensee verzaubern. Der Walensee, das Paradies f&uuml;r nah und fern. Die Schiffsbetrieb Walensee AG verbindet Orte, Angebote und Aktivit&auml;ten in idealer Weise. Die Verbindung nach Quinten ist auch im Winter durchgehend in Betrieb.</p><h3>Zugangsinformationen</h3><div class=\"rte\"><ul><li>Stufenloser Zugang</li><li>Ein- und Ausstieg durch Personalhilfestellung</li><li>Gruppen ab 10 Personen und Rollst&uuml;hle m&uuml;ssen im Voraus angemeldet werden.</li><li>Kein taktiles Leitsystem vorhanden</li></ul></div>", "url": "https://walenseeschiff.ch/de/fahrplan/anlegestellen/muehlehorn.html", "image": "https://hltpimtsoch.sos-ch-dk-2.exoscale-cdn.com/catalog/c/8/3/2/c832f9e8e209c8362da2eb6557b643fe6779a2e8_Anlegestelle_Hafen_Piktogramm_HLT.png", "openstreetmap_id": "node/240035810"}, "geometry": {"type": "Point", "coordinates": ["9.17436718940735", "47.11828529119371"]}}, {"type": "Feature", "properties": {"identifier": "a11d909d-ad31-42b3-adf1-4ebe968ba3cc", "name": "Bahnhof Walenstadt", "description": "<div>Der Bahnhof Walenstadt liegt nahe am Walensee und ist ein zentraler Ankunfts- und Ausgangspunkt f&uuml;r Ausfl&uuml;ge entlang des Seeuferwegs sowie in die umliegende Region. Der Bahnhof ist gut erschlossen und erm&ouml;glicht eine komfortable Kombination von Bahn, Auto und Velo. Am Bahnhof stehen 49 Parkpl&auml;tze zur Verf&uuml;gung (P+Rail Walenstadt) sowie ein &uuml;berdachtes Veloparking mit 147 Pl&auml;tzen.</div>", "url": "https://www.sbb.ch/de/reiseinformationen/bahnhoefe/bahnhof-finden/bahnhof.9414.walenstadt.html", "image": "https://hltpimtsoch.sos-ch-dk-2.exoscale-cdn.com/catalog/d/3/0/5/d305edb2bed141529e687c33be8572803a949e6c_Bahnhof_Piktogramm_HLT.png", "openstreetmap_id": "2048248456"}, "geometry": {"type": "Point", "coordinates": ["9.31295692920685", "47.119906012635944"]}}, {"type": "Feature", "properties": {"identifier": "a2ce8640-b677-447c-b638-a7ffb298e87f", "name": "Aussichtsplattform Pizalun", "description": "Die Aussichtsplattform Pizalun auf der Hochebene St. Margrethenberg bietet eine Rundumsicht auf die umliegende St. Galler und B\u00fcndner Bergwelt. Dank den Panoramatafeln kann man die vielen Berge rundherum ganz einfach benennen. Zu F\u00fcssen liegt einem die B\u00fcndner Herrschaft und das Sarganserland. Und der Blick entlang dem Rhein f\u00fchrt bei guter Sicht bis zum Bodensee. \n\nDie Aussichtsplattform ist ab der Talstation des Skilifts Tristeli in einer knappen Stunde erreichbar. Auf einem leicht ansteigenden Wanderweg geht es durch W\u00e4lder und \u00fcber blumenreiche Wiesen dem Gipfel Pizalun entgegen. Ganz nach oben zur Aussichtsplattform Pizalun f\u00fchrt eine steile aber gut ausgebaute Treppe. Vom Pizalun runter Richtung F\u00fcrggli f\u00fchrt ein gem\u00fctlicher Wanderweg an der Bergwirtschaft J\u00e4geri vorbei. Wieder auf der Hochebene geht es auf der selten befahrenen Strasse zur\u00fcck zum Ausgangspunkt.", "url": "https://heidiland.com/de/service/tourist-office.html", "image": "https://hltpimtsoch.sos-ch-dk-2.exoscale-cdn.com/catalog/f/a/8/7/fa87a569398724a69c074704e5b06c8dbab97084_Aussichtsplattform__Pizalun_Sankt_Margrethenberg1.JPG", "openstreetmap_id": "node/10832298839"}, "geometry": {"type": "Point", "coordinates": ["9.5203328", "46.9711004"]}}, {"type": "Feature", "properties": {"identifier": "afbc09b5-fd1c-4e44-9945-cf0634eb8a8d", "name": "Paxmal", "description": "Mit dem Paxmal, dem Friedensmal, dessen Grundgedanke der Frieden f\u00fcr alle ist, schaffte Karl Bickel einen Ort der inneren Einkehr, der Meditation \u00fcber den Menschen und seine Ziele, seine Lebens- und seiner Gesellschaftsformen.\n\nDer K\u00fcnstler wird 1886 in Z\u00fcrich-Hirslanden geboren und verliert mit vier Jahren seinen Vater. 1900 bis 1904 macht er eine Lehre als Lithograf und Clich\u00e9ezeichner im Atelier Paul Bleuer. In der grafischen Anstalt H\u00fcttner wird er technischer Leiter und er\u00f6ffnet 1908 sein eigenes grafisches Atelier. Bis 1912 stellt er Briefk\u00f6pfe, Gesch\u00e4ftsempfehlungskarten und Modekataloge her. 1913 erkrankt Bickel an Tuberkulose und weilt \u00fcber ein Jahr zur Kur in Walenstadtberg. Hier stellen sich Visonen ein, die er bei Genesung in Form eines Friedenstempels umsetzen will. 1924 beginnt er mit dem 25 Jahre dauernden Bau des Paxmals und lernt die St. Gallerin Berta Albrecht, die er 1926 heiratet, kennen. Sein Sohn Karl wird 1927 geboren. Bickel stirbt mit 96 Jahren 1982 auf Schrina-Hochrugg.\n\nDas Paxmal ist ein hoch interessanter Ort des Staunens. Energetisch reicht es nicht zum Kraftort. Geniessen Sie den Platz zwischen den monumentalen Churfirsten und dem Walensee, setzen Sie sich mit dem Kunstwerk und seinen Aussagen auseinander und lassen Sie Ihre Seele fliegen, wenn sich der Himmel im Wasser spiegelt.\n\nDas Paxmal ist von Fr\u00fchling bis Herbst frei zug\u00e4nglich.", "url": "https://www.museumbickel.ch/index.php/paxmal", "image": "https://hltpimtsoch.sos-ch-dk-2.exoscale-cdn.com/catalog/d/6/7/b/d67b80aa6015b8a81fef3c7e55aaf09d1bfe3ac1_Paxmal_by_Karl_Bickel.jpg", "openstreetmap_id": "way/252917689"}, "geometry": {"type": "Point", "coordinates": ["9.270269293307088", "47.142272649999995"]}}, {"type": "Feature", "properties": {"identifier": "b4874419-78c1-4c12-a36b-c8f4ac7d0890", "name": "Riesenh\u00fcpfkissen Flumserberg Prodalp", "description": "Das H\u00fcpfkissen auf Prodalp steht gleich neben dem Kletterturm CLiiMBER und dem Bergrestaurant Prodalp. Die Benutzung ist kostenlos.", "url": "https://www.flumserberg.ch", "image": "https://hltpimtsoch.sos-ch-dk-2.exoscale-cdn.com/catalog/a/4/3/c/a43c5adfb76670f66817c76111bd2f757c85d81a_tkv_bbf_prodalpsommer_0004__O5A4381.jpg", "openstreetmap_id": "node/3431838772"}, "geometry": {"type": "Point", "coordinates": ["9.28898334503174", "47.080340311768"]}}, {"type": "Feature", "properties": {"identifier": "bcc948d6-8b08-4e4e-90eb-214b0bce8748", "name": "Spielerlebnis Walensee - Quinten", "description": "Das Spielerlebnis Walensee ist der gr\u00f6sste Themenspielplatz der Schweiz und bietet eine spannende Schnitzeljagd f\u00fcr die ganze Familie. Unter dem Motto \u00abWer l\u00f6st das Geheimnis vom Walensee?\u00bb erleben die Kinder Spiel- und R\u00e4tselplausch verbunden mit Schiffsfahrten und Entdeckungen auf sechs Spielpl\u00e4tzen rund um den Walensee. Das Spiel ist so aufgebaut, dass bereits Kinder ab 6 Jahren mit ein wenig Hilfe das R\u00e4tsel l\u00f6sen k\u00f6nnen.\n\nQuinten:\nDie \u00abCosta del Sol\u00bb in Quinten ist ber\u00fchmt f\u00fcr ihr s\u00fcdliches Klima und nur via Seeweg erreichbar. Der neue Themenwanderweg entlang der K\u00fcste verr\u00e4t Wissenswertes \u00fcber die exotischen Fr\u00fcchte und Tiere an diesem paradiesischen, kleinen Ort.", "url": "https://www.spielerlebnis-walensee.ch", "image": "https://hltpimtsoch.sos-ch-dk-2.exoscale-cdn.com/catalog/f/4/0/3/f4039ac7295c764719f432c699c90c943d6b5f52_IMAG0989.jpg", "openstreetmap_id": "node/240078789"}, "geometry": {"type": "Point", "coordinates": ["9.216027259826662", "47.12894624011246"]}}, {"type": "Feature", "properties": {"identifier": "bfdc2562-ebaf-472c-9b42-b24401931070", "name": "loftgalerie in der alten Spinnerei", "description": "Mit viel Liebe zum Detail, Kreativit\u00e4t und Herzblut wurde aus der ehemaligen, denkmalgesch\u00fctzten Spinnerei am Walensee ein neuer Ort der Begegnung geschaffen. Nachhaltigkeit und der Bezug zur industriellen Vergangenheit sind dabei ebenso wichtig wie pers\u00f6nlich gepr\u00e4gte Gastfreundschaft. \n\nBeispiel f\u00fcr den gelebten kreativen Geist ist die loftgalerie. In Zusammenarbeit mit Kurator Andrin Sch\u00fctz finden Ausstellungen von interessanten Kunstschaffenden aus dem In- und Ausland statt.", "url": "https://www.seekultour.ch/", "image": "https://hltpimtsoch.sos-ch-dk-2.exoscale-cdn.com/catalog/6/b/6/6/6b666083c3df699a68cd828e990432fee3ddf87a_loftgalerie_in_der_alten_Spinnerei.jpg", "openstreetmap_id": "node/418190191"}, "geometry": {"type": "Point", "coordinates": ["9.2170854", "47.1124346"]}}, {"type": "Feature", "properties": {"identifier": "c35a95b9-bf8f-4158-82ed-4ad1c8aa692f", "name": "Feuerstelle Quinten", "description": "<p>Die Feuerstelle liegt direkt am Ufer des Walensees zwischen Au und Quinten und ist &uuml;ber einen kurzen Spaziergang auf dem Wanderweg gut erreichbar. Vor Ort gibt es Abfalleimer, einen Brunnen mit Trinkwasser sowie ein Toilettenh&auml;uschen. Direkt daneben l&auml;dt ein kleiner Kiesstrand zum Verweilen am Wasser ein.</p>", "url": "https://www.heidiland.com", "image": "https://hltpimtsoch.sos-ch-dk-2.exoscale-cdn.com/catalog/9/2/4/8/9248e99c636ea579c0af78c785d1ed24a1a84d2f_Feuerstelle_Piktogramm_HLT.png", "openstreetmap_id": "node/862886016"}, "geometry": {"type": "Point", "coordinates": ["9.224159717559816", "47.12926115232737"]}}, {"type": "Feature", "properties": {"identifier": "c402fdd7-ce21-4192-acc9-dbef0987c436", "name": "Anlegestelle Hafen Mols", "description": "<p>Erforschen Sie die tiefblaue Mitte der Region und geniessen Sie die atemberaubende Bergkulisse auf dem Walensee. Lassen Sie sich von den majest&auml;tischen Churfirsten, der wild romantischen Natur, dem glasklaren Wasser und den fantastischen Stimmungen am Walensee verzaubern. Der Walensee, das Paradies f&uuml;r nah und fern. Die Schiffsbetrieb Walensee AG verbindet Orte, Angebote und Aktivit&auml;ten in idealer Weise. Die Verbindung nach Quinten ist auch im Winter durchgehend in Betrieb.</p><h3>Zugangsinformationen</h3><div class=\"rte\"><ul><li>Stufenloser Zugang</li><li>Ein- und Ausstieg durch Personalhilfestellung</li><li>Gruppen ab 10 Personen und Rollst&uuml;hle m&uuml;ssen im Voraus angemeldet werden.</li><li>Kein taktiles Leitsystem vorhanden</li></ul></div>", "url": "https://walenseeschiff.ch/de/fahrplan/anlegestellen/mols.html", "image": "https://hltpimtsoch.sos-ch-dk-2.exoscale-cdn.com/catalog/9/0/6/6/9066737df6dfa0529d25cc7d30eef9f8677619a6_Anlegestelle_Hafen_Piktogramm_HLT.png", "openstreetmap_id": "way/1417000183"}, "geometry": {"type": "Point", "coordinates": ["9.278147220611574", "47.11298456996908"]}}, {"type": "Feature", "properties": {"identifier": "c54b48e5-1095-432c-a2bf-c763582a1e3e", "name": "Anlegestelle Hafen Quinten", "description": "<p>Erforschen Sie die tiefblaue Mitte der Region und geniessen Sie die atemberaubende Bergkulisse auf dem Walensee. Lassen Sie sich von den majest&auml;tischen Churfirsten, der wild romantischen Natur, dem glasklaren Wasser und den fantastischen Stimmungen am Walensee verzaubern. Der Walensee, das Paradies f&uuml;r nah und fern. Die Schiffsbetrieb Walensee AG verbindet Orte, Angebote und Aktivit&auml;ten in idealer Weise. Die Verbindung nach Quinten ist auch im Winter durchgehend in Betrieb.</p><h3>Zugangsinformationen</h3><div class=\"rte\"><ul><li>Nur zu Fuss oder mit dem Schiff erreichbar</li><li>Stufenloser jedoch abfallender, bei Niedrigwasser steiler Zugang (erschwert f&uuml;r Rollst&uuml;hle/mobilit&auml;tseingeschr&auml;nkte Personen)</li><li>Ein- und Ausstieg durch Personalhilfestellung</li><li>Gruppen ab 10 Personen und Rollst&uuml;hle m&uuml;ssen im Voraus angemeldet werden.</li><li>Kein taktiles Leitsystem vorhanden</li></ul></div>", "url": "https://walenseeschiff.ch/de/fahrplan/anlegestellen/quinten.html", "image": "https://hltpimtsoch.sos-ch-dk-2.exoscale-cdn.com/catalog/6/1/9/8/6198d4456a92319c3a3dfcc3adf4b47a180b419e_Anlegestelle_Hafen_Piktogramm_HLT.png", "openstreetmap_id": "node/240078789"}, "geometry": {"type": "Point", "coordinates": ["9.216102361679079", "47.12872459402768"]}}, {"type": "Feature", "properties": {"identifier": "c5ad06f4-f62d-4e74-8311-8e3c97762047", "name": "Schloss Sargans, Museum Sarganserland", "description": "In ihm sind Grafschaft und abwechslungsreiche Regierungszeit eidgen\u00f6ssischer Landv\u00f6gte verk\u00f6rpert, was es zum stolzesten Zeugen der Sarganserl\u00e4nder Heimatgeschichte macht. 1899 kaufte die Ortsgemeinde Sargans das bauf\u00e4llige Geb\u00e4ude und rettete es durch zahlreiche Renovationen vor dem endg\u00fcltigen Zerfall. \n\nHeute beherbergt das alte Grafenschloss neben dem \"Restaurant Schloss Sargans\" mit historischen R\u00e4umen das \u201eMuseum Sarganserland\u201c. Es erhielt 1983 vom Europarat als erstes schweizerisches Museum den Preis \u00abMuseum des Jahres\u00bb und wurde 1987 unter die 37 besuchenswertesten Museen der Welt aufgenommen.\n\nDie pr\u00e4chtige Aussicht, das Museum, das Restaurant, der lauschige Schlosshof und der wunderbare Torkelkeller mit seiner uralten Weinpresse machen einen Ausflug auf den ehemaligen Landvogtei-Sitz zu einem unvergesslichen Erlebnis.\n\nEINTRITTSPREISE: Erwachsene 10 Fr. /Kinder 5 Fr. /Gruppenpreis ab 15 Personen 8 Fr. / Museumsf\u00fchrung 120 Fr.(1-20 Personen) und Kulturpfadf\u00fchrung 150 Fr.\n\n", "url": "https://www.schloss-sargans.ch", "image": "https://hltpimtsoch.sos-ch-dk-2.exoscale-cdn.com/catalog/0/c/7/8/0c786480404bce58fd9119fac17625474dc962f1_Sargans_Schloss.JPG", "openstreetmap_id": "way/125079000"}, "geometry": {"type": "Point", "coordinates": ["9.437401316477047", "47.05020255964923"]}}, {"type": "Feature", "properties": {"identifier": "c80447b4-c34f-4b40-ab57-beaef6774e97", "name": "Brauchtumsk\u00e4serei Alp Tannenboden", "description": "Erleben Sie Urigkeit und Brauchtum auf unterhaltsame und spannende Art. Auf der Alp Tannenboden k\u00f6nnen Sie durch das Schaufenster im Restaurant dem K\u00e4ser zuschauen. \n\nFalls Sie weiter hinter die Kulissen blicken m\u00f6chten, empfiehlt sich eine F\u00fchrung durch die Schauk\u00e4serei mit K\u00e4se-Degustation oder Sie schl\u00fcpfen gar selber in die Rolle des Sennen. In der Brauchtumsk\u00e4serei k\u00f6nnen Sie Ihren eigenen K\u00e4se herstellen, \u00fcber dem offenen Feuer wie anno dazumal in der um die Jahrhundertwende erbauten Alp- und Brauchtumsk\u00e4serei Tannenboden. Kombinieren Sie die F\u00fchrung mit einem anschliessenden Mittagessen wie \u00c4lplermagronen, Fondue oder Racclette.\n\nDie Brauchtumsk\u00e4serei ist Teil der Schauk\u00e4serei Tannenbodenalp, die \u00fcber einen Themenspielplatz, Verkaufsr\u00e4ume f\u00fcr Alp-Produkte und weitere Attraktionen verf\u00fcgt.", "url": "https://www.sennenstube.ch", "image": "https://hltpimtsoch.sos-ch-dk-2.exoscale-cdn.com/catalog/c/6/2/e/c62eb0e8c6d6ebef2b04d7173268741af8a18a05_Brauchtumsk__serei.jpg", "openstreetmap_id": "node/11153427939"}, "geometry": {"type": "Point", "coordinates": ["9.2880264", "47.0900119"]}}, {"type": "Feature", "properties": {"identifier": "d3457d1b-7a95-4b8b-a8be-ffb116bc5c06", "name": "Marina Walensee Spielplatz", "description": "Auf dem Marina Walensee Spielplatz direkt beim Marina Restaurant sorgt ein Kletterturm mit Rutschbahn f\u00fcr jede Menge Spiel und Spass. Dank der Lage direkt neben der Restaurantterrasse k\u00f6nnen Eltern entspannt essen und ihre Kinder dabei jederzeit im Auge behalten. Des Weiteren verf\u00fcgt das Marina Walensee \u00fcber einen grossen Indoor-Spielraum.", "url": "https://www.marina-walensee.ch/", "image": "https://hltpimtsoch.sos-ch-dk-2.exoscale-cdn.com/catalog/3/8/f/6/38f6c660674fc86cb6befc01123b7239c366f373_tkv_hlt_spielplatze_0014_MarinaWalensee_52_2599.jpg", "openstreetmap_id": "way/244433289"}, "geometry": {"type": "Point", "coordinates": ["9.2567652", "47.1147669"]}}, {"type": "Feature", "properties": {"identifier": "d8131a9b-6a03-4eb6-b07c-f5f48f47b9c2", "name": "Anlegestelle Hafen Au", "description": "<p>Erforschen Sie die tiefblaue Mitte der Region und geniessen Sie die atemberaubende Bergkulisse auf dem Walensee. Lassen Sie sich von den majest&auml;tischen Churfirsten, der wild romantischen Natur, dem glasklaren Wasser und den fantastischen Stimmungen am Walensee verzaubern. Der Walensee, das Paradies f&uuml;r nah und fern. Die Schiffsbetrieb Walensee AG verbindet Orte, Angebote und Aktivit&auml;ten in idealer Weise. Die Verbindung nach Quinten ist auch im Winter durchgehend in Betrieb.</p><h3>Zugangsinformationen</h3><div class=\"rte\"><ul><li>Nur zu Fuss oder mit dem Schiff erreichbar</li><li>Stufenloser Zugang, jedoch aufgrund des steilen Kiesweges f&uuml;r Rollst&uuml;hle und Kinderwagen ungeeignet</li><li>Ein- und Ausstieg durch Personalhilfestellung</li><li>Gruppen ab 10 Personen und Rollst&uuml;hle m&uuml;ssen im Voraus angemeldet werden.</li><li>Kein taktiles Leitsystem vorhanden</li></ul></div>", "url": "https://walenseeschiff.ch/de/fahrplan/anlegestellen/au.html", "image": "https://hltpimtsoch.sos-ch-dk-2.exoscale-cdn.com/catalog/5/5/a/b/55ab90cdd2912ddc120a8e29684c5b42255b5a70_Anlegestelle_Hafen_Piktogramm_HLT.png", "openstreetmap_id": "node/4398002449"}, "geometry": {"type": "Point", "coordinates": ["9.2295974", "47.1294553"]}}, {"type": "Feature", "properties": {"identifier": "d8ac0cdc-986e-4bfa-b0cc-7360a7e39c13", "name": "museumbickel", "description": "Das museumbickel in Walenstadt besteht seit 2002 und wird von der Karl-Bickel-Stiftung getragen. Es realisiert drei bis vier Ausstellungen pro Jahr. Interessante zeitgen\u00f6ssische Positionen aus der Schweiz und den Nachbarl\u00e4ndern werden gezeigt, wobei auch das Kunstschaffen in der Region regelm\u00e4ssig beleuchtet wird. Eine Ausstellung pro Jahr widmet sich den Werken von Karl Bickel.\n\nMit seinem eigenst\u00e4ndigen Programm und zahlreichen anregenden Begleitveranstaltungen, wie F\u00fchrungen, Konzerten, Podiumsdiskussionen, ist das museumbickel zu einem wichtigen Schauplatz des Kunstgeschehens der Region geworden.\n\nDas museumbickel \u00fcberzeugt mit seiner Ausstellungshalle von beinahe unver\u00e4nderter Industriearchitektur des beginnenden zwanzigsten Jahrhunderts. Die s\u00e4ulenfreie Halle von 400 m2 bietet alles, was die grundlegenden Bed\u00fcrfnisse der Kunst an Zeit und Raum, Stille und Licht verlangen.\n\nGruppenbesuche und F\u00fchrungen auf Anfrage auch ausserhalb der \u00d6ffnungszeiten.", "url": "http://www.museumbickel.ch", "image": "https://hltpimtsoch.sos-ch-dk-2.exoscale-cdn.com/catalog/7/2/5/8/7258dcc91e08dc589f480310375c78cc20c45374__71B4421_HDR.jpg", "openstreetmap_id": "node/9582698151"}, "geometry": {"type": "Point", "coordinates": ["9.3121399", "47.1218073"]}}, {"type": "Feature", "properties": {"identifier": "ed95a06f-ce7c-4f08-9f93-cf3bd4672764", "name": "Anlegestelle Hafen Weesen", "description": "<p>Erforschen Sie die tiefblaue Mitte der Region und geniessen Sie die atemberaubende Bergkulisse auf dem Walensee. Lassen Sie sich von den majest&auml;tischen Churfirsten, der wild romantischen Natur, dem glasklaren Wasser und den fantastischen Stimmungen am Walensee verzaubern. Der Walensee, das Paradies f&uuml;r nah und fern. Die Schiffsbetrieb Walensee AG verbindet Orte, Angebote und Aktivit&auml;ten in idealer Weise. Die Verbindung nach Quinten ist auch im Winter durchgehend in Betrieb.</p><h3>Zugangsinformationen</h3><div class=\"rte\"><ul><li>Stufenloser Zugang</li><li>Ein- und Ausstieg durch Personalhilfestellung</li><li>Gruppen ab 10 Personen und Rollst&uuml;hle m&uuml;ssen im Voraus angemeldet werden.</li><li>Kein taktiles Leitsystem vorhanden</li></ul></div>", "url": "https://walenseeschiff.ch/de/fahrplan/anlegestellen/weesen.html", "image": "https://hltpimtsoch.sos-ch-dk-2.exoscale-cdn.com/catalog/0/0/c/4/00c43c8633a5b2bf611bb16ee61018b0f4bda379_Anlegestelle_Hafen_Piktogramm_HLT.png", "openstreetmap_id": "relation/1683963"}, "geometry": {"type": "Point", "coordinates": ["9.099125862121584", "47.13465851565205"]}}, {"type": "Feature", "properties": {"identifier": "f19f03a3-860e-4701-8ebb-7431c8adf1d3", "name": "Feuerstelle Walenstadt", "description": "<div>In Walenstadt befinden sich mehrere &ouml;ffentliche Grillstellen direkt am Ufer des Walensees, die zum Br&auml;teln und Verweilen einladen. In der N&auml;he liegen ein Spielplatz vom Spielerlebnis Walensee, ein Beachvolleyballfeld sowie ein kleiner Kiosk an der Strasse. Holz zum Br&auml;teln ist vorhanden, Badepl&auml;tze befinden sich direkt am See, und kostenpflichtige Parkpl&auml;tze sind gut erreichbar.</div>", "url": "https://www.heidiland.com", "image": "https://hltpimtsoch.sos-ch-dk-2.exoscale-cdn.com/catalog/1/8/e/1/18e15b8112dad6fdcf303dc94ad6433ed45f2fe4_Feuerstelle_Piktogramm_HLT.png", "openstreetmap_id": "5758507220"}, "geometry": {"type": "Point", "coordinates": ["9.300865530967714", "47.12869964260964"]}}, {"type": "Feature", "properties": {"identifier": "f82c27de-5d36-47bf-857a-b6258f3c4ec0", "name": "Anlegestelle Hafen Unterterzen", "description": "<p>Erforschen Sie die tiefblaue Mitte der Region und geniessen Sie die atemberaubende Bergkulisse auf dem Walensee. Lassen Sie sich von den majest&auml;tischen Churfirsten, der wild romantischen Natur, dem glasklaren Wasser und den fantastischen Stimmungen am Walensee verzaubern. Der Walensee, das Paradies f&uuml;r nah und fern. Die Schiffsbetrieb Walensee AG verbindet Orte, Angebote und Aktivit&auml;ten in idealer Weise. Die Verbindung nach Quinten ist auch im Winter durchgehend in Betrieb.</p><h3>Zugangsinformationen</h3><div class=\"rte\"><ul><li>Stufenloser Zugang</li><li>Ein- und Ausstieg durch Personalhilfestellung</li><li>Gruppen ab 10 Personen und Rollst&uuml;hle m&uuml;ssen im Voraus angemeldet werden.</li><li>Kein taktiles Leitsystem vorhanden</li></ul></div>", "url": "https://walenseeschiff.ch/de/fahrplan/anlegestellen/unterterzen.html", "image": "https://hltpimtsoch.sos-ch-dk-2.exoscale-cdn.com/catalog/8/8/3/1/88314032614d016afc2e9c46a2b7387142376191_Anlegestelle_Hafen_Piktogramm_HLT.png", "openstreetmap_id": "node/2051540372"}, "geometry": {"type": "Point", "coordinates": ["9.25329923629761", "47.11489755734365"]}}]}