{"type": "FeatureCollection", "features": [{"type": "Feature", "properties": {"identifier": "24949152-444a-4556-bdce-e1188ec98f8a", "name": "Weintouren in der B\u00fcndner Herrschaft", "description": "Private Weintouren in der B\u00fcndner Herrschaft: Mit lokalem Guide durch Reben und Keller, Degustation erstklassiger Pinot Noirs \u2013 individuell geplant. Wir organisieren dein Erlebnis im Heidiland und in der B\u00fcndner Herrschaft \u2013 ob als Wanderung, genussvolle E-Bike-Tour oder bequem im Minibus. Abholung in der Region, mehrsprachig (DE/EN/F/I/ES) und ideal f\u00fcr Paare, Freunde und Teams. Jetzt anfragen und Terroir sowie Schweizer Wein am Ursprung erleben.", "url": "http://www.wine-tours.ch", "image": "https://hltpimtsoch.sos-ch-dk-2.exoscale-cdn.com/catalog/5/1/4/2/5142d96f405c663a9d7280d71f55bb07273245a0_054A0732.jpg", "openstreetmap_id": "N 47.00466 E 9.53806"}, "geometry": {"type": "Point", "coordinates": ["9.5386444", "47.0046337"]}}, {"type": "Feature", "properties": {"identifier": "344dca39-2ea6-4f08-9399-0f364de1b67c", "name": "Naturfieber, Team - Event, Natur - Event, Axtwerfen, Armbrust, Turniere", "description": "Teamevent, Naturerlebnis, Tourguide mit dem Outdoor und Reiseveranstalter Naturfieber in Bad Ragaz, Heidiland.\nTeam - Event, Polterabend, Firmenausflug, Geburtstag oder Vereinsausflug. Unsere Turniere mit Axtwerfen, Mausfallenlotto, Armbrust, Wettmelken und vielen weiteren spannenden und lustigen Spielen machen Euer Teamanlass zum besonderen Erlebnis. \nDas Naturprogramm von Naturfieber mit Draussen schlafen, Sagenwanderung, Magic Places of Bad Ragaz, Survival for Beginner, Sternenabend die einmalige Gelegenheit der Natur sehr nahe zu sein. Natur macht gl\u00fccklich.\nBei Local Guide planen wir individuell und auf Euch zugeschnitten. Geschichte der Schweiz, R\u00f6mer im Rheinthal, Die wildesten Bergbahnen, Geheime Pl\u00e4tze und neu unsere Expat -Tour Switzerland mit viel Hintergrundinformationen \u00fcber die Geschichte, Br\u00e4uche und Gepflogenheiten der Schweiz. Wir freuen uns auf Euch. Naturfieber Bad Ragaz, Schweiz", "url": "https://www.naturfieber.ch/", "image": "https://hltpimtsoch.sos-ch-dk-2.exoscale-cdn.com/catalog/a/3/e/e/a3ee74af21428e7ec88886f7eae2d7ed65587089_10.jpg", "openstreetmap_id": "way/44116462"}, "geometry": {"type": "Point", "coordinates": ["9.48300361633301", "46.99670250325893"]}}, {"type": "Feature", "properties": {"identifier": "37a72b67-dee9-496a-bf1f-9be82bd947b9", "name": "Bad Ragaz Tours", "description": "Auch zwischen den Jahren der Bad RagARTz bleibt es f\u00fcr Kulturbegeisterte in Bad Ragaz interessant.\nQuellenhof, altes Dorfbad, Taminaschlucht - Ist eine Zeitreise durch die Entstehungsgeschichte von Bad Ragaz das Richtige f\u00fcr Sie?\nM\u00f6chten Sie erfahren, wie die Entdeckung der heissen Quelle das Dorf Ragaz gepr\u00e4gt hat?\nOder m\u00f6chten Sie w\u00e4hrend den Ausstellungsjahren einen Spaziergang durch die Skulpturenausstellung? Lassen Sie sich von unseren spannenden Dorf- und Kunsttouren begeistern.", "url": "https://badragaztours.ch/", "image": "https://hltpimtsoch.sos-ch-dk-2.exoscale-cdn.com/catalog/d/e/2/a/de2a2ca66a8ea5d8b4c2c34634d40af8ee243260_Kunstgang_Frontbild_Guardians.jpg", "openstreetmap_id": "node/1337306723"}, "geometry": {"type": "Point", "coordinates": ["9.5006681", "47.002411"]}}, {"type": "Feature", "properties": {"identifier": "7e1b3159-609e-4ef4-90fa-508b232347d0", "name": "Berg-Gipfel Patrick Keller Bergf\u00fchrer", "description": "Als Professioneller diplomierter Schweizer Bergf\u00fchrer, begleite ich sie auf deine Wunschtour. Sei es auf eine Abwechslungsreiche Wanderung oder auf einen 4000er im Sommer wie auch im Winter.", "url": "https://berg-gipfel.ch/", "image": "https://hltpimtsoch.sos-ch-dk-2.exoscale-cdn.com/catalog/2/4/5/f/245f3e6b6755b3ef4a04c1f6175b37f4949857e7_20190827_075527.jpg", "openstreetmap_id": "node/217653564"}, "geometry": {"type": "Point", "coordinates": ["9.560852", "46.9337738"]}}]}