{"type": "FeatureCollection", "features": [{"type": "Feature", "properties": {"identifier": "00a834b5-9fdb-499f-aaa9-c8805924d198", "name": "E-Bike-Vermietung am Walensee", "description": "Wahlweise als Package buchbar inklusive Picknickrucksack und/oder \u00dcbernachtung.\n\nPreise\n\nHalbtagesmiete\n4h (zwischen 08.00 und 13.00 oder zwischen 13.00 und 18.00 Uhr) CHF 50.00\n\nTagesmiete\n8h (zwischen 08.00 und 18.00 Uhr) CHF 60.00\n\nF\u00fcr jede zus\u00e4tzliche Stunde verrechnen wir CHF 10.00.", "url": "https://www.lofthotel.ch/", "image": "https://hltpimtsoch.sos-ch-dk-2.exoscale-cdn.com/catalog/d/2/5/0/d250c8bca75614a10635440c505dd2cc504ada85_lofthotel_ebike_1.jpg", "openstreetmap_id": "node/418190191"}, "geometry": {"type": "Point", "coordinates": ["9.217261", "47.1124535"]}}, {"type": "Feature", "properties": {"identifier": "0ae93548-e08a-4dbe-bdef-2e097a89d67a", "name": "Golf Club Bad Ragaz", "description": "Mit viel Liebe zum Detail und Sorgfalt f\u00fcr perfekte Greens, bietet der Golf Club Bad Ragaz ein besonderes Golferlebnis. Eingebettet in ein unvergleichliches Bergpanorama und eine herrliche Parkanlage streben wir als Mitglied von Leading Golf nach Perfektion, damit sich anspruchsvolle G\u00e4ste bei uns rundum wohl f\u00fchlen.\n\nDer 18-Loch Championship Course ist seit 2007 Mitglied der Qualit\u00e4ts- und Wertegemeinschaft der \u00abLeading Golf Courses\u00bb und seit diesem Jahr zus\u00e4tzlich von \u00abWorld of Leading Golf\u00bb. Diese Mitgliedschaft best\u00e4tigt Golfkultur und Philosophie des Hauses, die am Streben nach Perfektion ausgerichtet sind. Als einzige Golfanlage der Schweiz wurde sie zudem durch den Bundesverband der Golfanlagen mit dem Pr\u00e4dikat 5* Superior ausgezeichnet und z\u00e4hlt zu den Toppl\u00e4tzen der Schweiz.", "url": "http://www.golfclubragaz.ch", "image": "https://hltpimtsoch.sos-ch-dk-2.exoscale-cdn.com/catalog/c/e/7/9/ce793fcd4996cd59d51c52eea32fbff7e80b385d_Golf_Club_Bad_Ragaz_Luftaufnahme.jpg", "openstreetmap_id": "node/7770673151"}, "geometry": {"type": "Point", "coordinates": ["9.5048934", "46.9989934"]}}, {"type": "Feature", "properties": {"identifier": "12fdd8f7-c05c-4251-afa0-392572e721dc", "name": "Denner Filiale Walenstadt", "description": "<div><p>Der Denner in Walenstadt bietet eine praktische Einkaufsm&ouml;glichkeit f&uuml;r den t&auml;glichen Bedarf. Das Sortiment umfasst eine breite Auswahl an Lebensmitteln, Getr&auml;nken sowie Artikeln f&uuml;r Haushalt und Alltag zu attraktiven Preisen.</p><p>Er ist f&uuml;r Einheimische und G&auml;ste gut erreichbar und eignet sich ideal f&uuml;r den schnellen Einkauf zwischendurch oder zur Selbstversorgung w&auml;hrend des Aufenthalts in der Region. Der Denner steht f&uuml;r klare Sortimente, einfache Orientierung im Laden und ein gutes Preis\u2011Leistungs\u2011Verh&auml;ltnis.</p></div>", "url": "https://www.denner.ch/de/filialen/8880-walenstadt~s1145969", "image": "https://hltpimtsoch.sos-ch-dk-2.exoscale-cdn.com/catalog/c/f/e/3/cfe330ce9a79ab8c63cc8fffb0505ef386bdc3bb_Einkaufen_Piktogramm_HLT.png", "openstreetmap_id": "way/1120973886"}, "geometry": {"type": "Point", "coordinates": ["9.3161866", "47.1198584"]}}, {"type": "Feature", "properties": {"identifier": "144dda5b-668c-4ffc-b413-1346ea288f50", "name": "Intersport Wildhaber - Sport & Glockenhandel", "description": "Wir sind ein modernes, kundenfreundliches Sport-Fachgesch\u00e4ft mit Glockenhandel und Sattlerei mitten im Dorf Flums. Wir bauen seit \u00fcber 30 Jahren auf Tradition und Erfahrung. Unsere Kompetenz und Ihre Zufriedenheit sind uns wichtig!\n\nWinter\n- Vermietung Ski/Snowboards/Schuhe/Schneeschuhe/Tourenski - Tages-, Wochen- und Saisonmiete   \n- Service Ski und Snowboards in hauseigener Werkstatt\n- Verkauf Ski/Snowboards/Schuhe/Tourenausr\u00fcstung, Schneeschuhe, Winterschuhe und Schlitten/Bob\n- Skijacke- und Hosen sowie Winterjacken f\u00fcr Erwachsene und Kinder\n- Tourenbekleidung f\u00fcr Erwachsene \n- Helm, Skibrillen, Sonnenbrillen, R\u00fcckenprotektoren, Stirnlampen, Handschuhe, Heizsocken, Thermounterw\u00e4sche etc.\n\n\nSommer\n- Trekking/Wanderschuhe, Wanderst\u00f6cke, Velohelme, Rucks\u00e4cke, Sonnenbrillen und noch vieles mehr\n- Funktionelle Bekleidung f\u00fcr Sport und Wandern\n- Bekleidung f\u00fcr Fitness, Yoga und Freizeit\n- Bademode inkl. FlipFlops, Adiletten etc.\n\nGeheimtipp:\nZur Spezialabteilung des Gesch\u00e4ftes geh\u00f6ren die handgefertigten Glockenriemen. In der Werkstatt werden diese ganz nach den W\u00fcnschen des Kunden gefertigt; mit den Ideen und der Erfahrung von begeisterten Fachleuten!  Auch Sennenkittel und \"Ch\u00fcelig\u00fcrtel\" sind bei uns erh\u00e4ltlich.", "url": "http://www.wildhaber-sport.ch", "image": "https://hltpimtsoch.sos-ch-dk-2.exoscale-cdn.com/catalog/b/9/5/9/b95959cfafd25a71eb19e386e8e623ba164a25e2_Wildahber_Sport_Laden_Winter_202526_1__2.jpg", "openstreetmap_id": "node/2076304490"}, "geometry": {"type": "Point", "coordinates": ["9.3433874", "47.0914198"]}}, {"type": "Feature", "properties": {"identifier": "17812a2f-f70e-4a04-a1a3-ac64f22e8cc9", "name": "Metzgerei Kellenberger", "description": "In der vierten Generation seit 1885 bedienen wir Sie pers\u00f6nlich und sind stolz auf unsere regionalen Qualit\u00e4tsprodukte.\n\nVon Hand zerteilt, mit Herzblut gefertigt: Von Aufschnitt bis zarten Filets finden Sie in unserer Theke alles, auch ungew\u00f6hnliche Leckerbissen. Gerne geben wir Genuss-Tipps oder stellen Platten f\u00fcr Ihre gem\u00fctliche Runde zusammen.", "url": "https://www.metzgerei-kellenberger.ch/", "image": "https://hltpimtsoch.sos-ch-dk-2.exoscale-cdn.com/catalog/f/2/d/e/f2de177f382304afdc9e1517b99ccd478bf7c1cb_Bild1.jpg", "openstreetmap_id": "node/563881058"}, "geometry": {"type": "Point", "coordinates": ["9.5017611", "47.0032913"]}}, {"type": "Feature", "properties": {"identifier": "17f8b6b7-71bb-4e6f-9517-77758f24b90b", "name": "Strandkiosk am Bach", "description": "<div><p>Der <strong>Strandkiosk am Bach in Walenstadt</strong> befindet sich direkt am Ufer des Walensees, in unmittelbarer N&auml;he des grossen Kinderspielplatzes und unweit des Restaurant Seehofs. Als Teil der Badestellen am Walensee bietet der Kiosk eine Auswahl an Snacks und Getr&auml;nken und sorgt damit f&uuml;r eine erfrischende Pause am Wasser.</p><p>Die Umgebung ist gepr&auml;gt von einer <strong>grossz&uuml;gigen Liegewiese mit schattenspendenden B&auml;umen</strong>, Grillstellen sowie einem Sandkasten und <strong>WC\u2011Anlagen</strong>. Zudem besteht die M&ouml;glichkeit, <strong>SUP\u2011Boards zu mieten</strong>, was den Standort besonders attraktiv f&uuml;r aktive G&auml;ste macht.</p><p>Der Strandkiosk ist &uuml;ber einen <strong>Spazierweg entlang des Seeufers</strong> gut erreichbar und liegt nahe der Schiffsanlegestelle, was ihn zu einem beliebten Treffpunkt f&uuml;r Familien, Badeg&auml;ste und Spazierg&auml;nger macht. Der Strandkiosk am Bach verbindet Erholung, Genuss und Freizeitaktivit&auml;ten in unmittelbarer Seen&auml;he.</p></div>", "url": "https://www.heidiland.com", "image": "https://hltpimtsoch.sos-ch-dk-2.exoscale-cdn.com/catalog/6/4/4/6/6446ee41fe3d44e166c0fbc937676d56efe7e924_Kiosk_Piktogramm_HLT.png", "openstreetmap_id": "5813462256"}, "geometry": {"type": "Point", "coordinates": ["9.302169084548952", "47.12812940392019"]}}, {"type": "Feature", "properties": {"identifier": "1d9ef9f4-8cda-4daa-bd40-e2fd25a2a80f", "name": "Hertihof Hofladen", "description": "Im Selbstbedienungs-Hofladen finden Kunden 5 Tage die Woche ein ausgesuchtes, saisonales Angebot vom Hof. Geb\u00e4ck wie Nuss- und Linzertorten, Frischfleisch (gefroren) und Trockenfleisch, Bienenhonig, Hof-Glace, Alpk\u00e4se u.v.m. \u2013 Wer Zeit hat, verweilt in der angegliederten Besenbeiz bei einem feinen, in Untervaz ger\u00f6steten Kaffee und einem St\u00fcck K\u00fcchen aus der Hofb\u00e4ckerei.", "url": "https://www.hertihof.ch", "image": "https://hltpimtsoch.sos-ch-dk-2.exoscale-cdn.com/catalog/8/8/c/8/88c8ea43a1e04325a5affb6b819ebfc71f186906_hertihof_besenbeiz4_by_prezis__2.jpg", "openstreetmap_id": "node/35915529"}, "geometry": {"type": "Point", "coordinates": ["9.548063278198242", "46.92509881409418"]}}, {"type": "Feature", "properties": {"identifier": "26046b9f-ca9b-41ef-ba1a-dfa9e45fd540", "name": "INTERSPORT Network Flumserberg Filiale Tannenheim", "description": "Die INTERSPORT Network Flumserberg Filiale Tannenheim ist w\u00e4hrend dem Sommer als BikerShop Flumserberg ge\u00f6ffnet. \n\nDie INTERSPORT Network Flumserberg Filiale Tannenheim pr\u00e4sentiert Ihnen eine grosse Auswahl an Mietmaterial von Ski und Snowboards bis zu Schlitten. Des Weiteren befindet sich die zentrale Werkstatt f\u00fcr Ski- & Snowboard-Service im 2. Obergeschoss der Filiale.\nMit Rat und Tat stehen wir dir bei der Wahl der Ausr\u00fcstung f\u00fcr dein Abenteuer zur Seite und statten dich mit allem aus, was Sport, Bewegung und Spass auf Schnee zu einem noch intensiveren Erlebnis macht.", "url": "https://www.intersport-network.ch/filialen/tannenheim/", "image": "https://hltpimtsoch.sos-ch-dk-2.exoscale-cdn.com/catalog/1/3/f/2/13f23cacada27c97eb6eecbfa70df55a393350a9_tkv_bbf_winter26_0072__O5A2978.jpg", "openstreetmap_id": "way/325408045"}, "geometry": {"type": "Point", "coordinates": ["9.302447680513392", "47.08949005"]}}, {"type": "Feature", "properties": {"identifier": "2f583a77-65cb-4ced-b468-24d26a60796d", "name": "SPAR Supermarkt Murg", "description": "<div><p>Der SPAR Supermarkt in Murg bietet eine praktische Einkaufsm&ouml;glichkeit f&uuml;r den t&auml;glichen Bedarf. Das Sortiment umfasst frische Lebensmittel, Backwaren, Getr&auml;nke sowie Produkte f&uuml;r Haushalt und Alltag und richtet sich sowohl an Einheimische als auch an G&auml;ste.</p><p>Dank der gut erreichbaren Lage eignet sich der SPAR ideal f&uuml;r den schnellen Einkauf zwischendurch oder f&uuml;r die Selbstversorgung w&auml;hrend eines Aufenthalts in der Region. SPAR steht f&uuml;r N&auml;he, &Uuml;bersichtlichkeit und ein ausgewogenes Angebot mit Fokus auf Qualit&auml;t und Regionalit&auml;t.</p></div>", "url": "https://www.spar.ch/standorte/detail/oess-otto?", "image": "https://hltpimtsoch.sos-ch-dk-2.exoscale-cdn.com/catalog/f/c/f/9/fcf93496e60697531fb55f2720514e7f8c5f3c61_Einkaufen_Piktogramm_HLT.png", "openstreetmap_id": "node/418190173"}, "geometry": {"type": "Point", "coordinates": ["9.2141071", "47.1127297"]}}, {"type": "Feature", "properties": {"identifier": "328e9e38-b6dd-4096-9ffa-a86b3d1591e7", "name": "Lucky Star Bikes GmbH", "description": "Tages- oder Mehrtagesmiete von E-Mountainbike oder E-Trekkingvelo m\u00f6glich.", "url": "https://www.luckystarbikes.ch/", "image": "https://hltpimtsoch.sos-ch-dk-2.exoscale-cdn.com/catalog/a/a/f/d/aafd6d25c1670f22c3411b9b523dab9680b935a3_DSC_0241.jpg", "openstreetmap_id": "relation/1683931"}, "geometry": {"type": "Point", "coordinates": ["9.440764188766481", "47.05081940777587"]}}, {"type": "Feature", "properties": {"identifier": "34faf7fc-f991-4428-905e-684149ed7814", "name": "Casino Bad Ragaz", "description": "Das Casino Bad Ragaz ist eingebettet in das vielf\u00e4ltige Angebot des Grand Resort Bad Ragaz und hat an 365 Tagen im Jahr f\u00fcr Sie ge\u00f6ffnet. \u00dcber 120 Slot Automaten und 6 Spieltische versprechen Nervenkitzel pur. An unserer Golden Wave Bar finden Sie ausserdem das gr\u00f6sste Gin-Angebot der Region mit \u00fcber 70 Sorten Gin aus Nah und Fern.", "url": "https://www.casinoragaz.ch/", "image": "https://hltpimtsoch.sos-ch-dk-2.exoscale-cdn.com/catalog/5/d/9/0/5d901a6d54eff499a9b9fb9b74661cca8516bebb_2025_01_casino_ragaz_interieur_0039_srgb_web.jpg", "openstreetmap_id": "way/118961448"}, "geometry": {"type": "Point", "coordinates": ["9.503628388527744", "46.9984946"]}}, {"type": "Feature", "properties": {"identifier": "3dc6b5d7-e7e3-4e6c-a928-60ab75583220", "name": "Rent a Bike AG", "description": "Miete jetzt dein E-Bike f\u00fcr eine abenteuerliche Radtour durch die Ferienregion Heidiland.", "url": "https://www.rentabike.ch/home", "image": "https://hltpimtsoch.sos-ch-dk-2.exoscale-cdn.com/catalog/2/1/3/5/21350e33b28c60bfc2fb26e768a21cacdc9b7526_eine_vielseitige_landschaft_rund_um_den.jpg", "openstreetmap_id": "node/1333665650"}, "geometry": {"type": "Point", "coordinates": ["9.4453692", "47.0453859"]}}, {"type": "Feature", "properties": {"identifier": "3fe2012c-a346-4a1a-9b0a-362b22bd0cb2", "name": "Thermalbad Valens", "description": "Das nat\u00fcrliche Thermalwasser aus der bekannten Quelle in der Taminaschlucht gibt dem K\u00f6rper Auftrieb. Es tritt mit 36,5\u02da Grad aus den Tiefen der Erde ans Licht und gelangt \u00fcber eine Pipeline nach Valens, wo es ins Thermalbadbecken eingespeist wird. Entspannen Sie im Thermalwasser \u2013 auf Sprudelliegen, einer Sitzbank, an Massaged\u00fcsen und Nackend\u00fcsen. Kinder jeden Alters sind herzlich willkommen.", "url": "https://www.thermalbad-valens.ch/", "image": "https://hltpimtsoch.sos-ch-dk-2.exoscale-cdn.com/catalog/5/e/0/3/5e03ddf671d466d6b4fa048ca7438c6ee84de3e8_DSC07055_Kopie.jpg", "openstreetmap_id": "way/330819562"}, "geometry": {"type": "Point", "coordinates": ["9.48225259780884", "46.969271779259"]}}, {"type": "Feature", "properties": {"identifier": "4455c475-d9de-4c39-8ab2-2d01720cb5c0", "name": "Kiosk Chapfensee", "description": "<div>Der Kiosk Chapfensee l&auml;dt Wandernde, Biker, Fischer und Familien zu einer gem&uuml;tlichen Pause ein. Direkt am See gelegen, bietet er Getr&auml;nke, Snacks und kleine Verpflegungen. Zudem k&ouml;nnen hier Fischerpatente bezogen werden.</div>", "image": "https://hltpimtsoch.sos-ch-dk-2.exoscale-cdn.com/catalog/a/b/1/f/ab1f9ab149efd5781949f35eedc145f291cda7d2_Kiosk_am_Chapfensee2.jpg", "openstreetmap_id": "node/5826768385"}, "geometry": {"type": "Point", "coordinates": ["9.3774965", "47.0489958"]}}, {"type": "Feature", "properties": {"identifier": "4583ebef-8192-4636-ae91-774cbbf432ab", "name": "Bio Pasta Bonetti ", "description": "Unsere Teigwaren werden \u00fcberwiegend von Hand verarbeitet, um alles Wertvolle, welches die Zutaten in sich tragen, zu erhalten. So entstehen kleine Kostbarkeiten die zu 100% unseren strengen Qualit\u00e4tskriterien entsprechen.\nNeben dem Kauf von Bio-Produkten bieten wir ebenfalls verschiedene Kochkurse an, bei welchen man die \"Pasta tradizionale fatta a mano\" erlernen kann.", "url": "https://www.biopastabonetti.ch/de/", "image": "https://hltpimtsoch.sos-ch-dk-2.exoscale-cdn.com/catalog/3/4/4/7/3447fa8a18753a911b6e43be27fa7b247967c0eb_5.JPG", "openstreetmap_id": "way/34872333"}, "geometry": {"type": "Point", "coordinates": ["9.506086707115175", "47.011275126535345"]}}, {"type": "Feature", "properties": {"identifier": "46a9151a-e2ad-4306-a170-df585a18fc07", "name": "Hallenbad & Sauna Flumserberg", "description": "<div>Das Hallenbad &amp; Sauna Flumserberg verbindet sportliche Aktivit&auml;t mit entspannender Erholung. Im 25\u202fm-Sportbecken (4 Bahnen, Wassertiefe 1,30&ndash;2,30\u202fm, ca. 28,5\u202f&deg;C) erwarten dich Schwimmm&ouml;glichkeiten f&uuml;r SportlerInnen.</div><div>&nbsp;</div><div>Das separate Kinderbecken (10\u202f&times;\u202f6\u202fm, 0,80&ndash;1,30\u202fm, ca. 29\u202f&deg;C) mit Rutschbahn und Tarzan-Kletterger&uuml;st bietet Spiel und Abenteuer f&uuml;r die Kleinen. Abgerundet wird das Angebot durch Tischfussball und einen gem&uuml;tlichen Snackbereich mit Liegest&uuml;hlen.&nbsp;</div><div>&nbsp;</div><div>In der warmen Jahreszeit l&auml;dt die Liegewiese mit Panoramaausblick zur Entspannung im Freien ein. Danach entspannst du dich in der gemischten finnischen Sauna (ca. 80\u202f&deg;C) oder im Dampfbad (ca. 41\u202f&deg;C) mit Duschen und Kaltwasserbecken.</div><div>&nbsp;</div><div>Jahreskarten gelten nur f&uuml;rs Bad &ndash; der Saunabesuch wird separat verrechnet.</div>", "url": "https://hallenbad-flumserberg.ch", "image": "https://hltpimtsoch.sos-ch-dk-2.exoscale-cdn.com/catalog/4/c/8/a/4c8af4e1d092ac01b61c8ce355b2572cfe7030c5_2016_12_24.jpg", "openstreetmap_id": "way/325407882"}, "geometry": {"type": "Point", "coordinates": ["9.29644342968039", "47.08968865"]}}, {"type": "Feature", "properties": {"identifier": "470491d1-7e6a-43e3-9bad-4ac098a27704", "name": "Tamina Health Center", "description": "Im Tamina Health Center des Grand Resort Bad Ragaz erwartet Sie ein umfassendes Angebot an medizinischen, therapeutischen und pr\u00e4ventiven Leistungen \u2013 von Physiotherapie, Ern\u00e4hrungsberatung und Personal Training bis hin zu Kuraufenthalten, moderner Diagnostik und Longevity. Unser interdisziplin\u00e4res Expertenteam begleitet Sie pers\u00f6nlich und auf h\u00f6chstem Niveau \u2013 f\u00fcr mehr Gesundheit, neue Energie und sp\u00fcrbare Lebensqualit\u00e4t.", "url": "https://www.resortragaz.ch/de/tamina-health", "image": "https://hltpimtsoch.sos-ch-dk-2.exoscale-cdn.com/catalog/d/7/9/b/d79be05281e054b98417c3ba5b008839f170a121_Health_Check_Up_Program_Tamina_Health_Center_Grand_Resort_Bad_Ragaz__3.jpg", "openstreetmap_id": "way/332307795"}, "geometry": {"type": "Point", "coordinates": ["9.5031579", "46.9994873"]}}, {"type": "Feature", "properties": {"identifier": "4a5e8ad9-280b-4e51-a6aa-f609148c8e3f", "name": "Einkaufszentrum Pizolpark", "description": "Einkaufserlebnis f\u00fcr die ganze Familie: zahlreiche Gesch\u00e4fte, Kinderbetreuung und mehr. Praktisch f\u00fcr alles!", "url": "https://www.pizolpark.ch/", "image": "https://hltpimtsoch.sos-ch-dk-2.exoscale-cdn.com/catalog/2/6/c/d/26cde747b7acb2e3346d76fcdcff54100c49d748_GMOS_Mels_Pizolpark_010.jpg", "openstreetmap_id": "way/205033632"}, "geometry": {"type": "Point", "coordinates": ["9.431283311961572", "47.04203835"]}}, {"type": "Feature", "properties": {"identifier": "4ad82b3e-5a69-4efb-86bd-029ffc28a92b", "name": "BikerShop Flumserberg", "description": "Ihr Sportfachgesch\u00e4ft direkt am BikerBerg Flumserberg\nDirekt an der Talstation im Tannenheim am Flumserberg erwartet Sie neben einem breiten Verkaufssortiment, die topmoderne Verleihstation. Der BikerShop Flumserberg vermietet die Bikemodelle aus den Bereichen Enduro, Downhill und Kids und f\u00fchrt zudem Reparaturarbeiten durch. Ebenfalls r\u00fcstet er Sie mit den gew\u00fcnschten iXS Protektoren und weiterer notwendiger Ausr\u00fcstung aus, damit einer rasanten Abfahrt auf den BikerTrails nichts mehr im Wege steht.", "url": "http://www.bikershop-flumserberg.ch", "image": "https://hltpimtsoch.sos-ch-dk-2.exoscale-cdn.com/catalog/f/6/d/e/f6dead071bdc27cae8c12ab5bd34f45b067abe3d_tkv_bbf_isn_ut_0112__O5A6715.jpg", "openstreetmap_id": "way/325408045"}, "geometry": {"type": "Point", "coordinates": ["9.302447680513392", "47.08949005"]}}, {"type": "Feature", "properties": {"identifier": "4c05ffaf-e859-4ed1-a367-3a48ba031ecc", "name": "Verrucano", "description": "Das Kultur- und Kongresshaus Verrucano Mels bietet den stilvollen Rahmen und umfassende moderne Serviceleistungen f\u00fcr die professionelle Durchf\u00fchrung einer Veranstaltung, fokussierter Meetings und produktiver Seminare. Das Verrucano Kultur- und Kongresshaus ist nicht nur Durchf\u00fchrungsort Ihres Banketts oder Seminars, sondern bei uns finden auch regelm\u00e4ssig \u00f6ffentliche Events statt. Verrucano steht auch f\u00fcr ein qualitativ hochstehendes gastronomisches Angebot. In diesem Bereich verlassen wir uns auf externe Profis. Dadurch kommen Sie in den Genuss eines hochstehende und flexiblen Cateringangebots, stets frisch und \u00fcberzeugend.", "url": "https://www.verrucano.ch/", "image": "https://hltpimtsoch.sos-ch-dk-2.exoscale-cdn.com/catalog/4/f/6/3/4f63f05c1da43fe6c4dc7d79228a93effe2956cd_200722_RAU2001_0492_Var2_rf.jpg", "openstreetmap_id": "way/962287530"}, "geometry": {"type": "Point", "coordinates": ["9.4201443", "47.0465914"]}}, {"type": "Feature", "properties": {"identifier": "4df62995-40ba-419e-bb9c-0fdc93afe8a3", "name": "Sauna am Walensee", "description": "Von Oktober bis April ladet die Sauna am See im sagiareal zur Erholung in bester Kulisse ein. \n\nDie kleine aber feine Outdoor-Sauna mit spektakul\u00e4rem Seeblick eignet sich f\u00fcr eine, zwei (liegend) oder max. sechs Personen (sitzend). Das zweist\u00fcndige Saunaerlebnis ist klimaneutral, denn es wird mit Murger Holz aus dem hauseigenen Wald befeuert.\n\nZwischen den Saunag\u00e4ngen kann man sich im See oder auf der privaten Terrasse abk\u00fchlen.\nEin Ruhezelt steht nebenan bereit.\n\nLegen Sie die Holzscheiten ein und geniessen Sie diese einzigartige Wellness-Attraktion am Walensee.", "url": "https://lofthotel.ch/wellness/", "image": "https://hltpimtsoch.sos-ch-dk-2.exoscale-cdn.com/catalog/7/b/c/4/7bc4ab57d27ebf43c38ca04ee95e7e7745baa7cd_2022_Lofthotel_Outdoor_Sauna.jpg", "openstreetmap_id": "node/418190201"}, "geometry": {"type": "Point", "coordinates": ["9.219401478767397", "47.113203668939285"]}}, {"type": "Feature", "properties": {"identifier": "4e1c97f9-16ef-4428-af9b-b4af2f85c143", "name": "INTERSPORT Network Flumserberg Filiale Tannenboden", "description": "Neben einer attraktiven Bekleidungsabteilung bietet die Filiale Tannenboden ein breites Verleihangebot an. Von aktueller Ski- und Snowboardausr\u00fcstung bis hin zu passendem Zubeh\u00f6r \u2013 hier finden Wintersportler:innen alles, was sie f\u00fcr einen perfekten Tag im Schnee ben\u00f6tigen. Mit dem Standort direkt bei der Talstation der 8er-Gondelbahn BergJet, ist die Filiale Tannenboden der ideale Ausgangspunkt f\u00fcr Ihre Wintersporterlebnisse am Flumserberg.\n\nUnser Angebot im Winter\n\u2022\tVerkauf: Ski, Textil, Accessoires & Zubeh\u00f6r\n\u2022\tVerleih: Ski & Snowboard inkl. Schuhe, Langlaufausr\u00fcstung, Winterbekleidung, Schneeschuhe, Helme, LVS & Skidepot\n\u2022\tDienstleistungen: Ski- & Snowboard-Service (Annahmestelle), Wachsen, BFU-Bindungskontrolle, Kantentuning & Kleinreparaturen", "url": "https://www.intersport-network.ch/filialen/tannenboden/", "image": "https://hltpimtsoch.sos-ch-dk-2.exoscale-cdn.com/catalog/b/a/2/1/ba21ea55bf02999cbdd0082e9a9f1cb57643db5a_Tannenboden.jpg", "openstreetmap_id": "node/4727739995"}, "geometry": {"type": "Point", "coordinates": ["9.2805527", "47.0922871"]}}, {"type": "Feature", "properties": {"identifier": "5c779a59-ab38-4a30-b901-b926aab511e1", "name": "Gonzen Sport & Mode", "description": "Herzlich willkommen bei Gonzen Sport & Mode im Tiefriet in Sargans.\nWir sind ein spezialisiertes Outdoor Sportfachgesch\u00e4ft mit erfahrenen, kompetenten und enthusiastischen Mitarbeiter/innen. \n\nWenn der Schuh dr\u00fcckt, ob Bergschuh, Ski- oder Tourenschuh sind Sie bei uns an der richtigen Adresse. Druckstellen an Ihren F\u00fcssen haben bei unserem erfahrenen Schuhfitting -Team keine Chance. Zus\u00e4tzlich stellen wir Ihnen 100% fussangepasste Einlagesohlen her, welche Ihnen einen hohen Tragekomfort und mehr Leistung garantieren.\nUnser fachkundiges Personal ber\u00e4t Sie gerne individuell und ohne Zeitdruck. Einen Gratisparkplatz ist Ihnen bei uns auch garantiert. \n\nUnsere Leidenschaften im Sommer:\nHochtouren-, Trekking-, Wander- und Klettersport, Running- und Bikesport sowie Campingartikel, sowie trendiges und modisches Textil. \n\nUnsere Leidenschaften im Winter: \nSkitouren- Alpin- Schneeschuhsport, Trailrunning. Hochfunktionelles und modisches Textil von Kopf bis Fuss f\u00fcr alle Schneesportarten.\n\nWir leben Outdoor und garantieren Ihnen, dass Sie bei uns all Ihr passendes Equipment finden.\nZus\u00e4tzlich k\u00f6nnen Sie von unserem Service- und Dienstleistungsangebot profitieren.\nWir vermieten Ski- und Snowboardausr\u00fcstungen und geben Ihrem Ski und/oder Snowboard wieder den n\u00f6tigen Kantenschliff f\u00fcr unvergessliche Schneetage.", "url": "http://www.gonzensport.ch", "image": "https://hltpimtsoch.sos-ch-dk-2.exoscale-cdn.com/catalog/a/c/7/2/ac72bb19f8407cd3b7fef2bcd83f7c463e07913f_20160220_123431.jpg", "openstreetmap_id": "node/5170978138"}, "geometry": {"type": "Point", "coordinates": ["9.4490804", "47.0487657"]}}, {"type": "Feature", "properties": {"identifier": "5ca5d52f-ce15-4e7d-b050-20b1d00cff99", "name": "Saunafass", "description": "<p data-start=\"762\" data-end=\"1081\">Unser Saunafass ist ein St&uuml;ck nordische Lebenskunst. Das massive Echtholzfass bietet einen gem&uuml;tlichen Kokon aus W&auml;rme und Wohlbefinden &ndash; mit traumhaftem Panoramablick auf die umliegende Bergwelt. Saunieren bedeutet pure Erholung: Man tut sich selbst etwas Gutes, f&ouml;rdert die Gesundheit und findet Abstand vom Alltag.</p>\n<p data-start=\"1089\" data-end=\"1342\">In unserem Saunafass finden 2 Personen (liegend) bis zu 6 Personen (sitzend) Platz. Die Nutzung ist t&auml;glich auf Voranmeldung m&ouml;glich. Bitte melden Sie sich mindestens eine Stunde vorher an der R&eacute;ception, damit wir die Sauna f&uuml;r Sie vorbereiten k&ouml;nnen.</p>", "url": "https://www.schiffahrt-mols.ch/", "image": "https://hltpimtsoch.sos-ch-dk-2.exoscale-cdn.com/catalog/e/4/1/5/e4159d141821a578cd5e571248699433d6e15c32_IMG_20221225_WA0000__002_.jpg", "openstreetmap_id": "node/1417590626"}, "geometry": {"type": "Point", "coordinates": ["9.278622", "47.1124527"]}}, {"type": "Feature", "properties": {"identifier": "5f12c2e9-71ad-42ea-acfc-b9e10c99c010", "name": "Landquart Fashion Outlet", "description": "<p>Inmitten der malerischen Kulisse der B&uuml;ndner Berge erwartet Sie das Landquart Fashion Outlet. Nur 60 min von Z&uuml;rich und 50 min von St. Gallen entfernt. Mehr als 170 Marken in &uuml;ber 100 Stores zu luxuri&ouml;s g&uuml;nstigen Preisen: Mode, Accessoires, Home- und Lifestyle-Produkte sowie eine faszinierende Auswahl an Outdoor- und Sportartikeln. Bummeln Sie durch das Shopping-Village im Chalet-Style, geniessen Sie die bezaubernde Atmosph&auml;re und lassen Sie sich in unseren vielf&auml;ltigen Restaurants, Caf&egrave;s und Bistros verw&ouml;hnen.</p><p>Auch sonntags ge&ouml;ffnet.</p><p>Attraktionen:</p><p>- Werden Sie Mitglied im Landquart Fashion Club. Laden Sie die Fashion Club App noch heute herunter (iOS und Android) und sparen Sie nochmals.</p><p>- Geniessen Sie Snacks an unseren Foodst&auml;nden oder feine Speisen und Drinks in unseren Restaurants, Caf&eacute;s und Bistros.</p><p>- Verbinden Sie Ihren Shopping-Ausflug mit einer Tour zu den Winzern der B&uuml;ndner Herrschaft und / oder einer Degustation (Informationen erhalten Sie telefonisch 081-300 02 22).</p><p><span style=\"mso-ascii-font-family: Aptos; mso-hansi-font-family: Aptos;\">- Die Guest Services beim Nord- und S&uuml;deingang bietet Ihnen praktische Dienstleistungen an, darunter sofortige Steuerer&uuml;ckerstattung f&uuml;r ausl&auml;ndische Besucher und Besucherinnen.&nbsp;</span></p><p><!-- [if !supportLists]--><span style=\"mso-ascii-font-family: Aptos; mso-hansi-font-family: Aptos;\">- Mit der j&uuml;ngsten Erweiterung pr&auml;sentiert sich das Village als noch attraktivere Shopping- und Lifestyle-Destination mit spannenden neuen Marken und Erlebnissen.</span></p>", "url": "http://www.landquartfashionoutlet.ch", "image": "https://hltpimtsoch.sos-ch-dk-2.exoscale-cdn.com/catalog/5/4/c/7/54c779fdd7e8d9941f879100fdf1ebc4fac36f32_Hauptbild_Landquart_Fashion_Outlet.jpg", "openstreetmap_id": "way/993453892"}, "geometry": {"type": "Point", "coordinates": ["9.552645672518366", "46.96516814879244"]}}, {"type": "Feature", "properties": {"identifier": "5f53692e-d66b-4c02-9b04-6ce4e1e1a190", "name": "Tennispl\u00e4tze Zizers", "description": "Die Pl\u00e4tze und das Clubhaus des Tennisclubs Zizers liegen an einem der sch\u00f6nsten Flecken im Churer Rheintal: Das \u00abSt\u00f6ckli\u00bb liegt am oberen Dorfrand von Zizers. Ein Besuch lohnt sich, selbst wenn man nicht Tennis spielen will. Einfach da sitzen, f\u00fcr einen kurzen Augenblick innehalten, die Ruhe und die sch\u00f6ne Aussicht geniessen, das tut gut. So oder so!", "url": "http://www.tczizers.ch", "image": "https://hltpimtsoch.sos-ch-dk-2.exoscale-cdn.com/catalog/7/9/7/9/79790fe0898cdf1d807c98ea853d93aebedccf32_IMG_1466.jpeg", "openstreetmap_id": "way/372632804"}, "geometry": {"type": "Point", "coordinates": ["9.569778442382814", "46.93203706901796"]}}, {"type": "Feature", "properties": {"identifier": "6e3d9576-d52e-480b-bf31-84628f5c907c", "name": "E-Bike Station Bad Ragaz", "description": "<p>Betrieben vom Zweiradfachgesch\u00e4ft Suso Bike aus Walenstadt bietet die Station eine topmoderne Mietflotte an Trek E-Bikes und E-Scooter. Wer Tipps f\u00fcr Touren mit dem E-Bike in der Region Heidiland braucht, einen Guide oder einen Fahrtechnikkurs buchen m\u00f6chte, ist bei der E-Bike Station Bad Ragaz an der richtigen Adresse. - Trek E-Mountainbikes, Diamant City-E-Bikes und E-Scooter - Tipps, Infos und Kontakte zum Radfahren in der Region Heidiland - Buchung von Kulinarik-Touren und weitere Angebote der E-Bike Station Bad Ragaz - Gef\u00fchrte Touren mit Guide und Fahrtechnikkurse Gruppen haben die M\u00f6glichkeit, die E-Bikes an einen bestimmten Ausgangspunkt liefern zu lassen oder sie dort abzuholen. Preis auf Anfrage. Betrieb: Mai - Oktober</p>", "url": "https://www.ebikestation.ch/", "image": "https://hltpimtsoch.sos-ch-dk-2.exoscale-cdn.com/catalog/5/f/5/3/5f534af471e9326d8cd042382bfd57f3cae314e5_E_Bike_Station_Bad_Ragaz_Suso_Bike_lgmedia_20240526_1__2.jpg", "openstreetmap_id": "way/465434211"}, "geometry": {"type": "Point", "coordinates": ["9.505157", "46.9997676"]}}, {"type": "Feature", "properties": {"identifier": "6f68f44b-cd21-444b-90f0-5f0a69439641", "name": "Kiosk Strandbad Unterterzen", "description": "<div><p>Der <strong>Kiosk im Strandbad Unterterzen</strong> an der Gostenstrasse 20 liegt direkt am Ufer des Walensees und versorgt Badeg&auml;ste w&auml;hrend der Sommersaison mit kleinen warmen Gerichten, Snacks, Getr&auml;nken und Eis. Zum Angebot z&auml;hlen klassische Badi\u2011Spezialit&auml;ten wie Hot Dogs, Hamburger sowie eine Auswahl an erfrischenden Getr&auml;nken.</p><p>Der Kiosk befindet sich auf dem <strong>kostenlos zug&auml;nglichen Gel&auml;nde des Resort Walensee</strong> mit Liegewiese, Kieselstrand und Grillstelle. Das Strandbad ist vom <strong>Bahnhof Unterterzen in wenigen Gehminuten erreichbar</strong> und eignet sich ideal f&uuml;r einen entspannten Badetag oder eine Pause am See.</p><p>Zur Infrastruktur vor Ort geh&ouml;ren zudem eine <strong>Beach Lounge</strong>, &ouml;ffentliche <strong>Toiletten und Duschen</strong>, ein <strong>Spielplatz</strong> sowie weitere gastronomische Angebote auf der Terrasse des Resort Walensee. F&uuml;r aktive G&auml;ste stehen im angrenzenden <strong>Intersport\u2011Verleih SUPs und Kajaks</strong> zur Verf&uuml;gung.</p><p>Der Kiosk Strandbad Unterterzen ist damit ein beliebter Treffpunkt f&uuml;r Badeg&auml;ste, Familien und Ausfl&uuml;gler, die den Sommer direkt am Walensee geniessen m&ouml;chten.</p></div>", "image": "https://hltpimtsoch.sos-ch-dk-2.exoscale-cdn.com/catalog/9/8/5/c/985cfb78182a7be1c9e3fde63821b4a1a4150aad_Kiosk_Piktogramm_HLT.png", "openstreetmap_id": "way/244433289"}, "geometry": {"type": "Point", "coordinates": ["9.254651069641115", "47.11473699623163"]}}, {"type": "Feature", "properties": {"identifier": "6fa15ff9-ea7b-4733-9dd9-6d79c6f55cd0", "name": "E-Tandem-Miete f\u00fcr alle", "description": "- Erleben Sie unvergessliche Abenteuer auf unserem Moustache E-Tandem!\n- Perfekt f\u00fcr Freunde, Paare und Familien, egal ob mit oder ohne Beeintr\u00e4chtigung!\n- losfahren, Spa\u00df haben und geniessen!\n- elektrische Unterst\u00fctzung f\u00fcr m\u00fcheloses Fahren auch am Berg!\n- Geniessen Sie die Heidiland Region und erkunden Sie neue Orte!\n- sehr attraktive Mietbedingungen f\u00fcr Menschen mit Handycap an unserem Standort in Landquart bei der Sportshop 41 AG!\n- Buchen Sie jetzt und entdecken Sie die Freude am E-Tandemfahren!\n\nWorauf warten Sie noch? Lernen Sie diese sch\u00f6ne Region auf eine einzigartige und barrierefreie Art und Weise kennen!\nPlanen Sie noch heute Ihr Tandem-Abenteuer. Wir freuen uns darauf, Ihnen ein unvergessliches Erlebnis zu bieten!\n\nSchweizerischer Blinden- und Sehbehindertenverband, Sektion Graub\u00fcnden", "url": "https://www.anderssehen.ch/landquart", "image": "https://hltpimtsoch.sos-ch-dk-2.exoscale-cdn.com/catalog/3/c/7/f/3c7f23cb9afa84f7807412791fe05cf2f85ec526_20230709_Moustache_E_Tandem_2__3.jpg", "openstreetmap_id": "node/6867847254"}, "geometry": {"type": "Point", "coordinates": ["9.5571107", "46.9675999"]}}, {"type": "Feature", "properties": {"identifier": "736d74dd-b29e-43d9-a41a-0e865e3672ef", "name": "Suso Bike GmbH, Walenstadt", "description": "<p>Wir sind Ihr erster Ansprechpartner rund um ihre Radmomente. Es ist uns wichtig das passende f&uuml;r ihre Bed&uuml;rfnisse zu finden, wir beraten sie kompetent, sind zuverl&auml;ssig und geben unser best M&ouml;gliches ihre W&uuml;nsche zu erf&uuml;llen.</p><p>Wir bieten ihnen beste Qualit&auml;t und Leistungen f&uuml;r Ihr Fahrrad vom Verkauf bis zur Reparatur in unserer professionellen Werkstatt mit ausgebildeten Fachkr&auml;ften, bei uns ist ihr Zweirad in den richtigen H&auml;nden, auch nach dem Kauf sind wir f&uuml;r sie da.</p><p>Zudem f&uuml;hren wir Bike Bekleidung vieler Marken, von der Socke bis zum Helm! Auch f&uuml;r alles rund herum sind wir ausgestattet von der Bikekarte, &uuml;ber den Einkaufskorb f&uuml;r ihr Velo bis hin zur Beleuchtung!</p>", "url": "http://www.susobike.ch", "image": "https://hltpimtsoch.sos-ch-dk-2.exoscale-cdn.com/catalog/8/8/2/a/882aaefc8b0807211ac4e282cda7932e7170a0a2__DSC0215_1.jpg", "openstreetmap_id": "way/70295605"}, "geometry": {"type": "Point", "coordinates": ["9.314852618499426", "47.12321125"]}}, {"type": "Feature", "properties": {"identifier": "7441b9ad-515d-4d1e-af39-fa8ae5370649", "name": "Metzgerei Kalberer", "description": "<p data-start=\"152\" data-end=\"472\">Die Metzgerei Kalberer AG in Wangs steht seit mehr als acht Jahrzehnten f&uuml;r erstklassige Fleisch- und Wurstspezialit&auml;ten. In Familienbesitz gearbeitet, legt das Unternehmen grossen Wert auf Regionalit&auml;t: die Tiere stammen von einheimischen Lieferanten, und die Herstellung erfolgt m&ouml;glichst ohne unn&ouml;tige Zusatzstoffe.</p><p data-start=\"474\" data-end=\"861\">Neben dem Verkaufsladen in Wangs betreibt Kalberer eine Produktionshalle in Vilters. Wer auch ausserhalb der Ladenzeiten hochwertiges Fleisch w&uuml;nscht, profitiert vom Fleischautomaten neben dem Laden &ndash; rund um die Uhr mit Barzahlung nutzbar. Mit etwa 15 Mitarbeitenden bietet die Metzgerei pers&ouml;nlichen Service, Frische und Verl&auml;sslichkeit f&uuml;r alle, die Wert auf echte Metzgerkunst legen.</p>", "url": "https://www.metzgerei-kalberer.ch/", "image": "https://hltpimtsoch.sos-ch-dk-2.exoscale-cdn.com/catalog/9/4/d/7/94d7f6fd6a6677c4bc6e24b35af08fcad7069caa_laden_panorama_scaled.jpg", "openstreetmap_id": "node/4425707489"}, "geometry": {"type": "Point", "coordinates": ["9.431564", "47.0322727"]}}, {"type": "Feature", "properties": {"identifier": "74a4f83b-28b2-4846-a580-43d93845bdad", "name": "Schweizer Skischule Bad Ragaz-Wangs-Pizol", "description": "<p>Privat- sowie Gruppenunterricht</p><p>Bester Lernerfolg! Ihr Schneesportlehrer richtet den Unterricht auf Ihre Bed\u00fcrfnisse und W\u00fcnsche aus. F\u00fcr Kinder und Erwachsene, f\u00fcr Skifahrer und Snowboarder aller K\u00f6nnerstufen.</p>", "image": "https://hltpimtsoch.sos-ch-dk-2.exoscale-cdn.com/catalog/0/e/6/4/0e64efbed22c7efc7163f172a22c1153bdbcbf87_Hauptseite_0.jpg", "openstreetmap_id": "node/4301387458"}, "geometry": {"type": "Point", "coordinates": ["9.4641886", "46.9894085"]}}, {"type": "Feature", "properties": {"identifier": "76381e05-743d-49f1-8335-97be6557af91", "name": "Kletterturm CLiiMBER", "description": "Kletterturm CLiiMBER \u2013 das heisst f\u00fcr dich abwechslungsreicher Kletterspass mit \u00fcber 100 Kletterstationen kompakt eingebettet auf 3 Etagen im kristallf\u00f6rmigen Turm auf der Hochebene Prodalp.\n\nJede Etage bietet 30 verschiedene, originell ausgearbeitete Kletterstationen mit unterschiedlichem Design und Schwierigkeitsgrad.\n\nDurch die flexible Parcoursreihenfolge entscheidest du selber, welche Route du nimmst und erh\u00f6hst deinen Schwierigkeitsgrad hinauf zur 3. Etage auf luftige 15 Meter H\u00f6he nach eigenem Ermessen.\n\nminiCLiiMBER\nDer exklusive MiniCLiiMBER erm\u00f6glicht gar Kids ab 4 Jahren oder bis 1.40 m erste Kraxeltouren.\n\nflyingCLiiMBER\nLass dich ab den oberen Etagen vom Kletterturm in die Weite tragen und schwebe mit dem flyingCLiiMBER auf 6 verschiedenen Linien, auf \u00fcber 15 Meter H\u00f6he und 700 m L\u00e4nge. Sp\u00fcre den Wind und geniesse die herrliche Aussicht. Dieses Erlebnis ist nur f\u00fcr Personen die gr\u00f6sser als 1.40 m sind erlaubt. \n\nCLiiMBERwall\nDeine Geschicklichkeit ist gefragt. Klettere auf 5 Kletterrouten auf eine H\u00f6he von 6 Metern. Versuche dich in dieser faszinierenden Sportart und trainiere deine Kraft in H\u00e4nden und Armen. Kinder ab 4 Jahren d\u00fcrfen die CLiiMBERwall ben\u00fctzen. Das Selbstsicherungssytem bringt alle Kletternden sicher wieder auf den Boden.", "url": "https://www.flumserberg.ch/kletterberg", "image": "https://hltpimtsoch.sos-ch-dk-2.exoscale-cdn.com/catalog/5/e/e/8/5ee87047c97ca7e3d64f763547560e034b989cdf_Kletterturm_CLiiMBER.jpg", "openstreetmap_id": "node/3431838772"}, "geometry": {"type": "Point", "coordinates": ["9.288795590400698", "47.080727680903"]}}, {"type": "Feature", "properties": {"identifier": "791f3b4e-6af1-43c3-ace2-1f1598aefc5f", "name": "Boulderei GmbH", "description": "Wir bieten mit unserer Boulderhalle mit 220 m2 eine Vielzahl an Routen in allen m\u00f6glichen Schwierigkeitsgraden an. Bei uns findet der Anf\u00e4nger sowie der Profi eine geeignete Route, die seinen Anspr\u00fcchen gerecht wird.\n\nNeben unserer Boulderwand bieten wir eine Lounge f\u00fcr die Erholung und betreiben eine kleine Bar, an der man den Durst l\u00f6schen kann. \n\nAuch Kinder sind bei uns herzlich willkommen. F\u00fcr unsere kleinen Besucher haben wir eine spezielle Kinderecke gebaut, in der sich die Begleiter von Mama und Papa ideal zur\u00fcckziehen k\u00f6nnen.\n\nF\u00fcr Firmen, Schulen, Kindergeburtstage und gr\u00f6ssere Gruppen ab 8 Personen besteht die M\u00f6glichkeit, die Boulderhalle auch ausserhalb der \u00d6ffnungszeiten zu mieten.", "url": "http://www.boulderei.ch/", "image": "https://hltpimtsoch.sos-ch-dk-2.exoscale-cdn.com/catalog/9/b/9/c/9b9c40b7d94fb3a0299a0493c46a24c0f90e42b6_244591735_4817449338288107_8260655810413698918_n.jpg", "openstreetmap_id": "relation/1683880"}, "geometry": {"type": "Point", "coordinates": ["9.341082572937013", "47.087936510281935"]}}, {"type": "Feature", "properties": {"identifier": "7a0eba2d-e7f9-42a1-8545-505e95e9b997", "name": "Foto Fetzer", "description": "Kreativit\u00e4t, Zuverl\u00e4ssigkeit und Qualit\u00e4t sind Werte, die uns auszeichnen. Mit unserem spezialisierten und motivierten Team, das sich laufend weiterbildet, stehen wir Ihnen mit unserem Fachwissen jederzeit gerne zur Verf\u00fcgung. Unsere Aufnahmen umschreiben wir als nat\u00fcrlich, lebendig und gef\u00fchlvoll.", "url": "https://fetzer.ch/", "image": "https://hltpimtsoch.sos-ch-dk-2.exoscale-cdn.com/catalog/3/b/5/d/3b5dd081101f619b950eb130d0fdea6ab3078ade_FotoFetzer_004_Shop.jpg", "openstreetmap_id": "way/1091255308"}, "geometry": {"type": "Point", "coordinates": ["9.500808119773867", "47.00266071223961"]}}, {"type": "Feature", "properties": {"identifier": "7e759b10-9f0b-4d17-92eb-d05d9398a49c", "name": "Start Snowboarding - Snowboardschule", "description": "Snowboarden zu lernen ist keine Hexerei. W\u00e4hrend den 4 Privatlektionen, aufgeteilt auf den Morgen und Nachmittag, lernst du endlich Snowboarden! In diesem privaten Snowboardkurs in Flumserberg f\u00fcr Beginner, gehen wir locker s\u00e4mtliche Schritte bis zu den ersten Basic-Turns durch. Das heisst du wirst bereits die ersten Kurven lernen. Der Kurs richtet sich speziell an Anf\u00e4nger, welche zum ersten Mal auf dem Snowboard stehen werden. Dank dem Privatlehrer steht dir bei jedem Schritt jemand zur Seite, welche auf deine Bed\u00fcrfnisse und Fortschritte eingehen kann und dir in jeder Situation zur Seite steht. Falls du den Kurs mit einer Kollegin oder einem Kollegen besuchen willst, darf dieser Gratis teilnehmen.", "url": "https://www.startsnowboarding.ch", "image": "https://hltpimtsoch.sos-ch-dk-2.exoscale-cdn.com/catalog/2/7/e/d/27edb18484333ded28bb35850f5d4e0a3d933108_overview_5_DCzNU7SJQCnKJLvj3vtt3LiDstKQws76vOgg8n1g.jpg", "openstreetmap_id": "way/754266155"}, "geometry": {"type": "Point", "coordinates": ["9.278898239135744", "47.090753870005436"]}}, {"type": "Feature", "properties": {"identifier": "7f3b889f-6fbe-498d-a36e-5167bcb5e2cd", "name": "INTERSPORT Network Flumserberg Testcenter Prodalp", "description": "Das Testcenter Prodalp bleibt \u00fcber die Sommersaison geschlossen. \n\nAuf Prodalp finden Sie das Testcenter des INTERSPORT Network Flumserberg. Es steht Ihnen eine grosse Auswahl an Schneesportausr\u00fcstung direkt vor Ort zum Testen wie zum Kaufen zur Verf\u00fcgung. Des Weiteren haben Sie die M\u00f6glichkeit Ihren Skiern oder dem Snowboard den letzten Wachs- bzw. Kantenschlief zu verpassen.\n\nTest & Buy\nSie m\u00f6chten sich gerne ein neues Paar Ski oder ein neues Snowboard kaufen, sind sich aber noch nicht sicher welche Marke beziehungsweise welches Modell es sein soll? Im Testcenter Prodalp haben Sie die M\u00f6glichkeit Snowboards und Skier direkt vor Ort zu testen. Bei der Bezahlung des Testtarifes haben Sie die M\u00f6glichkeit eines uneingeschr\u00e4nkten Materialwechsels w\u00e4hrend der Mietdauer. Und zudem werden beim Kauf bis zu zwei Testtage an den Preis angerechnet.", "url": "https://www.intersport-network.ch/filialen/testcenter-prodalp/", "image": "https://hltpimtsoch.sos-ch-dk-2.exoscale-cdn.com/catalog/2/b/a/5/2ba5a8590a122056846e040f844ff65ff01e3f44_tkv_bbf_skigastro_0039__52_5696__2.jpg", "openstreetmap_id": "way/1280900963"}, "geometry": {"type": "Point", "coordinates": ["9.288613724365861", "47.08039230899453"]}}, {"type": "Feature", "properties": {"identifier": "81af0ace-bb54-4f54-8c5d-f5f21f062d35", "name": "Buchladen Bad Ragaz", "description": "B\u00fccherliebhaber.   Bei unserer kleinen, aber feinen Auswahl an B\u00fcchern wird jeder f\u00fcndig. Alle Titel sind pers\u00f6nlich ausgew\u00e4hlt und die Auswahl immer aktuell.  Eine pers\u00f6nliche Beratung vor Ort ist f\u00fcr uns selbstverst\u00e4ndlich", "url": "https://buchbadragaz.ch/", "image": "https://hltpimtsoch.sos-ch-dk-2.exoscale-cdn.com/catalog/c/b/8/3/cb834baf10d7bac1f476c28e1f948e370758af6c_Buchladen_Bad_Ragaz_Buecherliebe_KaufLokal_1.png", "openstreetmap_id": "relation/1683862"}, "geometry": {"type": "Point", "coordinates": ["9.501081705093384", "47.00311805552805"]}}, {"type": "Feature", "properties": {"identifier": "831134dd-4b85-4a3c-b444-cd46e79178ed", "name": "Rodelbahn FLOOMZER", "description": "Flitze auf der sicheren Rodelbahn 2 km und 250 Tiefenmeter durch Tunnel, \u00fcber Br\u00fccken, Kurven, Wellen und Kreisel durch die atemberaubende Landschaft vom Chr\u00fcz bis nach Tannenboden. Mit dem attraktiven Early Bird-Angebot profitierst du t\u00e4glich von unlimitierten Rodelfahrten von 10.00 bis 12.00 Uhr. Dank der wetterfesten Rodel-Fahrzeuge, kann der FLOOMZER-Spass bei jeder Witterung stattfinden. Die Rodelbahn FLOOMZER ist ein beliebtes Ausflugsziel f\u00fcr Familien, Gruppen, Vereine und Firmen.", "url": "https://www.flumserberg.ch/rodelberg", "image": "https://hltpimtsoch.sos-ch-dk-2.exoscale-cdn.com/catalog/0/d/f/a/0dfa7c4fa916fc8bfd1710e0ca9fd471d753d728_Rodelbahn_FLOOMZER_aussichtsreiche_Talfahrt.jpg", "openstreetmap_id": "node/244067701"}, "geometry": {"type": "Point", "coordinates": ["9.2807483", "47.0919796"]}}, {"type": "Feature", "properties": {"identifier": "9c03003f-a7e5-4c7d-92b2-c82cdd4025e0", "name": "Tennishalle in der alten Spinnerei", "description": "In der alten Spinnerei schlagen Sie Ihre B\u00e4lle auf einem 630m\u00b2 grossen, topmodernen Indoor-Spielfeld. Der Rebound-Ace-Platz (Australian Open, Olympics in Sidney) steht der \u00d6ffentlichkeit t\u00e4glich von 8:00 bis 22:00 Uhr zur Verf\u00fcgung und kann f\u00fcr eine oder zwei Stunden gebucht werden.", "url": "https://lofthotel.ch/tennis-fitness-e-bike/", "image": "https://hltpimtsoch.sos-ch-dk-2.exoscale-cdn.com/catalog/3/c/a/a/3caaf8ba09d5dfdfe4e7675a6282cf3895061748_Tennishalle_lofthotel_2.jpg", "openstreetmap_id": "node/418190191"}, "geometry": {"type": "Point", "coordinates": ["9.2170854", "47.1124346"]}}, {"type": "Feature", "properties": {"identifier": "9dca36e5-0d2d-4f48-874e-a26015221a92", "name": "Igiser Hofl\u00e4dali", "description": "Hofladen und Bio-Bauernhof", "image": "https://hltpimtsoch.sos-ch-dk-2.exoscale-cdn.com/catalog/c/0/a/c/c0ac46bfcc8254a0de5530b951165d55f0fd2b79_20200301_102559__3.jpg", "openstreetmap_id": "way/93572539"}, "geometry": {"type": "Point", "coordinates": ["9.579541683197023", "46.953721229174754"]}}, {"type": "Feature", "properties": {"identifier": "b41dc681-9886-4601-a691-f109a663241b", "name": "Coop Supermarkt Walenstadt", "description": "<div><p>Der Coop Supermarkt in Walenstadt bietet eine komfortable Einkaufsm&ouml;glichkeit f&uuml;r den t&auml;glichen Bedarf. Das breite Sortiment umfasst frische Lebensmittel, Backwaren, Getr&auml;nke sowie Produkte f&uuml;r Haushalt und Alltag und legt Wert auf Qualit&auml;t, Regionalit&auml;t und Nachhaltigkeit.</p><p>Er ist f&uuml;r Einheimische und G&auml;ste gut erreichbar und eignet sich ideal f&uuml;r den schnellen Einkauf oder die Selbstversorgung w&auml;hrend eines Aufenthalts in der Region. Coop steht f&uuml;r verl&auml;ssliche Qualit&auml;t, eine &uuml;bersichtliche Ladenstruktur und ein vielseitiges Angebot.</p></div>", "url": "https://www.coop.ch/de/standorte/coop-supermarkt-walenstadt/1358_POS?", "image": "https://hltpimtsoch.sos-ch-dk-2.exoscale-cdn.com/catalog/e/3/8/0/e38070a7a2a18d6757bd15fd1add1ed9bf96cd1f_Einkaufen_Piktogramm_HLT.png", "openstreetmap_id": "way/70295730"}, "geometry": {"type": "Point", "coordinates": ["9.3145526", "47.1233912"]}}, {"type": "Feature", "properties": {"identifier": "bba644fb-dd6e-4cce-9865-1be9bcf533fc", "name": "INTERSPORT Network Flumserberg Filiale Unterterzen", "description": "Die INTERSPORT Network Flumserberg Filiale in Unterterzen befindet sich direkt am Seeufer des Walensees. Gerne \u00fcberzeugen wir Sie von unserem topaktuellen Sortiment, kundenorientierten Dienstleitungen und fachkompetenter Beratung und sind mit Freude f\u00fcr Sie da. Im Sommer haben Sie die M\u00f6glichkeit, Stand-up-Paddles, Kajaks und Pedalos zu mieten. W\u00e4hrend des ganzen Jahres pr\u00e4sentiert die Filiale eine grosse und der Saison angepasste Textilabteilung.\n\nWie w\u00e4re es mit einer E-Bike-Tour entlang des Walensees? Den fahrbaren Untersatz daf\u00fcr mieten Sie ganz einfach in der INTERSPORT Filiale Unterterzen.\n\nJetzt Fahrrad online mieten unter www.intersport-network.ch", "url": "https://www.intersport-network.ch/filialen/unterterzen/", "image": "https://hltpimtsoch.sos-ch-dk-2.exoscale-cdn.com/catalog/1/2/7/4/12748f4df9e54a5d93ffe67c2ed6d1b508838f60_tkv_bbf_isn_sommer_089__51_7675.jpg", "openstreetmap_id": "node/690890277"}, "geometry": {"type": "Point", "coordinates": ["9.2559119", "47.1151965"]}}, {"type": "Feature", "properties": {"identifier": "bcb401c1-b64e-45b0-a930-69fc60b99f08", "name": "Minigolf mit Kiosk im Kurpark Bad Ragaz", "description": "Wer gerne im romantischen Dorf bleibt, wagt vielleicht einen Abstecher in den Kurpark. Hier, mitten im Herzen von Bad Ragaz, l\u00e4dt unser resorteigener Minigolfplatz mit 18 Bahnen zum heissen Match ein.", "url": "http://www.resortragaz.ch", "image": "https://hltpimtsoch.sos-ch-dk-2.exoscale-cdn.com/catalog/0/e/d/d/0eddddc59dbcff71d3821c71d3ea1908f5466458_20180416_125655.jpg", "openstreetmap_id": "way/166536391"}, "geometry": {"type": "Point", "coordinates": ["9.502320144456753", "47.001469650000004"]}}, {"type": "Feature", "properties": {"identifier": "c10724ce-9cc5-4893-9bf6-8cb1beb7f8bc", "name": "INTERSPORT Flumserberg THE ORIGINAL", "description": "Gr\u00fc\u00e4zi bei INTERSPORT FLUMSERBERG - das Feine, einheimische Sportgesch\u00e4ft am Flumserberg, Tannenboden Dorf. Bei uns findest du alles rund um den Wintersport. Ski, Snowboard und Langlauf mieten; einfach, schnell, preiswert und beste Qualit\u00e4t. Wir sind echte Schneesportprofis und die Sport Dienstleister der Region. Unser Mietmaterial und die Infrastruktur sind topmodern und wir k\u00f6nnen euch schon heute eine hervorragende Betreuung durch unser junges, langj\u00e4hriges & einheimisches Personal garantieren. Direkt beim Skischulsammelplatz Tannenboden Dorf gelegen. Mit den \u00dcbungsliften Schwammkopf und Madils gelangst du einfach und direkt ins Skigebiet. Offizieller St\u00f6ckli H\u00e4ndler. Speziallist Skischuh Verkauf.\nOnline Reservation: https://www.intersportflumserberg.ch/rent#rent", "url": "https://www.intersportflumserberg.ch/", "image": "https://hltpimtsoch.sos-ch-dk-2.exoscale-cdn.com/catalog/b/8/c/7/b8c74587d19ce2b9a40a82ea8bc9faea9ff71352_Aussenansicht_2019.jpeg", "openstreetmap_id": "node/4727739995"}, "geometry": {"type": "Point", "coordinates": ["9.284648895263674", "47.09361788664114"]}}, {"type": "Feature", "properties": {"identifier": "d8c6b80b-e605-4ea5-a6ec-1ddcf07614d4", "name": "Kiwi Kino Castels Sargans", "description": "Das Kiwi Castels mit seinen zwei komfortabel eingerichteten S\u00e4len ist ein Erlebnisort, eingebettet im schweizweit bekannten Heidiland. Ob Familienfilme, Hollywood-Blockbuster oder auch intellektuelles Kino in der Originalfassung. Das traditionelle Kino in Sargans bietet pures Filmvergn\u00fcgen in sympathisch lokaler Atmosph\u00e4re. Dabei l\u00e4dt der Kinokiosk mit integrierter Bar vor oder nach dem Film zum C\u00fcpli unter Freunden.", "url": "https://www.kiwikinos.ch/sargans/kino_castels/", "image": "https://hltpimtsoch.sos-ch-dk-2.exoscale-cdn.com/catalog/c/e/b/4/ceb4668760d27ef745802d51c5df2bca12e9715f_getlstd_property_photo.jpg", "openstreetmap_id": "relation/1683931"}, "geometry": {"type": "Point", "coordinates": ["9.441976547241211", "47.04525370201702"]}}, {"type": "Feature", "properties": {"identifier": "dae7c8f0-8b19-43bf-8b00-c00c173bcb33", "name": "Berber Semmelink - Ski Academy", "description": "Die BSSKI Academy bietet privaten Ski- und Snowboardunterricht mit erfahrenen Lehrern sowie Gruppenunterricht f\u00fcr diejenigen, die lieber mit anderen zusammen lernen m\u00f6chten. Egal ob du Anf\u00e4nger oder Fortgeschrittener bist, die BSSKI Academy kann dir helfen, deine Ziele auf und abseits der Piste zu erreichen.", "image": "https://hltpimtsoch.sos-ch-dk-2.exoscale-cdn.com/catalog/f/1/4/d/f14daadbaecf8e94da15e2885aa91b49aafd61f2_20220220_110925_scaled_e1679417260507_768x576.jpg", "openstreetmap_id": "way/754266155"}, "geometry": {"type": "Point", "coordinates": ["9.27947759628296", "47.091572393806004"]}}, {"type": "Feature", "properties": {"identifier": "db9ef566-6a20-476e-9909-d77d5b0cc757", "name": "BIGPOINT", "description": "Mit Padel, Tennis, Pickleball und Badminton bleiben Sie auch in Ihren Ferien in Form. Das Sportcenter in Bad Ragaz bietet folgende Sportpl\u00e4tze:\n\nIndoor\n- 4 Padel Courts\n- 1 Padel Single Court\n- 1 Kids Padel Court\n- 1 Padel Ping Pong Court\n- 1 Pickleball Court\n- 1 Badminton Court\n\nOutdoor\n- 5 Padel Courts\n- 2 Padel Single Courts\n- 1 Tennis Court\n\nZudem bieten wir Unterricht f\u00fcr alle Altersklassen und Spielst\u00e4rken.\n\nSchl\u00e4ger f\u00fcr alle Sportarten k\u00f6nnen bei uns gemietet werden (Twint), B\u00e4lle und Shuttles bei der Rezeption gekauft werden (Twint).\n\nJetzt auf Playtomic registrieren, den gew\u00fcnschten Platz direkt online buchen und Spass haben!\n\nWeitere Infos finden Sie auf unserer Website: https://bigpointtennis.ch/bad-ragaz/", "url": "https://www.bigpointtennis.ch", "image": "https://hltpimtsoch.sos-ch-dk-2.exoscale-cdn.com/catalog/f/1/9/7/f19757a9e4d8dc979271a770f18689f561d04627_BIGPOINT_Outdoor__2.JPG", "openstreetmap_id": "way/44116449"}, "geometry": {"type": "Point", "coordinates": ["9.493603706359865", "47.015295500475"]}}, {"type": "Feature", "properties": {"identifier": "de690b47-2e21-4bca-8d0b-a918316cec04", "name": "Ski- und Snowboardschule Flumserberg", "description": "Das Team der Ski- und Snowboardschule Flumserberg hilft dabei, wintersportliche Ziele zu verwirklichen \u2013 angefangen beim klassischen Skifahren und Snowboarden bis hin zu vielen weiteren Aktivit\u00e4ten im Schnee. Kreativ, fokussiert, verst\u00e4ndnisvoll und topausgebildet wissen unsere Lehrer genau, was sie tun. Freuen Sie sich auf einheimische Wintersportprofis, die das Herz am rechten Fleck haben.", "url": "https://www.flumserberg.ch/de/Winter-erleben/Skischule-Flumserberg", "image": "https://hltpimtsoch.sos-ch-dk-2.exoscale-cdn.com/catalog/4/5/e/9/45e95401dbcbd0c66cf5fdda3596de92be58ac0e_Skifahren_Flumserberg_Spitzmeilen.jpg", "openstreetmap_id": "way/754266155"}, "geometry": {"type": "Point", "coordinates": ["9.284396767616274", "47.093737630212"]}}, {"type": "Feature", "properties": {"identifier": "e4561f03-e07c-4513-ba91-ce5a3160318c", "name": "Tamina Therme Bad Ragaz", "description": "Das \u00f6ffentliche Thermalheilbad Tamina Therme ist als Wellness-Oase, ein Ort der Entspannung und Erholung f\u00fcr K\u00f6rper, Geist und Seele: Das Thermalwasser in seiner reinsten Form, zelebrierte Saunakultur und das Massage-  und Beauty-Angebot in dem stimmungsvollen und licht-durchfluteten Ambiente der Therme schaffen ein intensives Wohlf\u00fchlerlebnis f\u00fcr alle Sinne!\n\nHier erleben Sie das heilende Thermalwasser in seiner reinsten Form und regenerieren K\u00f6rper, Geist und Seele. Auf rund 7\u2019300 Quadratmetern bieten sich verschiedene Attraktionen zur Entspannung nach einem anstrengenden Arbeitstag, nach intensivem Sport oder einfach, weil Ihnen das Thermalwasser gut tut.", "url": "https://www.grandresort.ch/spa-therme/tamina-therme", "image": "https://hltpimtsoch.sos-ch-dk-2.exoscale-cdn.com/catalog/d/0/e/5/d0e529a2a8b4cd0c616bc66b12779edc93e9b5f3_TT_Aussen_Drohne_Pool.jpg", "openstreetmap_id": "way/332307791"}, "geometry": {"type": "Point", "coordinates": ["9.50416022930948", "46.99929655"]}}, {"type": "Feature", "properties": {"identifier": "eb602550-73e8-42cc-851d-a8b8145e09ba", "name": "Golf Club Heidiland", "description": "Der 9-Loch Executive Course des Golf Club Heidiland ist in die wundersch\u00f6ne Bergkulisse des B\u00fcndner Rheintals eingebettet. Der Golfplatz grenzt an den 18-Loch Championship Course des Golf Club Bad Ragaz. Die hervorragend gepflegte Anlage bietet mit einem eigenen \u00dcbungscenter und Golf Academy beste Voraussetzungen f\u00fcr ein erfolgreiches Spiel. Zum Golf Club Heidiland geh\u00f6rt das Golf Bistro dazu, welches sowohl Golfspieler als auch externe G\u00e4ste mit leckeren Speisen verw\u00f6hnt. Der Golfparcours steht auch Mitgliedern anderer Golf Clubs offen (mindestens Handicap 54).\n\nDer Golfplatz grenzt an den bestehenden Golf Club Bad Ragaz und ist ebenfalls dem Grand Resort Bad Ragaz angegliedert. Gerne k\u00f6nnen auch G\u00e4ste den Parcours geniessen, die mindestens Handicap 54 besitzen und Mitglied in einem Golf Club sind. Die \u00dcbungsanlage ist f\u00fcr jedermann Rangfee frei zug\u00e4nglich. Auf Anfrage werden Golfschl\u00e4ger zur Verf\u00fcgung gestellt.", "url": "http://www.gcheidiland.ch", "image": "https://hltpimtsoch.sos-ch-dk-2.exoscale-cdn.com/catalog/1/a/9/c/1a9ccf3d9091f7f38b053dd384eea20c236be291_Golf_Club_Heidiland_1.jpg", "openstreetmap_id": "relation/3297611"}, "geometry": {"type": "Point", "coordinates": ["9.516695028802676", "46.9975241"]}}, {"type": "Feature", "properties": {"identifier": "ec67a722-42c9-4635-891d-ac112e00f7f5", "name": "SPAR Supermarkt Unterterzen", "description": "<div><p>Der SPAR Supermarkt in Unterterzen bietet eine praktische Einkaufsm&ouml;glichkeit f&uuml;r den t&auml;glichen Bedarf. Das Sortiment umfasst Lebensmittel, Getr&auml;nke sowie Produkte f&uuml;r Haushalt und Alltag und richtet sich sowohl an Einheimische als auch an G&auml;ste der Region.</p><p>Dank der Lage in Unterterzen ist der SPAR gut erreichbar und eignet sich ideal f&uuml;r den schnellen Einkauf zwischendurch oder f&uuml;r die Selbstversorgung w&auml;hrend eines Aufenthalts am Walensee. SPAR steht f&uuml;r N&auml;he, &Uuml;bersichtlichkeit und ein verl&auml;ssliches Angebot mit Fokus auf Qualit&auml;t und regionale Bed&uuml;rfnisse.</p></div>", "url": "https://www.spar.ch/standorte/detail/sm-unterterzen", "image": "https://hltpimtsoch.sos-ch-dk-2.exoscale-cdn.com/catalog/9/d/9/4/9d947f167c78b5662a8ae2ac4a204f5a68ecc680_Einkaufen_Piktogramm_HLT.png", "openstreetmap_id": "node/5422909422"}, "geometry": {"type": "Point", "coordinates": ["9.2499457", "47.1127171"]}}, {"type": "Feature", "properties": {"identifier": "f0684023-7992-4ad8-a1c5-adb38ef2ec4a", "name": "Migros-Supermarkt Walenstadt", "description": "<div><p>Die Migros in Walenstadt bietet eine vielseitige Einkaufsm&ouml;glichkeit f&uuml;r den t&auml;glichen Bedarf. Das Sortiment umfasst frische Lebensmittel, Fr&uuml;chte und Gem&uuml;se, Backwaren, Getr&auml;nke sowie zahlreiche Produkte f&uuml;r Haushalt und Alltag. Ein besonderer Fokus liegt auf Qualit&auml;t, Nachhaltigkeit und einem ausgewogenen Angebot an Marken\u2011 und Migros\u2011Eigenprodukten.</p><p>Der Supermarkt ist f&uuml;r Einheimische und G&auml;ste gut erreichbar und eignet sich ideal f&uuml;r den schnellen Einkauf oder die Selbstversorgung w&auml;hrend eines Aufenthalts in der Region. Die Migros steht f&uuml;r Verl&auml;sslichkeit, eine &uuml;bersichtliche Ladenstruktur und ein umfassendes Einkaufsangebot.</p></div>", "url": "https://filialen.migros.ch/de/migros-supermarkt-walenstadt", "image": "https://hltpimtsoch.sos-ch-dk-2.exoscale-cdn.com/catalog/9/4/9/1/949192c0d6350bea071c6eb31c5ef6fa534360d2_Einkaufen_Piktogramm_HLT.png", "openstreetmap_id": "way/70295844"}, "geometry": {"type": "Point", "coordinates": ["9.3137591", "47.1217541"]}}, {"type": "Feature", "properties": {"identifier": "f1751f2b-e3fb-411d-8a45-57b4c0007360", "name": "DRIFT Bike Shop GmbH", "description": "Abholung und R\u00fcckgabe der Miet- und Testbikes ist nur w\u00e4hrend den \u00d6ffnungszeiten des jeweiligen Shops m\u00f6glich.", "url": "https://www.driftbikeshop.ch/", "image": "https://hltpimtsoch.sos-ch-dk-2.exoscale-cdn.com/catalog/4/c/f/5/4cf5b463dcfe71811c5c0e98142a876563c3bf8e_Drift_Bike_Shop__1_.jpg", "openstreetmap_id": "way/410664343"}, "geometry": {"type": "Point", "coordinates": ["9.4220398", "47.0481131"]}}, {"type": "Feature", "properties": {"identifier": "f18f9fde-7ac4-4a09-8589-5e7d5977467e", "name": "Chapfensee Selbstbedienung", "description": "<div><div>Der Selbstbedienungskiosk beim Chapfensee bietet Getr&auml;nke, Snacks und kleine Verpflegungen zur Selbstbedienung. Rund 300 Meter vom See entfernt gelegen, ist er ein beliebter Halt f&uuml;r Wandernde, Biker und Familien.</div></div>", "image": "https://hltpimtsoch.sos-ch-dk-2.exoscale-cdn.com/catalog/9/d/f/3/9df3b08fd324e1d57501fa4d2f35cde239116f6c_Chapfensee_Rundtour.jpg", "openstreetmap_id": "node/5730423405"}, "geometry": {"type": "Point", "coordinates": ["9.372249841690065", "47.049049632566835"]}}, {"type": "Feature", "properties": {"identifier": "f736364a-e903-4dbd-9720-1a1df6156776", "name": "Alpenlodge Prod", "description": "Mitten im Sommer- und Wintersportgebiet Flumserberg \u2013 auf dem Hochplateau Prodalp (1576 m) \u2013 finden Sie die Alpenlodge Prod. Die moderne Gruppenunterkunft mit 48 Betten und einer grossen Selbstversorgungsk\u00fcche bietet zus\u00e4tzlich Ruhe, Idylle und eine herrliche Aussicht.\n\nOb f\u00fcr ein Schullager oder f\u00fcr ein Wochenende f\u00fcr Firmen oder Vereine \u2013 die Alpenlodge Prod bietet eine \u00dcbernachtungsm\u00f6glichkeit in einmaliger Atmosph\u00e4re. Die Gruppenunterkunft hat 48 Betten (2 x 10er; 4 x 6er und 2 x 2er-Zimmer). Die K\u00fcche ist mit Induktionsherd, Steamer, Backofen, einem Tiefk\u00fchlschrank, zwei K\u00fchlschr\u00e4nken und einer Abwaschmaschine ausgestattet. Der gem\u00fctliche Ess- und Aufenthaltsraum hat ein Chemin\u00e9e. Der Ski- und Trockenraum eignet sich im Winter ideal zur Aufbewahrung von Skischuhen.\n\nDie Alpenlodge Prod ist eine Gruppenunterkunft f\u00fcr Selbstkocher. Bei einer Buchung mit Fr\u00fchst\u00fcck wird Ihnen dieses direkt ins Haus geliefert. Es besteht zudem die M\u00f6glichkeit ein K\u00e4se-Fondue auf Vorbestellung in die Alpenlodge Prod liefern zu lassen oder im ca. 300 m entfernten Bergrestaurant Prodalp das Mittag- und Abendessen einzunehmen (Reservation erforderlich).\n\nErreichbar ist die Alpenlodge Prod mit der 12er-Gondelbahn Prodalp-Express ab Tannenheim. Ab der Bergstation Prodalp gelangen Sie zu Fuss in wenigen Minuten zur Alpenlodge Prod. Mit den Skiern oder dem Snowboard ist die Alpenlodge Prod ebenfalls erreichbar. Die Gruppenunterkunft wird ab 30 Personen vermietet.", "url": "http://www.alpenlodge-prod.ch", "image": "https://hltpimtsoch.sos-ch-dk-2.exoscale-cdn.com/catalog/f/9/f/6/f9f697e5383fe2f636acf091f2d71880279999c0_Alpenlodge_Prod_Flumserberg.jpg", "openstreetmap_id": "way/182243643"}, "geometry": {"type": "Point", "coordinates": ["9.287202358245851", "47.076241500083825"]}}, {"type": "Feature", "properties": {"identifier": "f8816b51-dd9c-46b7-ab35-fec2727d9492", "name": "Goldschmiede Benovici", "description": "Goldschmiedeatelier f\u00fcr Schmuckanfertigung, Reparatur und Uhrenverkauf\nWir fertigen individuellen Schmuck nach Mass, reparieren Ihre Lieblingsst\u00fccke fachgerecht und verwandeln alten Schmuck in neue Unikate. In unserem Atelier in Bad Ragaz finden Sie handgefertigten Schmuck, verschiedene Uhren und eine pers\u00f6nliche Beratung. Mit viel Herz zum Detail bringen wir Ihre Ideen in Form. Ob Verlobungsring, Erbst\u00fcck oder ein Geschenk - bei uns finden Sie f\u00fcr jedes Budget etwas.", "url": "https://www.goldschmiede-benovici.ch", "image": "https://hltpimtsoch.sos-ch-dk-2.exoscale-cdn.com/catalog/4/c/d/d/4cddc05c50cb941fc110086a6abe5aa1ff62d103_Portrait_grizoon.jpg", "openstreetmap_id": "node/10788228196"}, "geometry": {"type": "Point", "coordinates": ["9.5015801", "47.0029988"]}}, {"type": "Feature", "properties": {"identifier": "f9ef10a4-3ce2-4276-9df3-385e8ce58630", "name": "Adventure Golf-Anlage", "description": "Gleich beim Bergrestaurant Prodalp befindet sich die abwechslungsreiche Adventure Golf-Anlage. Hier gleicht keine Bahn der anderen. So spielen sich bei der 12-Loch-Anlage Grosseltern, Eltern und Kinder gleichermassen durch den verwinkelten \u201eMungg\u00e4-Bau\u201c, folgen dem faszinierenden \u201eRohan Rothirsch Erlebnisweg\u201c, erklimmen den \u201eSpitzmeilen\u201c und schiessen den Minigolfball den legend\u00e4ren \u201eFLOOMZER\u201c hinunter.", "url": "https://www.flumserberg.ch/de/informationen/Aktivitaeten/fuer-Abenteuer-Golfer-innen_activity_853", "image": "https://hltpimtsoch.sos-ch-dk-2.exoscale-cdn.com/catalog/3/2/e/f/32ef1d529db095ed2aeaa1356c20708dafaa8407_tkv_bbf_prodalpsommer_0172__52_3361.jpg", "openstreetmap_id": "node/3431838772"}, "geometry": {"type": "Point", "coordinates": ["9.289412498474123", "47.0803694858407"]}}, {"type": "Feature", "properties": {"identifier": "fb02190e-90b1-4f4d-95e5-e627dcb71821", "name": "BikerBerg Flumserberg", "description": "Der BikerBerg Flumserberg bereichert den Sommer im s\u00fcdlichen St. Gallen. So steht im abwechslungsreichen Sommersportgebiet zwischen Z\u00fcrich und Chur ein vielf\u00e4ltiges Bike-Angebot auf dem attraktiven Freizeitprogramm. 13 Kilometer einfache und mittelschwere Trails mit herrlichem Bergpanorama laden zu flowigen Abfahrten ein. Drei SchweizMobil Routen machen MTB-Fans gl\u00fccklich. Der umfangreiche Service von gef\u00fchrten BikerTouren, \u00fcber den BikerCamping bis hin zum Bike-Verleih rundet das einzigartige Erlebnis auf zwei R\u00e4dern ab.\n\nEine Vielfalt, die K\u00f6nner:innen, Einsteiger:innen und Familien gleichermassen zu sch\u00e4tzen wissen.", "url": "https://www.flumserberg.ch/bikerberg", "image": "https://hltpimtsoch.sos-ch-dk-2.exoscale-cdn.com/catalog/3/0/b/4/30b40be3dab7b0d3fc7abc0621a1684711ff15af_BikerBerg_Flumserberg__4.jpg", "openstreetmap_id": "node/3431838772"}, "geometry": {"type": "Point", "coordinates": ["9.2895983", "47.0803081"]}}]}