{"type": "FeatureCollection", "features": [{"type": "Feature", "properties": {"identifier": "56f7aaf2-41a5-4821-ab3d-7394651f2d50", "name": "Walensee", "description": "<p><strong>Eingerahmt von den steilen Churfirsten und charmanten Uferorten ist der Walensee das alpine Fjord des Heidiland &ndash; ideal f&uuml;r spontane Badetage und aktive Ausfl&uuml;ge. </strong></p>\n<p>Am Wasser warten Strandb&auml;der, Liegewiesen und stille Buchten; SUP\u2011 und Kajakverleih, Segeln, Surfen sowie gem&uuml;tliche Schiffsrundfahrten bringen G&auml;ste mitten ins Geschehen. An Land f&uuml;hren der Walensee\u2011Rundweg und aussichtsreiche H&ouml;henwege zu Klassikern wie den Seerenbachf&auml;llen/Betlis und ins autofreie Quinten mit Rebh&auml;ngen, Feigenb&auml;umen und sonnenverw&ouml;hnten Terrassen.</p>\n<p>Familien finden Spielpl&auml;tze, kinderwagentaugliche Uferabschnitte und kurze Rundwege; Geniesser freuen sich auf frischen Fisch und regionale Weine mit Seeblick.</p>\n<p><strong>Unterterzen ist das Tor zum Flumserberg</strong></p>\n<p>Per SeeJet\u2011Gondel geht&rsquo;s in Minuten in die Bergwelt &ndash; im Sommer mit Wanderwegen, Bike\u2011Trails, Sommerrodeln und Kletterangeboten, im Winter zu Pisten, Winterwanderungen und Schlittelspass.</p>\n<p>Dank dichter &Ouml;V\u2011Anbindung (Bahnh&ouml;fe direkt am See) und Schiffsverbindungen lassen sich Wasser\u2011 und Bergerlebnisse flexibel kombinieren &ndash; vom entspannten Spaziergang bis zum aktiven Tag am und auf dem See.&nbsp;</p>", "image": "https://hltpimtsoch.sos-ch-dk-2.exoscale-cdn.com/catalog/a/7/4/3/a743eb72e58b2e89c1ba8a6849c4513fcc8ac722_Badestr__nde_Walensee_Murg.jpg", "openstreetmap_id": "relation/2616502"}, "geometry": {"type": "Point", "coordinates": ["9.219882", "47.1255429"]}}]}