{"type": "FeatureCollection", "features": [{"type": "Feature", "properties": {"identifier": "0025f85a-fdfc-4930-aa06-dc91a956d947", "name": "Pauschale: Unterkunft & Skifahren im Heidiland", "description": "<p data-start=\"364\" data-end=\"612\"><strong data-start=\"364\" data-end=\"396\">Dein Winterabenteuer wartet!</strong><br data-start=\"396\" data-end=\"399\">Buche jetzt deine Winterauszeit mit Unterkunft und Skipass in einem: Ob Hotel oder Ferienwohnung, ob Flumserberg oder Pizol &ndash; bei unseren <strong data-start=\"537\" data-end=\"574\">exklusiven Vorteils-Skipauschalen</strong> ist dein Skipass <strong data-start=\"592\" data-end=\"611\">schon inklusive</strong>!</p><p data-start=\"614\" data-end=\"933\">Nur eine knappe Stunde von Z&uuml;rich oder St. Gallen entfernt, erwarten dich zwei attraktive Wintersportgebiete mit zusammen &uuml;ber <strong data-start=\"741\" data-end=\"758\">115 km Pisten</strong>, modernen Anlagen und bester Aussicht auf die Alpen und den Walensee. Perfekt f&uuml;r Paare, Familien oder Freunde, die unkompliziert und preiswert in den Winter starten m&ouml;chten.</p><h4 data-start=\"988\" data-end=\"1024\"><strong data-start=\"993\" data-end=\"1024\">Hotel-Angebote mit Skipass:</strong></h4><ul data-start=\"1025\" data-end=\"1437\"><li data-start=\"1025\" data-end=\"1133\"><p data-start=\"1027\" data-end=\"1133\">&Uuml;bernachte in einem von &uuml;ber <strong>20</strong><strong data-start=\"1056\" data-end=\"1093\"> ausgew&auml;hlten Hotels</strong> in Bad Ragaz, Pizol, Flumserberg oder Umgebung</p></li><li data-start=\"1134\" data-end=\"1209\"><p data-start=\"1136\" data-end=\"1209\"><strong data-start=\"1136\" data-end=\"1162\">2 bis 7 &Uuml;bernachtungen</strong> mit Fr&uuml;hst&uuml;ck (bzw. Halbpension je nach Hotel)</p></li><li data-start=\"1210\" data-end=\"1310\"><p data-start=\"1212\" data-end=\"1310\"><strong data-start=\"1212\" data-end=\"1236\">2 bis 7 Tage Skipass</strong> f&uuml;r das Skigebiet Flumserberg oder Pizol (entsprechend der Anzahl N&auml;chte)</p></li><li data-start=\"1311\" data-end=\"1378\"><p data-start=\"1313\" data-end=\"1378\">Buchbar w&auml;hrend der <strong data-start=\"1333\" data-end=\"1358\">gesamten Wintersaison</strong></p></li><li data-start=\"1379\" data-end=\"1437\"><p data-start=\"1381\" data-end=\"1437\">Skipass-Ausgabe direkt an der Talstation (gegen Voucher)</p></li></ul><h4 data-start=\"1439\" data-end=\"1476\"><strong data-start=\"1444\" data-end=\"1476\">Ferienwohnungen mit Skipass:</strong></h4><ul data-start=\"1477\" data-end=\"1806\"><li data-start=\"1477\" data-end=\"1564\"><p data-start=\"1479\" data-end=\"1564\">W&auml;hle aus &uuml;ber <strong>42</strong><strong data-start=\"1494\" data-end=\"1527\">&nbsp;charmanten Ferienwohnungen</strong> direkt im Skigebiet oder in der N&auml;he</p></li><li data-start=\"1565\" data-end=\"1630\"><p data-start=\"1567\" data-end=\"1630\">Ideal f&uuml;r Familien oder Gruppen &ndash; mehr Platz, mehr Flexibilit&auml;t</p></li><li data-start=\"1631\" data-end=\"1694\"><p data-start=\"1633\" data-end=\"1694\">Beste Buchungschancen ab <strong data-start=\"1658\" data-end=\"1677\">3 bis 7 N&auml;chten</strong> (je nach Region)</p></li><li data-start=\"1695\" data-end=\"1746\"><p data-start=\"1697\" data-end=\"1746\">Inklusive <strong data-start=\"1707\" data-end=\"1746\">Skipass f&uuml;r den gesamten Aufenthalt</strong></p></li><li data-start=\"1747\" data-end=\"1806\"><p data-start=\"1749\" data-end=\"1806\">Buchbar bis <strong data-start=\"1761\" data-end=\"1782\">1 Tag vor Anreise</strong> &ndash; je nach Verf&uuml;gbarkeit</p></li></ul><h3 data-start=\"2159\" data-end=\"2208\">Inklusive Leistungen (je nach Unterkunft):</h3><ul data-start=\"2210\" data-end=\"2455\"><li data-start=\"2210\" data-end=\"2268\"><p data-start=\"2212\" data-end=\"2268\">2 &ndash; 7 N&auml;chte im Hotel oder der Ferienwohnung deiner Wahl</p></li><li data-start=\"2269\" data-end=\"2319\"><p data-start=\"2271\" data-end=\"2319\">T&auml;glicher <strong data-start=\"2281\" data-end=\"2319\">Skipass f&uuml;r Flumserberg oder Pizol</strong></p></li><li data-start=\"2320\" data-end=\"2374\"><p data-start=\"2322\" data-end=\"2374\">Fr&uuml;hst&uuml;ck oder Halbpension (Hotels, je nach Betrieb)</p></li><li data-start=\"2375\" data-end=\"2395\"><p data-start=\"2377\" data-end=\"2395\">Alle lokalen Taxen</p></li><li data-start=\"2396\" data-end=\"2455\"><p data-start=\"2398\" data-end=\"2455\">Voucher f&uuml;r <strong data-start=\"2410\" data-end=\"2455\">direkte Skipassabholung an der Talstation</strong></p></li></ul><h3 data-start=\"2462\" data-end=\"2504\">Nur bei Heidiland Tourismus buchbar:</h3><p data-start=\"2506\" data-end=\"2728\">Diese Skipauschalen sind <strong data-start=\"2531\" data-end=\"2568\">exklusiv &uuml;ber Heidiland Tourismus</strong> erh&auml;ltlich und <strong data-start=\"2584\" data-end=\"2617\">nicht auf anderen Plattformen</strong> verf&uuml;gbar. Spare dir die separate Skipassbuchung und geniesse einen sorgenfreien Start in deinen Winterurlaub.</p>", "image": "https://hltpimtsoch.sos-ch-dk-2.exoscale-cdn.com/catalog/d/7/3/2/d7324df67aa279cb09d404a775b61d14636d3bcd_Skipauschalen_Heidiland_Cover.jpg"}}, {"type": "Feature", "properties": {"identifier": "0140303a-da57-417d-be41-461f3032cfee", "name": "Eisenbergwerk Gonzen", "description": "Der Hausberg Gonzen t\u00fcrmt sich imposant \u00fcber dem Grafenst\u00e4dtchen Sargans auf. Bereits vor rund 2000 Jahren wurde im Berg das eisenhaltige Gestein entdeckt und abgebaut. Dabei entstand ein Labyrinth von Stollen und Galerien mit einer Gesamtl\u00e4nge von fast 90 Kilometern.\n\nSeit 1983 ist ein kleiner Teil des Bergwerks \u00f6ffentlich zug\u00e4nglich. Am Eingang des Bergwerkes befindet sich ein Restaurant sowie ein Museum. Das Museum befindet sich im hinteren Teil des Restaurants und kann unabh\u00e4ngig von einer F\u00fchrung w\u00e4hrend den \u00d6ffnungszeiten des Restaurants besucht werden.\n\nAngeboten werden verschiedene F\u00fchrungen auf Voranmeldung.", "url": "https://www.bergwerk-gonzen.ch/", "image": "https://hltpimtsoch.sos-ch-dk-2.exoscale-cdn.com/catalog/f/7/6/8/f768bb7ca41d4d4915557f3fd5e2d9c0f3840d3d_homepage_6.jpg", "openstreetmap_id": "way/211902532"}, "geometry": {"type": "Point", "coordinates": ["9.438442221163582", "47.076702350000005"]}}, {"type": "Feature", "properties": {"identifier": "054a29d0-5a2d-412f-9ffc-bedbc6b67d32", "name": "VersuchsStollen Hagerbach", "description": "Eine einzigartige Welt im Berginnern entdecken\n\nEin Team- oder Vereinsausflug geplant?  Dann finden Sie bei uns ein passendes Angebot!\n\nDas ganze Jahr \u00fcber, von Montag bis Samstag, locken im VersuchsStollen Hagerbach diverse Attraktionen. Von informativen F\u00fchrungen \u00fcber Spreng-Demonstrationen voller Action, Motto-Anl\u00e4ssen, bis hin zu Spiel und Spass f\u00fcr gezieltes Team-Building.\n\nGastronomie und Erlebnis unter einem Dach: Unsere Gruppenerlebnisse sind die ideale Erg\u00e4nzung zu Ihrer Feier oder dem Firmenanlass im sch\u00f6nen Restaurant Hagerbach.\n\nBesonders freut uns, dass wir zusammen mit unseren professionellen Partnern im sch\u00f6nen Heidiland und dem unvergleichbaren UNESCO-Welterbe Tektonikarena Sardona, sowohl im Sommer als auch im Winter, begeisternde Aktivit\u00e4ten anbieten k\u00f6nnen.", "url": "https://hagerbach.ch", "image": "https://hltpimtsoch.sos-ch-dk-2.exoscale-cdn.com/catalog/9/d/4/1/9d41c5528ae0e297123579cd2bec29907b3fb019_Tunnelbohrmaschine_Hagerbach.jpg", "openstreetmap_id": "node/7931421830"}, "geometry": {"type": "Point", "coordinates": ["9.389185309410097", "47.076234315591"]}}, {"type": "Feature", "properties": {"identifier": "09a6071e-64f7-4193-93e7-d7ca23f81b80", "name": "Ferienwohnung & Skifahren am Pizol", "description": "<p><span class=\"Apple-style-span\"><strong>Top-Angebot und nur &uuml;ber Heidiland Tourismus buchbar:</strong>&nbsp;w&auml;hrend der ganzen Wintersaison ist bei einem Aufenthalt ab 2 - 7 N&auml;chten der Skipass inklusive.</span><br><br>Nur knapp eine Stunde von Z&uuml;rich und St. Gallen entfernt, erlebst du am Pizol Winter pur. Geniesse ein paar Tage im vielseitigen Wintersportgebiet mit 12 Anlagen und 50 km Pisten. In Verbindung mit zwei bis sieben &Uuml;bernachtungen direkt im Skigebiet oder in Bad Ragaz und Umgebung ist der Skipass inbegriffen.<br><br><span class=\"Apple-style-span\">Inkludierte Leistungen:<br></span></p><ul><li>10 speziell ausgew&auml;hlte Ferienwohnungen stehen dir zur Verf&uuml;gung</li><li>2 - 7 &Uuml;bernachtungen in der Ferienwohnung deiner Wahl</li><li>Beste Buchungschance: 4 - 7 N&auml;chte, bei 7 N&auml;chten Sa. - Sa.</li><li>2 - 7 Tage Skipass f&uuml;r das Skigebiet Pizol (g&uuml;ltig an gleich vielen Tagen wie N&auml;chte gebucht)</li><li>allf&auml;llige Taxen</li></ul><p><br><span class=\"Apple-style-span\">Konditionen:<br></span></p><ul><li>buchbar w&auml;hrend der ganzen Wintersaison</li><li>bis 1 Tag vor Anreise buchbar</li><li>g&uuml;ltig nach Verf&uuml;gbarkeit (beste Buchungschance: 4 - 7 N&auml;chte, bei 7 N&auml;chten Sa. - Sa.)</li><li>das Skiticket erh&auml;ltst du an der Talstation Wangs oder Bad Ragaz gegen Vorweisen deines Vouchers (bitte mitbringen)</li></ul>", "image": "https://hltpimtsoch.sos-ch-dk-2.exoscale-cdn.com/catalog/f/4/b/5/f4b5a6e9c632fec41036126e17b4232f252b16b6_Titelbild_Landingpage_Pizol.jpg"}}, {"type": "Feature", "properties": {"identifier": "14c015a9-da45-4f29-89f8-85f912b1898f", "name": "Hotelpauschalen im Heidiland", "description": "<p>Erlebe unvergessliche <strong data-start=\"632\" data-end=\"664\">Hotelpauschalen im Heidiland</strong>, die von Wellness und Genuss bis zu Familienabenteuern reichen.</p>\n<p data-start=\"352\" data-end=\"659\">Du hast die Wahl zwischen Hotels in unterschiedlichen Lagen &ndash; von den Bergen am Flumserberg oder Pizol bis hin zu den Thermal- und Genussorten wie Bad Ragaz oder den Erlebnisangeboten in Maienfeld.</p>\n<p data-start=\"661\" data-end=\"919\">Die Pauschalen beinhalten je nach Angebot &Uuml;bernachtungen mit Fr&uuml;hst&uuml;ck oder Halbpension sowie erg&auml;nzende Leistungen, die deinen Aufenthalt abrunden. Dazu k&ouml;nnen beispielsweise Thermeneintritte, kulinarische Elemente oder saisonale Freizeitangebote geh&ouml;ren.</p>\n<p data-start=\"921\" data-end=\"1298\">Die Buchung ist saisonal m&ouml;glich und bietet dir passende Optionen f&uuml;r verschiedenste Bed&uuml;rfnisse &ndash; egal, ob du aktive Tage im Schnee oder in der Natur planst, erholsame Wellnessmomente suchst oder gemeinsame Zeit mit der Familie verbringen m&ouml;chtest. So kombinierst du Unterkunft und Zusatzleistungen in einem Paket und gestaltest deinen Aufenthalt unkompliziert und flexibel.</p>", "image": "https://hltpimtsoch.sos-ch-dk-2.exoscale-cdn.com/catalog/2/7/1/5/27157b6fc02d9364358f8e501886829db47b7163_medium__Schlaf_fass.jpg"}}, {"type": "Feature", "properties": {"identifier": "265154f8-2b4e-4253-a22e-6b52a04888d5", "name": "Schneeschuhtouren", "description": "<p>Die Ferienregion Heidiland bietet eine Vielzahl an signalisierten Schneeschuhtouren f&uuml;r jedes Niveau. Von der Einsteigertour auf Sch&ouml;nhalden bis zur Panorama-Route am Flumserberg oder Pizol &ndash; jede Tour verspricht ein intensives Naturerlebnis abseits der Pisten. Die Routen sind pink markiert und f&uuml;hren durch verschneite Landschaften mit Blick auf die Churfirsten und das Sarganserland.</p><p>Im Tourenportal <a class=\"fui-Link ___w5et180 f2hkw1w f3rmtva f1ewtqcl fyind8e f1k6fduh f1w7gpdv f1mo0ibp fjoy568 ff5ikls f1s184ao f1mk8lai fnbmjn9 f1o700av f13mvf36 f1cmlufx f9n3di6 f1ids18y f1tx3yz7 f1deo86v f1eh06m1 f1iescvh fhgqx19 f1olyrje f1p93eir f1nev41a\" tabindex=\"0\" href=\"https://outdoor.heidiland.com/mobile/de/liste/signalisierte-schneeschuh-touren-im-heidiland/256613296/\" target=\"_blank\" rel=\"noopener noreferrer\" data-tabster=\"{&quot;restorer&quot;:{&quot;type&quot;:1}}\">outdoor.heidiland.com</a> findest du alle Touren mit Karte, H&ouml;henprofil, GPX-Daten und aktuellen Bedingungen. Ob du alleine losziehst oder dich einer gef&uuml;hrten Tour anschliesst &ndash; Schneeschuhwandern im Heidiland ist entschleunigend, gesund und &uuml;berraschend vielseitig.</p>", "image": "https://hltpimtsoch.sos-ch-dk-2.exoscale-cdn.com/catalog/a/b/3/b/ab3b8458d9213a220b37f14e1b64337ec7b05f8a_PIM_Bild_Schneeschuhlaufen.png"}}, {"type": "Feature", "properties": {"identifier": "2db8748e-2dd8-448b-a955-c356b0acaade", "name": "Pauschale: BikerSpass am Flumserberg", "description": "<p><strong>Top-Angebot am BikerBerg: W&auml;hrend 2 Tagen die mega flowigen Biketrails erkunden und 2 N&auml;chte lang den Service eines zertifizierten Bikehotels geniessen. </strong></p><p>Nur knapp eine Stunde von Z&uuml;rich und St. Gallen entfernt, erlebst du am BikerBerg Flumserberg puren Bike-Spass. Geniesse zwei Tage auf den 4 flowigen Bike-Trails. In diesem Angebot ist neben zwei &Uuml;bernachtungen im Bikehotel am Flumserberg, in Unterterzen, Quarten, Mols oder in Bad Ragaz eine 2-Tageskarte inkl. Biketransport am BikerBerg inklusive.</p><p><strong>Inkludierte Leistungen:&nbsp;</strong></p><ul><li>Div. zertifizierte Bikehotels stehen dir zur Verf&uuml;gung</li><li>2 &Uuml;bernachtungen (inkl. Fr&uuml;hst&uuml;ck) in der gew&auml;hlten Zimmerkategorie im Hotel deiner Wahl</li><li>2-Tageskarte Bike</li><li>allf&auml;llige Taxen</li></ul><p><strong>Konditionen:</strong></p><ul><li>buchbar w&auml;hrend der ganzen Sommersaison (ab Juni bis Oktober)</li><li>bis 1 Tag vor Anreise buchbar</li><li>g&uuml;ltig nach Verf&uuml;gbarkeit</li><li>die 2-Tageskarte Bike erh&auml;ltst du an der Talstation in Unterterzen (Seejet), Flumserberg Tannenheim oder Flumserberg Tannenbodenalp gegen Vorweisen deines Vouchers (bitte mitbringen)</li></ul>", "image": "https://hltpimtsoch.sos-ch-dk-2.exoscale-cdn.com/catalog/0/5/0/d/050d6a068e32ad2c731bd2764765d3e0d72b910f_large__BikerBerg_Flumserberg.jpg"}}, {"type": "Feature", "properties": {"identifier": "4683b517-49e8-47f4-879b-00e788ab2962", "name": "Ferienwohnung & Skifahren am Flumserberg", "description": "<p><span class=\"Apple-style-span\"><strong>Top-Angebot und nur &uuml;ber Heidiland Tourismus buchbar:</strong> w&auml;hrend der ganzen Wintersaison ist bei einem Aufenthalt ab 2 - 7 N&auml;chten der Skipass inklusive.</span><br><br>Nur knapp eine Stunde von Z&uuml;rich und St. Gallen entfernt, erlebst du am Flumserberg Winter pur. Geniesse ein paar Tage im vielseitigen Wintersportgebiet mit 17 Anlagen und 65 km Pisten. In Verbindung mit zwei bis sieben &Uuml;bernachtungen direkt im Skigebiet ist der Skipass inbegriffen.<br><br><span class=\"Apple-style-span\">Inkludierte Leistungen:<br></span></p><ul><li>32 speziell ausgew&auml;hlte Ferienwohnungen stehen dir zur Verf&uuml;gung</li><li>2 - 7 &Uuml;bernachtungen in der Ferienwohnung deiner Wahl</li><li>Beste Buchungschance: 3 - 7 N&auml;chte, bei 7 N&auml;chten Sa. - Sa.</li><li>2 - 7 Tage Skipass f&uuml;r das Skigebiet Flumserberg (g&uuml;ltig an gleich vielen Tagen wie N&auml;chte gebucht)</li><li>allf&auml;llige Taxen</li></ul><p><br><span class=\"Apple-style-span\">Konditionen:</span></p><ul><li>buchbar w&auml;hrend der ganzen Wintersaison&nbsp;</li><li>bis 1 Tag vor Anreise buchbar</li><li>g&uuml;ltig nach Verf&uuml;gbarkeit (beste Buchungschance: 3 - 7 N&auml;chte, bei 7 N&auml;chten Sa. - Sa.)</li><li>das Skiticket erh&auml;ltst du an der Talstation in Unterterzen (SeeJet), Flumserberg Tannenheim oder Flumserberg Tannenbodenalp gegen Vorweisen deines Vouchers (bitte mitbringen)</li></ul>", "image": "https://hltpimtsoch.sos-ch-dk-2.exoscale-cdn.com/catalog/c/e/3/c/ce3c89c244e6046d63216241ec26259173942a48_large_Flumserberg_Skipauschale.jpg"}}, {"type": "Feature", "properties": {"identifier": "4b037231-a607-4f9c-bfbe-ceea37dbcf6b", "name": "Bikerouten", "description": "<p data-start=\"498\" data-end=\"729\">Heidiland bietet dir unz&auml;hlige M&ouml;glichkeiten, die Region mit dem Velo oder E-Bike zu entdecken. Von genussvollen Talfahrten bis zu sportlichen Mountainbike-Strecken findest du im Outdoor-Portal die passende Tour f&uuml;r jedes Niveau.</p>\n<p data-start=\"731\" data-end=\"1048\">Alle Bikerouten sind &uuml;bersichtlich beschrieben und beinhalten Infos zu L&auml;nge, H&ouml;henmetern, Untergrund, Schwierigkeitsgrad und Highlights entlang der Strecke. Viele Touren f&uuml;hren durch malerische Landschaften, vorbei an Bergseen, Alpen und Aussichtspunkten &ndash; ideal f&uuml;r alle, die Natur und Bewegung verbinden m&ouml;chten.</p>\n<p data-start=\"1050\" data-end=\"1261\">Ob du auf genussvolle Kilometer aus bist oder deine Technik auf Singletrails testen willst &ndash; hier findest du deine n&auml;chste Tour. Lade dir die GPX-Daten direkt herunter und starte dein Bikeabenteuer in Heidiland!</p>", "image": "https://hltpimtsoch.sos-ch-dk-2.exoscale-cdn.com/catalog/c/9/1/9/c9198076098b012516816eb5b80cc3f929f74055_PIM_Bild_Bikerouten.png"}}, {"type": "Feature", "properties": {"identifier": "551e7686-0043-4e4d-a57e-e1253bca3dc8", "name": "Kneippanlage Sargans mit Kr\u00e4utergarten", "description": "In Sargans liegt die Wassertret- und Armbadanlage des Kneippvereins Sarganserland unterhalb des Schlosses direkt bei der Spleekapelle mit sch\u00f6nem Rundumblick Richtung F\u00fcrstentum Liechtenstein und B\u00fcndner Herrschaft. Instruktionstafeln leiten die Besucher an und zeigen, was es beim Kneippen zu beachten gilt. Ein gepflegter Garten mit beschrifteten Kr\u00e4utern bereichert die sch\u00f6ne Anlage, welche sich ideal zur Entspannung und Erfrischung nach einer Wanderung anbietet.", "url": "https://www.kneipp.ch", "image": "https://hltpimtsoch.sos-ch-dk-2.exoscale-cdn.com/catalog/7/8/8/2/7882146f7d0fafeeefc8190358bb775a280264e7_DSC00225__3___2.jpg", "openstreetmap_id": "node/560479165"}, "geometry": {"type": "Point", "coordinates": ["9.439567532638982", "47.048750150000004"]}}, {"type": "Feature", "properties": {"identifier": "6be4b35b-090d-42f1-a202-afcd3580677f", "name": "Hotel & Skifahren am Pizol", "description": "<p><span class=\"Apple-style-span\"><strong>Top-Angebot und nur &uuml;ber Heidiland Tourismus buchbar:</strong>&nbsp;w&auml;hrend der ganzen Wintersaison ist bei einem Aufenthalt ab 2 - 7 N&auml;chten der Skipass inklusive.</span><br><br>Nur knapp eine Stunde von Z&uuml;rich und St. Gallen entfernt, erlebst du am Pizol Winter pur. Geniesse ein paar Tage im vielseitigen Wintersportgebiet mit 12 Anlagen und 50 km Pisten. In Verbindung mit zwei bis sieben &Uuml;bernachtungen direkt im Skigebiet oder in Bad Ragaz und Umgebung ist der Skipass inbegriffen.<br><br><span class=\"Apple-style-span\">Inkludierte Leistungen:</span></p><ul><li>10 speziell ausgew&auml;hlte Hotels stehen dir zur Verf&uuml;gung</li><li>2 - 7 &Uuml;bernachtungen (inkl. Fr&uuml;hst&uuml;ck*) in der gew&auml;hlten Zimmerkategorie im Hotel deiner Wahl</li><li>2 - 7 Tage Skipass f&uuml;r das Skigebiet Pizol (g&uuml;ltig an gleich vielen Tagen wie N&auml;chte gebucht)</li><li>allf&auml;llige Taxen</li></ul><p>* Berghotel Gaffia und Zanuz inkl. Halbpension</p><p><span class=\"Apple-style-span\">Konditionen:</span></p><ul><li>buchbar w&auml;hrend der ganzen Wintersaison&nbsp;</li><li>bis 1 Tag vor Anreise buchbar</li><li>g&uuml;ltig nach Verf&uuml;gbarkeit</li><li>das Skiticket erh&auml;ltst du an der Talstation Wangs oder Bad Ragaz gegen Vorweisen deines Vouchers (bitte mitbringen)</li></ul>", "image": "https://hltpimtsoch.sos-ch-dk-2.exoscale-cdn.com/catalog/c/1/d/d/c1dd7c8d482f1427c880bdfc681b08b2a7efaed2_large__Winter_Pizolbahnen_2023__5___1_.jpg"}}, {"type": "Feature", "properties": {"identifier": "6ff4d970-c422-444d-8a7b-03d132e0f38b", "name": "SUP-Verleih in der sagilounge am See", "description": "Stand-up Paddling auf dem Walensee \u2013 ein wunderbares Erlebnis!\n\nUnser Angebot: Stunden- oder tageweise Vermietung von SUPs und Riesen-SUPs (f\u00fcr Gruppen bis 10 Personen) inklusive Paddles, Schwimmwesten, Leashes & kurzer Einf\u00fchrung durch unser Personal.\n\n---\n\nLust auf einen sportlichen Ausflug auf den See? Mieten Sie ein Kanu (f\u00fcr 2-3 Erwachsene oder 2 Erwachsene & 2 Kinder) oder Kajak (f\u00fcr eine erwachsene Person) und erleben Sie den See von seiner sch\u00f6nsten Seite.\n\nUnser Angebot: Stunden- oder tageweise Vermietung von Kanus und Kajaks \u2013 nur auf Voranmeldung. Kanu-/Kajak-Erfahrung w\u00fcnschenswert. Inklusive Paddles und Schwimmwesten sowie kurzer Einf\u00fchrung durch unser Personal.\n\n---\n\nSie m\u00f6chten den Walensee auf dem Motorboot entdecken?\nUnser Angebot: Motorbootmiete f\u00fcr bis zu 10 Personen, mit oder ohne Kapit\u00e4n \u2013 nur auf Voranmeldung. Die Ausgabe und R\u00fccknahme des Boots findet bei der Anlegestelle im sagisteg statt.\n\nAuf Anfrage k\u00f6nnen wir Ihnen auch Wakeboarding, Wasserski, etc. als Option anbieten. Bei der Nutzung des Boots f\u00fcr diese Aktivit\u00e4ten ist die maximale Personenanzahl auf 6 beschr\u00e4nkt.", "url": "https://www.sagibeiz.ch/", "image": "https://hltpimtsoch.sos-ch-dk-2.exoscale-cdn.com/catalog/f/b/0/7/fb073c80c47b5417813818e4074356322bd8d305_Wassersport_lofthotel_sagibeiz__1_.jpg", "openstreetmap_id": "node/418190201"}, "geometry": {"type": "Point", "coordinates": ["9.2191277", "47.1131596"]}}, {"type": "Feature", "properties": {"identifier": "7944f9ad-ab6c-4fa4-a055-472e19a2ab69", "name": "Swiss Helicopter AG", "description": "<p>Als f\u00fchrende Helikopterfirma bieten wir zuverl\u00e4ssige, sichere und professionelle Dienstleistungen. Unser erfahrenes Team nutzt moderne Technologien und engagiert sich f\u00fcr Nachhaltigkeit und kontinuierliche Verbesserung \u2013 f\u00fcr Ihre Zufriedenheit und eine sichere Zukunft.</p>", "image": "https://hltpimtsoch.sos-ch-dk-2.exoscale-cdn.com/catalog/b/a/d/3/bad361c5ef3cee151a989b94cfdd854bb2a4b4b3__A859744.jpg", "openstreetmap_id": "node/11887318195"}, "geometry": {"type": "Point", "coordinates": ["9.5511007", "46.9131752"]}}, {"type": "Feature", "properties": {"identifier": "7b7874ad-6150-4387-a39f-8630e646ed28", "name": "Gleitschirm Tandemfliegen im Heidiland", "description": "Du m\u00f6chtest gern wie ein Vogel durch die L\u00fcfte schweben und das sch\u00f6ne Heidiland von oben sehen? Ein Gleitschirm Tandemflug macht&#039;s m\u00f6glich. Ivo Gr\u00fcnenfelder mit seinem Team von Chicken Wings Paragliding freut sich seine langj\u00e4hrigen Erfahrungen mit dir zu teilen. Ausgezeichnete Piloten bereiten Dir ein Erlebnis der Extra-Klasse.\nGeflogen wird haupts\u00e4chlich vom Pizol, Flumserberg-Maschgenkamm-Prodkamm und Walenstadtberg-Schrina. Am herrlichen Pizol, der im Winter wie Sommer ein beliebtes Skigebiet/Wander und Gleitschirm Fluggebiet ist, hat man die M\u00f6glichkeit gleich mehrere Startpl\u00e4tze auszuw\u00e4hlen. Je nach Wind wird dein Pilot mit dir die Gondelbahn in Bad Ragaz nehmen und bis zur Bergstation Laufb\u00f6den fahren. Oder ihr entschlie\u00dft euch f\u00fcr den Wangserberg wo man dann von der Pizolh\u00fctte einen atemberaubenden Blick ins Heidiland hat. Nach nur wenigen Schritten kannst du dir ein herzerw\u00e4rmendes Bild deiner Wohn-oder Ferienregion von oben machen. \n\nVorkenntnisse sind keine n\u00f6tig. Und da wir sanft ins Tal gleiten und nicht vom Berg springen ist auch H\u00f6henangst absolut kein Hindernis.\nIm Winter ben\u00f6tigst du lediglich eine Skihose, eine warme Jacke und gute Schuhe. Die restliche Ausr\u00fcstung wird dir von Chicken Wings gestellt. Somit steht deinem Abenteuer nichts mehr im Wege. Wir k\u00f6nnen Gruppen bis 20 Personen empfangen.\n\nDas Chicken Wings Team freut sich auf Dich!", "url": "http://www.chickenwings.ch", "image": "https://hltpimtsoch.sos-ch-dk-2.exoscale-cdn.com/catalog/2/d/3/6/2d3618c8fda53b34b14167976a094a101d470952_220713_161729.JPG", "openstreetmap_id": "way/319291413"}, "geometry": {"type": "Point", "coordinates": ["9.441555312303231", "47.027426893364144"]}}, {"type": "Feature", "properties": {"identifier": "8f612329-bbe7-4d90-8547-00017d89f8ad", "name": "Heididorf Maienfeld", "description": "<p>Besuchen Sie das Heididorf in Maienfeld, den Originalschauplatz der weltbekannten Heidi-Geschichte.</p><p>Der friedliche Weiler beherbergt das Original Heidihaus, das Wohnhaus mit der Einrichtung wie zu Heidis Zeiten, Heidis Alph&uuml;tte, die Nachbildung vom liebevollen Zuhause von Alp&ouml;hi, die Ausstellung Johanna Spyris Heidiwelt sowie die Dorfschule von Heidi aus dem Jahr 1880. Im D&ouml;rfli warten bereits Heidis Tiere und im Dorfladen mit Souvenirs befindet sich die kleinste Poststelle der Schweiz mit dem Heididorf-Sonderstempel.</p><p>Im Heididorf lebt auch alles, zum Teil fast vergessenes Handwerk wieder auf. Heidi begeistert seit Jahrzehnten Kinder in aller Welt und l&auml;sst auch Erwachsenenherzen h&ouml;herschlagen. Trotz internationalen Auftritten in B&uuml;chern, Musicals, Zeichentrickserien und Filmen hat unser Heidi seine Wurzeln nicht vergessen. Denn nirgends auf der Welt ist Heidis Aura und Pers&ouml;nlichkeit sp&uuml;rbarer als im Heididorf - dem Original Spielort der weltber&uuml;hmten Heidi-Geschichte. Entdecken Sie die weltbekannte Geschichte &bdquo;Heidi&ldquo; von Johanna Spyri im authentischen Heididorf, inmitten einer imposanten Bergwelt.</p><p>Im Heididorf oberhalb von Maienfeld erleben Sie eine emotionale Zeitreise zur&uuml;ck in die Schweizer Bergwelt des sp&auml;ten 19. Jahrhundert und erfahren Sie wie Heidi lebte. Heidi - Ein Kind bewegt die Welt.</p>", "url": "http://www.heididorf.ch", "image": "https://hltpimtsoch.sos-ch-dk-2.exoscale-cdn.com/catalog/8/9/3/d/893de8544c356eada2be97056291479fea346dd6_Fotopoint_Heidihaus_Rolf_Mutzner.jpg", "openstreetmap_id": "node/1391377542"}, "geometry": {"type": "Point", "coordinates": ["9.5451067", "47.0132367"]}}, {"type": "Feature", "properties": {"identifier": "92c38ce8-3c54-4f95-80c4-15a5610aa6bc", "name": "Steinbruch Lochezen", "description": "<p>Das Areal Lochezen bei Walenstadt umfasst 217'800 m\u00b2 mit Geb\u00e4uden, Wohnungen, Naturfl\u00e4chen und einem ehemaligen Steinbruch. Die Geobrugg AG testet dort moderne Steinschlagnetze. Die Ortsgemeinde hat die historische Bedeutung des Steinbruchs aufgearbeitet und bietet spannende F\u00fchrungen an. Besucher erleben Stollen, Kavernen und Relikte des ehemaligen Kalk- und Zementabbaus sowie ein unterirdisches Milit\u00e4rspital aus dem Zweiten Weltkrieg. Die F\u00fchrungen dauern rund 2,5 bis 3 Stunden, erfordern festes Schuhwerk und warme Kleidung, und kosten ab CHF 300.\u2013 pro Gruppe.</p>", "url": "https://www.ortsgemeinde-walenstadt.ch/oeffentlichkeit/steinbruch-lochezen/", "image": "https://hltpimtsoch.sos-ch-dk-2.exoscale-cdn.com/catalog/4/f/3/e/4f3e7941f3f34c82fc22960fdaf8b166d6095ffc_import_249.JPG"}, "geometry": {"type": "Point", "coordinates": ["9.292452", "47.1287912"]}}, {"type": "Feature", "properties": {"identifier": "9c5fbf1f-d077-4565-85cd-cc74e89b9faf", "name": "Gleitschirmfliegen am Flumserberg", "description": "Das Fluggebiet des Gleitschirmclubs Spitzmeilen (GCS) umfasst die Flumserberge und Sch\u00f6nhalden (Kleinberg) in Flums. Zu den Startpl\u00e4tzen geh\u00f6ren Prodkamm (NO\u2013W), Maschgenkamm (W\u2013NW und S\u2013SO) sowie Sch\u00f6nhalden (NO).\n\nPiloten und Pilotinnen, die Start- und oder Landepl\u00e4tze des GCS benutzen, ben\u00f6tigen eine Jahres- oder Tagesvignette. Dies muss irgendwo sichtbar aufgeklebt werden. \nDie Tageskarte kostet CHF 8.00, die Jahreskarte CHF 30.00. \nWeitere Informationen unter: www.gc-spitzmeilen.ch/fluggebiet\n\nFlugschulen und Siku-Veranstalter, die im Fluggebiet des GCS schulen m\u00f6chten, sind willkommen. \nAlle Sch\u00fclerinnen und Sch\u00fcler m\u00fcssen ebenfalls im Besitz einer g\u00fcltigen Tages- oder Jahresvignette sein.\n\nJeden zweiten Sommer findet das mehrt\u00e4gige Flugfest des GCS statt \u2013 ein Erlebnis f\u00fcr Gross und Klein, Piloten und Besucher. \nWeitere Informationen sowie aktuelle Meteodaten, Tarife, Gefahrenhinweise, Tipps und News findest du auf den Informationstafeln bei den Landepl\u00e4tzen und auf der Webseite des GCS: www.gc-spitzmeilen.ch", "url": "https://www.gc-spitzmeilen.ch", "image": "https://hltpimtsoch.sos-ch-dk-2.exoscale-cdn.com/catalog/6/a/a/b/6aabdbaef32f586ea4b891bf2800887e85e1dbb4_im_landeanflug.JPG"}, "geometry": {"type": "Point", "coordinates": ["9.341813", "47.0907098"]}}, {"type": "Feature", "properties": {"identifier": "a851bf5f-702b-4bc5-986e-56f0abc5fdd9", "name": "Wein & ALTER TORKEL", "description": "<ul><li><div>Gef&uuml;hrte Weintour durch die B&uuml;ndner Herrschaft (inkl. Transport)</div></li><li><div>Besuch von Rebbergen und einem ausgew&auml;hlten Weingut</div></li><li><div>Einf&uuml;hrung in Reben, Terroir und Weinherstellung</div></li><li><div>Gef&uuml;hrte Weinverkostung mit regionalen Spezialit&auml;ten</div></li><li><div>4\u2011Gang\u2011Weindegustationsmen&uuml; im Alten Torkel in Jenins</div></li></ul><div><div><p>Ein&nbsp;<strong>privater Wine Guide</strong>&nbsp;von&nbsp;<strong><a href=\"https://heidiland.com/map/poi/weintouren-in-der-bundner-herrschaft-24949152-444a-4556-bdce-e1188ec98f8a.html\" target=\"_blank\" rel=\"noopener\">Wine Tours Switzerland&nbsp;</a></strong>holt dich am Nachmittag beim&nbsp;<strong>Alten Torkel in Jenins</strong>&nbsp;oder an einem vereinbarten Ort in der Region ab. W&auml;hrend der Fahrt durch die D&ouml;rfer der<strong>&nbsp;B&uuml;ndner Herrschaft&nbsp;</strong>erh&auml;ltst du Einblicke in die Geschichte der Region, die Herkunft des&nbsp;<strong>B&uuml;ndner Pinot Noirs</strong>&nbsp;und das besondere Terroir.&nbsp;In den Rebbergen erf&auml;hrst du mehr &uuml;ber die Arbeiten im Wingert. Auf einem ausgesuchten Weingut wirst du in die&nbsp;<strong>Geheimnisse der Weinbereitung</strong>&nbsp;eingef&uuml;hrt und besuchst einen historischen Weinkeller. Die gef&uuml;hrte Degustation wird von B&uuml;ndner Trockenfleischspezialit&auml;ten und K&auml;se aus den umliegenden Alpen begleitet.&nbsp;Den Abschluss bildet das Abendessen im&nbsp;<strong><a href=\"https://heidiland.com/map/poi/alter-torkel-huus-vom-bundner-wii-d01f1d76-227d-4594-b23e-9a5319a5f8fb.html\" target=\"_blank\" rel=\"noopener\">Alten Torkel in Jenins</a></strong>. Dort geniesst du ein saisonales&nbsp;<strong>4\u2011Gang\u2011Weindegustationsmen&uuml;</strong>&nbsp;mit sorgf&auml;ltig abgestimmten&nbsp;<strong>Weinen aus der B&uuml;ndner Herrschaft</strong>. Anschliessend wirst du zur&uuml;ck zu deinem Hotel oder zu einem Bahnhof in der Region gebracht.</p></div></div>", "image": "https://hltpimtsoch.sos-ch-dk-2.exoscale-cdn.com/catalog/d/2/b/1/d2b12453a3f378f03f4a8d11d8516af15eecf374_large__Rheinwelten_Alter_Torkel__15_.jpg"}}, {"type": "Feature", "properties": {"identifier": "afa9e681-18f7-44f0-a1c6-5ece6facf2b8", "name": "Mountaincarts", "description": "Auf der rund 2200m langen Strecke zwischen den Stationen Gaffia und Furt kann die aufregende und kurvenreiche Naturstrasse befahren werden. Dank des tiefen Schwerpunkts und einem breiten Radstand, verf\u00fcgen die Mountaincarts \u00fcber eine hohe Stabilit\u00e4t. Ohne Motor und aus reiner Schwerkraft angetrieben, kann selbst bestimmt werden in welchem Tempo die Fahrt aufgenommen werden soll. Die Sicherheit steht jedoch auch bei uns stets an erster Stelle. Bitte beachten Sie hierzu stets unsere Verhaltensregeln sowie die Allgemeinen Gesch\u00e4ftsbedingungen.\n\nDas alpine Fahrvergn\u00fcgen auf der abwechslungsreichen Bergstrecke (Alpstrasse) ist garantiert und stellt ein besonderes, nicht allt\u00e4gliches Erlebnis dar.", "url": "https://pizol.com/sommer-erleben/mountaincarts?lang=de_CH", "image": "https://hltpimtsoch.sos-ch-dk-2.exoscale-cdn.com/catalog/0/1/7/c/017c4c8e3773f74871652990f9c1afc8567c0156_DSC_0756.JPG", "openstreetmap_id": "node/8329807784"}, "geometry": {"type": "Point", "coordinates": ["9.412794113159181", "46.990965010245155"]}}, {"type": "Feature", "properties": {"identifier": "b187ab79-25d8-4a46-9d1c-bc590d7150f8", "name": "Relax.Oase im Hotel Schloss Ragaz", "description": "&#60;p>Unsere gem\u00fctliche Relax.oase im Schlosspark ist der perfekte Ort, um Ruhe zu finden und zu entspannen. Umgeben von der Natur k\u00f6nnen Sie hier eine Auszeit vom Alltag geniessen. Entspannen Sie in der Sauna, im Dampfbad oder bei einer wohltuenden Massage. Wir freuen uns auf Ihren Besuch und bieten Ihnen eine erholsame Zeit. relax.oase mit 300m2 Finnische Blockhaussauna im Aussenbereich, Dampf- und Aromab\u00e4der, Softsauna, Erlebnisduschen, Einzelwhirlpool, Ruheraum und Aussenpool (Mai bis Oktober).&#60;/p>", "url": "https://www.hotelschlossragaz.ch/de/", "image": "https://hltpimtsoch.sos-ch-dk-2.exoscale-cdn.com/catalog/b/f/1/a/bf1a4a3386a4ee9c269a1aa3496c553e3ee957af_Pool.jpg"}, "geometry": {"type": "Point", "coordinates": ["9.510233402252199", "46.99709963974352"]}}, {"type": "Feature", "properties": {"identifier": "b27984da-d2a6-41ad-8efc-139669dc2323", "name": "Naturerlebnis im Weisstannental", "description": "<ul><li><span lang=\"DE-CH\">Gef&uuml;hrte Winterwanderung im Weisstannental</span></li><li><span lang=\"DE-CH\">Faszinierende Einblicke in Natur, Tierwelt und Geschichte des ehemaligen Walsertals</span></li><li><span lang=\"DE-CH\">Eindrucksvolle Ausblicke auf den Foostock im UNESCO-Weltnaturerbe Tektonikarena Sardona</span></li><li><span lang=\"DE-CH\">Entdeckung des historischen Bergdorfs Weisstannen auf &uuml;ber 1&rsquo;000 m &uuml;. M.</span></li><li><span lang=\"DE-CH\">Gem&uuml;tliche Einkehr im stilvollen, jahrhundertealten Gasthof</span></li></ul><p><span lang=\"DE-CH\"><span lang=\"DE-CH\">Begleitet von einem ortskundigen und&nbsp;<strong>ausgebildeten Guide</strong>&nbsp;der&nbsp;<strong><a href=\"https://bergtraeume.ch/\" target=\"_blank\" rel=\"noopener\">Bergtr&auml;ume GmbH&nbsp;</a></strong>ziehst du deine Spuren durch tief&nbsp;<strong>verschneite W&auml;lder</strong>&nbsp;und offene Alpfl&auml;chen. Unterwegs erf&auml;hrst du&nbsp;<strong>Spannendes &uuml;ber</strong>&nbsp;die&nbsp;<strong>Natur,&nbsp;</strong>die&nbsp;<strong>Tierwelt</strong>&nbsp;und die&nbsp;<strong>Geschichte dieses ehemaligen Walsertals</strong>. Mit etwas Gl&uuml;ck zeigen sich&nbsp;<strong>Hirsche</strong>,&nbsp;<strong>F&uuml;chse&nbsp;</strong>oder&nbsp;<strong>Wasseramseln</strong>. Die Route f&uuml;hrt vorbei an rauschenden&nbsp;<strong>Bergb&auml;chen</strong>, alten&nbsp;<strong>Bergbauernh&ouml;fen&nbsp;</strong>und bietet eindrucksvolle Ausblicke auf den&nbsp;<strong>Foostock&nbsp;</strong>&ndash; Teil des&nbsp;<a href=\"https://heidiland.com/erleben/ausfluege-sehenswuerdigkeiten/natur/unesco-welterbe-sardona.html\" target=\"_blank\" rel=\"noopener\"><strong>UNESCO-Weltnaturerbes Tektonikarena Sardona</strong></a><br></span><span lang=\"DE-CH\">Entdecke w&auml;hrend der Tour das&nbsp;<strong>historische Bergdorf Weisstannen</strong>&nbsp;auf &uuml;ber 1&rsquo;000 Metern &uuml;ber Meer. Hier scheint die Zeit stillzustehen: wettergegerbte&nbsp;<strong>Holzh&auml;user</strong>, traditionelle&nbsp;<strong>Handwerksobjekte&nbsp;</strong>und gelebte alpine Kultur pr&auml;gen das Dorfbild. Zum Abschluss geniesst du eine wohlverdiente&nbsp;<strong>Einkehr&nbsp;</strong>(Konsumation nicht im Preis inbegriffen)<strong>&nbsp;</strong>im stilvollen, jahrhundertealten&nbsp;<strong>Gasthof&nbsp;</strong>mit Ambiente aus der&nbsp;<strong>Belle &Eacute;poque</strong>&nbsp;und dem&nbsp;<strong>Biedermeier.</strong></span></span></p>", "image": "https://hltpimtsoch.sos-ch-dk-2.exoscale-cdn.com/catalog/9/4/6/0/94604008f6a36d6a361204a56b29d3b072f3cc2d_20250116_143048.jpg"}}, {"type": "Feature", "properties": {"identifier": "b80ab185-3981-459b-894f-8fe4b244001f", "name": "von Salis Tour", "description": "<ul><li>Gef&uuml;hrte Weintour durch die B&uuml;ndner Herrschaft mit Wine Tours Switzerland</li><li data-section-id=\"nr91k4\" data-start=\"535\" data-end=\"599\">Fahrt im komfortablen Minivan durch malerische Weinbaud&ouml;rfer</li><li data-section-id=\"zuk23w\" data-start=\"600\" data-end=\"654\">F&uuml;hrung und Degustation im Weingut Davaz in Fl&auml;sch</li><li data-section-id=\"avg2u1\" data-start=\"655\" data-end=\"719\">Verkostung von ausgew&auml;hlten von Salis Weinen in der Vinothek</li><li data-section-id=\"4hdav2\" data-start=\"720\" data-end=\"788\">Spannende Einblicke in Terroir, Weinbau und regionale Weinkultur</li></ul><div><p data-start=\"816\" data-end=\"1036\">Erlebe die&nbsp;<strong>B&uuml;ndner Herrschaft</strong>&nbsp;von ihrer genussvollsten Seite. Auf dieser&nbsp;<strong>gef&uuml;hrten Weintour</strong>&nbsp;mit&nbsp;<a href=\"https://heidiland.com/map/poi/weintouren-in-der-bundner-herrschaft-24949152-444a-4556-bdce-e1188ec98f8a.html\" target=\"_blank\" rel=\"noopener\"><strong>Wine Tours Switzerland</strong></a>&nbsp;entdeckst du eine der bedeutendsten Weinregionen der Schweiz und lernst ihre Besonderheiten kennen.&nbsp;Die Tour startet in&nbsp;<strong>Maienfeld</strong>&nbsp;und f&uuml;hrt dich im komfortablen Minivan durch die idyllischen Weinbaud&ouml;rfer der Region. Unterwegs erh&auml;ltst du spannende&nbsp;<strong>Einblicke in Geschichte, Terroir und die Arbeit der Winzer</strong>&nbsp;&ndash; erg&auml;nzt durch einen&nbsp;<strong>kurzen Spaziergang durch die Rebberge</strong>.&nbsp;Ein H&ouml;hepunkt ist der Besuch im&nbsp;<a href=\"https://heidiland.com/map/poi/weingut-davaz-eaf47ea7-98ff-4f97-822e-279b73857dde.html\" target=\"_blank\" rel=\"noopener\"><strong>Weingut Davaz</strong></a>&nbsp;in Fl&auml;sch mit&nbsp;<strong>F&uuml;hrung und Degustation</strong>&nbsp;ausgew&auml;hlter Weine.&nbsp;Zum Abschluss geniesst du in der<a href=\"https://heidiland.com/map/poi/von-salis-vinothek-78f09ee3-1bf6-4d99-bd67-cdb12a127661.html\" target=\"_blank\" rel=\"noopener\"><strong>&nbsp;Vinothek von Salis in Maienfeld&nbsp;</strong></a>eine weitere Degustation in stilvollem Ambiente &ndash; begleitet von&nbsp;<strong>regionalen Spezialit&auml;ten&nbsp;</strong>und interessanten Hintergrundinformationen.</p></div>", "image": "https://hltpimtsoch.sos-ch-dk-2.exoscale-cdn.com/catalog/4/1/8/c/418cd7fd202332d9aed403017779ee50dcc30e85_Davaz_Juni22_5202.jpg"}}, {"type": "Feature", "properties": {"identifier": "c1f496ce-684c-405f-a9e4-0e00a42b602a", "name": "Hotel & Skifahren am Flumserberg", "description": "<p><span class=\"Apple-style-span\"><strong>Top-Angebot und nur &uuml;ber Heidiland Tourismus buchbar:</strong> w&auml;hrend der ganzen Wintersaison ist bei einem Aufenthalt von 2-7 N&auml;chten der Skipass inklusive.</span><br><br>Nur knapp eine Stunde von Z&uuml;rich und St. Gallen entfernt, erlebst du am Flumserberg Winter pur. Geniesse ein paar Tage im vielseitigen Wintersportgebiet mit 17 Anlagen und 65km Pisten. In Verbindung mit zwei bis sieben &Uuml;bernachtungen direkt im Skigebiet oder am sch&ouml;nen Walensee ist der Skipass inbegriffen.<br><br><span class=\"Apple-style-span\">Inkludierte Leistungen:<br></span></p><ul><li>10 speziell ausgew&auml;hlte Hotels stehen dir zur Verf&uuml;gung</li><li>2 - 7 &Uuml;bernachtungen (inkl. Fr&uuml;hst&uuml;ck) in der gew&auml;hlten Zimmerkategorie im Hotel deiner Wahl</li><li>2 - 7 Tage Skipass f&uuml;r das Skigebiet Flumserberg (g&uuml;ltig an gleich vielen Tagen wie N&auml;chte gebucht)</li><li>allf&auml;llige Taxen</li></ul><p><br><span class=\"Apple-style-span\">Konditionen:</span></p><ul><li>buchbar w&auml;hrend der ganzen Wintersaison</li><li>bis 1 Tag vor Anreise buchbar</li><li>g&uuml;ltig nach Verf&uuml;gbarkeit</li><li>das Skiticket erh&auml;ltst du an der Talstation in Unterterzen (SeeJet), Flumserberg Tannenheim oder Flumserberg Tannenbodenalp gegen Vorweisen deines Vouchers (bitte mitbringen)</li></ul>", "image": "https://hltpimtsoch.sos-ch-dk-2.exoscale-cdn.com/catalog/0/5/e/8/05e8931eb7a3515c844fe79a9e29960ebe10e5f3_Titelbild_Landingpage_Flumserberg.jpg"}}, {"type": "Feature", "properties": {"identifier": "d42b3ab3-7d5b-48f8-ab88-24235bce4e12", "name": "Rafters GmbH Outdoor & Events", "description": "Ob kreative Team-Workshops wie Eisschnitzen oder Raku Keramik brennen, Flossbauen am Walensee oder lustige Gruppenaktivit\u00e4ten Highland Games oder Bauernhof Olympiaden f\u00fcr jeden ist etwas dabei.\n\nSie planen einen Firmenausflug oder Junggesellenabschied oder feiern gar einen runden Geburtstag, warum die G\u00e4ste nicht mit etwas speziellem \u00fcberraschen? Testen Sie die Treffsicherheit Ihrer Mitarbeiter beim Wettschiessen oder f\u00f6rdern Sie die Konzentration beim Bogenschiessen.\n\nBei Weihnachtsfeiern darf man durchaus auch mal etwas aktiv werden mit einer Schneeschuhtour und Fondueplausch zum Beispiel oder f\u00fcr die die es etwas abenteuerlicher m\u00f6chten mit einer Airboard-Funtour?", "url": "https://www.rafters.ch/", "image": "https://hltpimtsoch.sos-ch-dk-2.exoscale-cdn.com/catalog/1/a/1/0/1a10e6508d2578103d1ff3b5bd5cc7e36b25049c_Logo_Rafters_2020_.jpg"}, "geometry": {"type": "Point", "coordinates": ["9.161782264709474", "47.11329304036082"]}}, {"type": "Feature", "properties": {"identifier": "dcaf3a4a-f39b-4af0-b05f-bb8453f58cde", "name": "Pauschale: Unterkunft & Skifahren am Flumserberg", "description": "<p data-start=\"332\" data-end=\"668\"><strong data-start=\"332\" data-end=\"383\">Top-Angebot &ndash; exklusiv bei Heidiland Tourismus:</strong><br data-start=\"383\" data-end=\"386\">Buche deine Winterauszeit am Flumserberg und profitiere w&auml;hrend der ganzen Wintersaison von attraktiven Kombi-Angeboten: Bei 2 bis 7 &Uuml;bernachtungen in einem Hotel oder einer Ferienwohnung ist der Skipass f&uuml;r das Skigebiet Flumserberg bereits inklusive.</p><p data-start=\"670\" data-end=\"920\">Nur knapp eine Stunde von Z&uuml;rich oder St. Gallen entfernt, bietet dir das vielseitige Wintersportgebiet mit 17 Anlagen und 65 Pistenkilometern ein unkompliziertes und preiswertes Wintervergn&uuml;gen &ndash; mit Blick auf den Walensee und die umliegenden Alpen.</p><p data-start=\"922\" data-end=\"962\"><strong data-start=\"922\" data-end=\"962\">Deine Unterkunft &ndash; du hast die Wahl:</strong></p><ul data-start=\"964\" data-end=\"1349\"><li data-start=\"964\" data-end=\"1142\"><p data-start=\"966\" data-end=\"1142\"><strong data-start=\"966\" data-end=\"976\">Hotel:</strong><br data-start=\"976\" data-end=\"979\">&Uuml;bernachte in einem von 10 sorgf&auml;ltig ausgew&auml;hlten Hotels in der Region Flumserberg oder Umgebung &ndash; inklusive Fr&uuml;hst&uuml;ck (teilweise mit Halbpension).</p></li><li data-start=\"1144\" data-end=\"1349\"><p data-start=\"1146\" data-end=\"1349\"><strong data-start=\"1146\" data-end=\"1164\">Ferienwohnung:</strong><br data-start=\"1164\" data-end=\"1167\">W&auml;hle aus 32 charmanten Ferienwohnungen direkt im Skigebiet oder in der N&auml;he &ndash; ideal f&uuml;r Familien und Gruppen. Beste Verf&uuml;gbarkeiten bei 3&ndash;7 N&auml;chten, bevorzugt Samstag bis Samstag.</p></li></ul><p data-start=\"1351\" data-end=\"1379\"><strong data-start=\"1351\" data-end=\"1379\">Leistungen im &Uuml;berblick:</strong></p><ul data-start=\"1381\" data-end=\"1798\"><li data-start=\"1381\" data-end=\"1431\"><p data-start=\"1383\" data-end=\"1431\">2&ndash;7 &Uuml;bernachtungen in der gew&auml;hlten Unterkunft</p></li><li data-start=\"1432\" data-end=\"1507\"><p data-start=\"1434\" data-end=\"1507\">Skipass f&uuml;r das Skigebiet Flumserberg f&uuml;r die entsprechende Anzahl Tage</p></li><li data-start=\"1508\" data-end=\"1554\"><p data-start=\"1510\" data-end=\"1554\">Fr&uuml;hst&uuml;ck oder Halbpension (je nach Hotel)</p></li><li data-start=\"1555\" data-end=\"1577\"><p data-start=\"1557\" data-end=\"1577\">Alle lokalen Taxen</p></li><li data-start=\"1578\" data-end=\"1667\"><p data-start=\"1580\" data-end=\"1667\">Frei w&auml;hlbarer G&uuml;ltigkeitsbeginn des Skipasses (ab Anreise oder bis inkl. Abreisetag)</p></li><li data-start=\"1668\" data-end=\"1798\"><p data-start=\"1670\" data-end=\"1798\">Skipassausgabe an der Talstation in Unterterzen (SeeJet), Flumserberg Tannenheim oder Flumserberg Tannenbodenalp (gegen Voucher)</p></li></ul><p data-start=\"1800\" data-end=\"1816\"><strong data-start=\"1800\" data-end=\"1816\">Konditionen:</strong></p><ul data-start=\"1818\" data-end=\"1963\"><li data-start=\"1818\" data-end=\"1874\"><p data-start=\"1820\" data-end=\"1874\">Buchbar bis 1 Tag vor Anreise, je nach Verf&uuml;gbarkeit</p></li><li data-start=\"1875\" data-end=\"1924\"><p data-start=\"1877\" data-end=\"1924\">Nur direkt bei Heidiland Tourismus erh&auml;ltlich</p></li><li data-start=\"1925\" data-end=\"1963\"><p data-start=\"1927\" data-end=\"1963\">G&uuml;nstiger kann man nicht Skifahren</p></li></ul>", "image": "https://hltpimtsoch.sos-ch-dk-2.exoscale-cdn.com/catalog/a/7/c/6/a7c61c3c44136100319bbbf18e52c2bd952dfa0a_Titelbild_Landingpage_Heidiland_.jpg"}}, {"type": "Feature", "properties": {"identifier": "eaffb95a-95d8-4baa-aec9-33d6d276a86b", "name": "Pauschale: Hotel & Wellness in Bad Ragaz", "description": "<p><strong>Exklusiv &uuml;ber Heidiland Tourismus buchbar:&nbsp;Zwei &Uuml;bernachtungen in Bad Ragaz und ein sehr erholsamer Wellnesstag in der wundersch&ouml;nen Tamina Therme.&nbsp;<br><br>36.5&deg;, weil es mir gut tut.<br></strong>Regeneriere K&ouml;rper, Geist und Seele in der B&auml;derlandschaft der Tamina Therme Bad Ragaz.</p>\n<p>Nebst 2 &Uuml;bernachtungen in einem der auserw&auml;hlten Hotels in Bad Ragaz beinhaltet dieses Pauschalangebot einen \"Spa Day\" in der Tamina Therme Bad Ragaz.</p>\n<p><strong>Inklusive Leistungen (pro Person)<br></strong></p>\n<ul>\n<li>2 &Uuml;bernachtungen (inkl. Fr&uuml;hst&uuml;ck) in der gew&auml;hlten Zimmerkategorie im Hotel Ihrer Wahl in Bad Ragaz</li>\n<li>1 Tageseintritt in die Tamina Therme &amp; die Saunalandschaft</li>\n<li>1 Badetasche</li>\n<li>1 Paar Slippers</li>\n<li>1 Bademantel (leihweise)</li>\n<li>1 Frotteetuch</li>\n<li>1 Relax-Check-In (garantierter Eintritt)</li>\n</ul>", "image": "https://hltpimtsoch.sos-ch-dk-2.exoscale-cdn.com/catalog/a/9/c/3/a9c375b621d2a976a0a35c3f3bf25e6be6462bd3_Wellnesspauschale_BadRagaz.jpg"}}, {"type": "Feature", "properties": {"identifier": "eff2867d-6252-4948-9d8c-67cf626ace19", "name": "Pauschale: Unterkunft & Skifahren am Pizol", "description": "<p data-start=\"143\" data-end=\"328\"><strong>Top-Angebot und exklusiv &uuml;ber Heidiland Tourismus buchbar: </strong></p><p data-start=\"143\" data-end=\"328\">W&auml;hrend der ganzen Wintersaison ist bei einem Aufenthalt von 2 bis 7 N&auml;chten der Skipass f&uuml;r das Skigebiet Pizol inklusive.</p><p data-start=\"330\" data-end=\"729\">Nur knapp eine Stunde von Z&uuml;rich und St. Gallen entfernt, erlebst du am Pizol Winter pur. Geniesse ein paar Tage im vielseitigen Wintersportgebiet mit 12 Anlagen und 50\u202fkm Pisten. Dein Skipass ist automatisch in Kombination mit zwei bis sieben &Uuml;bernachtungen direkt im Skigebiet oder in Bad Ragaz und Umgebung inbegriffen &ndash; wahlweise in einem gem&uuml;tlichen Hotel oder einer komfortablen Ferienwohnung.</p><p data-start=\"731\" data-end=\"760\"><strong data-start=\"731\" data-end=\"758\">Inkludierte Leistungen:</strong></p><ul data-start=\"761\" data-end=\"1063\"><li data-start=\"761\" data-end=\"899\"><p data-start=\"763\" data-end=\"823\">2&ndash;7 &Uuml;bernachtungen in der gew&uuml;nschten Unterkunftskategorie</p><ul data-start=\"826\" data-end=\"899\"><li data-start=\"826\" data-end=\"857\"><p data-start=\"828\" data-end=\"857\"><strong data-start=\"828\" data-end=\"838\">Hotel:</strong> inkl. Fr&uuml;hst&uuml;ck*</p></li><li data-start=\"860\" data-end=\"899\"><p data-start=\"862\" data-end=\"899\"><strong data-start=\"862\" data-end=\"880\">Ferienwohnung:</strong> ohne Verpflegung</p></li></ul></li><li data-start=\"900\" data-end=\"986\"><p data-start=\"902\" data-end=\"986\">2&ndash;7 Tage Skipass f&uuml;r das Skigebiet Pizol (g&uuml;ltig f&uuml;r gleich viele Tage wie N&auml;chte)</p></li><li data-start=\"987\" data-end=\"1042\"><p data-start=\"989\" data-end=\"1042\">Auswahl aus <strong data-start=\"1001\" data-end=\"1014\">10 Hotels</strong> und <strong>10</strong><strong data-start=\"1019\" data-end=\"1040\">&nbsp;Ferienwohnungen</strong></p></li><li data-start=\"1043\" data-end=\"1063\"><p data-start=\"1045\" data-end=\"1063\">Allf&auml;llige Taxen</p></li></ul><p data-start=\"1065\" data-end=\"1152\">* Berghotel Gaffia und Zanuz inkl. Halbpension, Boutique Hotel Ochsen ohne Fr&uuml;hst&uuml;ck</p><p data-start=\"1154\" data-end=\"1172\"><strong data-start=\"1154\" data-end=\"1170\">Konditionen:</strong></p><ul data-start=\"1173\" data-end=\"1475\"><li data-start=\"1173\" data-end=\"1248\"><p data-start=\"1175\" data-end=\"1248\">Buchbar w&auml;hrend der gesamten Wintersaison</p></li><li data-start=\"1249\" data-end=\"1309\"><p data-start=\"1251\" data-end=\"1309\">Buchbar bis 1\u202fTag vor Anreise, g&uuml;ltig nach Verf&uuml;gbarkeit</p></li><li data-start=\"1310\" data-end=\"1397\"><p data-start=\"1312\" data-end=\"1397\">Skipass-Ausgabe an der Talstation Wangs oder Bad Ragaz gegen Vorweisen des Vouchers</p></li><li data-start=\"1398\" data-end=\"1475\"><p data-start=\"1400\" data-end=\"1475\"><strong data-start=\"1400\" data-end=\"1441\">Beste Buchungschance Ferienwohnungen:</strong> 4&ndash;7 N&auml;chte, bei 7\u202fN&auml;chten Sa.&ndash;Sa.</p></li></ul>", "image": "https://hltpimtsoch.sos-ch-dk-2.exoscale-cdn.com/catalog/f/0/2/d/f02da24e9736b4a8c53ea955ca969a61985f17d0_Titelbild_Landingpage_Pizol.jpg"}}, {"type": "Feature", "properties": {"identifier": "f6cfb4ee-2481-4b45-96e0-569ebfc8771f", "name": "Fischen im Seebensee", "description": "Zur Seebenalp geh\u00f6ren zwei Seen. Es sind die einzigen Bergseen in der Schweiz, die auf 1650 m Seeh\u00f6he liegen.\n\nDie Fischerkarte ist im Berghotel Seebenalp erh\u00e4ltlich.\nDie Hechte m\u00fcssen eine Mindestl\u00e4nge von 50 cm haben.\n\nWeitere Informationen erhalten direkt Sie im Berghotel Seebenalp.", "url": "http://www.seebenalp.ch", "image": "https://hltpimtsoch.sos-ch-dk-2.exoscale-cdn.com/catalog/1/e/7/1/1e71d77c4900570eefe9b92dad6d625981def73e_tkv_TR1A9146__2.jpg", "openstreetmap_id": "way/190606656"}, "geometry": {"type": "Point", "coordinates": ["9.248347277089128", "47.0804291"]}}, {"type": "Feature", "properties": {"identifier": "fce50f10-28d9-4cea-995d-51d6024f3ae5", "name": "Winterwanderungen", "description": "<p>Die Ferienregion Heidiland bietet eine Vielzahl an Winterwanderwegen, die durch stille W&auml;lder, &uuml;ber sonnige Hochplateaus und entlang glitzernder Schneefl&auml;chen f&uuml;hren. Ob gem&uuml;tlicher Spaziergang mit Aussicht auf die Churfirsten oder sportlichere Tour mit H&ouml;henmetern &ndash; hier findet jede*r die passende Route. Im offiziellen Tourenportal outdoor.heidiland.com sind alle Vorschl&auml;ge mit Karte, H&ouml;henprofil, GPX-Daten und aktuellen Verh&auml;ltnissen verf&uuml;gbar. Entdecke jetzt deine pers&ouml;nliche Winterwanderung und lass dich von der winterlichen Stille verzaubern.</p>", "image": "https://hltpimtsoch.sos-ch-dk-2.exoscale-cdn.com/catalog/f/2/3/1/f2312d20960da225606b7ad967e48f9f92a4226d_PIM_Bild_Winterwandern.png"}}, {"type": "Feature", "properties": {"identifier": "fec2c40f-2465-45a6-b10d-a173cee2f856", "name": "Gleitschirm Tandemflug Walensee - Flums - Pizol", "description": "Der Gleitschirmflug in der Region Walensee, Pizol und Flums ist ein einzigartiges Erlebnis. W\u00e4hle dein Lieblingsort im Heidiland und schon kann es losgehen mit dem Gleitschirm Tandemflug. Wir fliegen das ganze Jahr \u00fcber vom Walenstadtberg und w\u00e4hrend der Betriebszeiten der Bergbahnen vom Maschgenkamm, Sch\u00f6nhalden und Pizol. Der Paragliding Flug kann mit verschiedenen Flugzeiten gebucht werden - gerne beraten wir dich pers\u00f6nlich. Wir freuen uns auf dich!", "url": "https://www.passagierflug.ch/gleitschirm-tandemflug/standorte/walensee-flumserberg", "image": "https://hltpimtsoch.sos-ch-dk-2.exoscale-cdn.com/catalog/b/4/0/3/b4039098e3cceb34ad108fead65e9fe42e93a5fb_Flightbase_Gleitschirmflug_Walensee__2.jpg", "openstreetmap_id": "node/881851048"}, "geometry": {"type": "Point", "coordinates": ["9.308166503906252", "47.12333753243728"]}}, {"type": "Feature", "properties": {"identifier": "ff93642b-2c07-4b75-802c-ae636aa56ad0", "name": "Familienfreundliche Wanderungen", "description": "<p data-start=\"522\" data-end=\"753\">Wandern mit Kindern soll Spass machen &ndash; und genau das erwartet dich in Heidiland. Ob Erlebnisweg, M&auml;rchenpfad oder Themenwanderung: Unsere familienfreundlichen Wanderrouten sind auf die Bed&uuml;rfnisse von Gross und Klein abgestimmt.</p>\n<p data-start=\"755\" data-end=\"955\">Kurze Etappen, spannende Stationen und viel Natur zum Entdecken sorgen f&uuml;r gute Laune bei allen. Viele Touren sind kinderwagentauglich und bieten unterwegs Pl&auml;tze zum Spielen, Picknicken oder Baden.</p>\n<p data-start=\"957\" data-end=\"1135\">Im Outdoor-Portal findest du alle Routen mit hilfreichen Infos zu Wegl&auml;nge, Dauer, Highlights und Altersempfehlungen. So wird die Familienwanderung zum unvergesslichen Ausflug.</p>\n<p data-start=\"1137\" data-end=\"1245\">Mach dich mit deiner Familie auf den Weg und entdecke, wie abwechslungsreich Wandern im Heidiland sein kann!</p>", "image": "https://hltpimtsoch.sos-ch-dk-2.exoscale-cdn.com/catalog/9/1/a/4/91a4acebdcfca62014288efd5a292281dbf5559d_PIM_Bild_Wanderrouten.png"}}]}