{"type": "FeatureCollection", "features": [{"type": "Feature", "properties": {"identifier": "94d59c6a-d334-468b-bfe4-1918a4e55532", "name": "Pizolbahnen AG", "description": "\u00dcber 120 Kilometer Wanderwege, Trails f\u00fcr Trailrunner und Mountainbiker, idyllische Bergseen f\u00fcr Wanderer und Sportfischer, der Klettergarten Tw\u00e4rchamm und Startpl\u00e4tze f\u00fcr Gleitschirm-Piloten. F\u00fcr Familien bietet sich besonders der Heidipfad, der Wasserwald oder der MounTeens Detektiv-Weg an.", "url": "https://pizol.com/", "image": "https://hltpimtsoch.sos-ch-dk-2.exoscale-cdn.com/catalog/3/d/2/4/3d241dfd9eae3b759b22c2f51478de8b720c214a_Heidipfad_Pizol__1_.jpg", "openstreetmap_id": "node/558818427"}, "geometry": {"type": "Point", "coordinates": ["9.4736441", "47.0171423"]}}, {"type": "Feature", "properties": {"identifier": "95d39dc6-6067-49a2-a5c2-f0005f33d388", "name": "Bergbahnen Flumserberg", "description": "Am Flumserberg stehen im Winter 65 Pistenkilometer mit 17 bequemen Liftanlagen, eine 3 km lange mittelschwere Schlittelpiste, 35 km Winterwanderwege sowie 20 Loipenkilometer zur Verf\u00fcgung. F\u00fcr Abwechslung auf den Pisten sorgen die Abfahrtsroute H\u00e4x\u00e4W\u00e4ldli sowie der SnowPark, der FamilyRun und die CrossPiste Flumserberg. \n\nW\u00e4hrend der schneefreien Zeit l\u00e4sst der Flumserberg mit \u00fcber 150 Wanderkilometer, der Rodelbahn FLOOMZER, dem Kletterturm CLiiMBER und den 13 km flowigen BikerTrails die Herzen der G\u00e4ste h\u00f6her schlagen. W\u00e4hrend dieser Zeit sind 6 Bahnanlagen in Betrieb.", "url": "https://www.flumserberg.ch/de", "image": "https://hltpimtsoch.sos-ch-dk-2.exoscale-cdn.com/catalog/0/9/1/8/09180e2bc5f2b7f8d20db5d0e42f5535f3d1a77a_Gondelbahn_BergJet__2.jpg", "openstreetmap_id": "way/754266155"}, "geometry": {"type": "Point", "coordinates": ["9.280577301979067", "47.092138187784"]}}, {"type": "Feature", "properties": {"identifier": "b3f15e19-db82-4025-a62f-0cfb6fcc4ef3", "name": "Skilift Tristeli, St.Margrethenberg", "description": "Auf dem Hochplateau St.Margrethenberg wird im Winter bei ausreichend Schnee ein kleiner Skilift betrieben. Es stehen ca. 4 km Pisten zur Verfu\u0308gung. Zuoberst am Lift befindet sich auf dem Golerberg ein kleines Restaurant mit einer aussichtsreichen Terrasse. Das familia\u0308re Skigebiet liegt auf einer Ho\u0308he von 1195 bis 1447 m.", "url": "https://skilift-tristeli.ch/", "image": "https://hltpimtsoch.sos-ch-dk-2.exoscale-cdn.com/catalog/e/c/7/4/ec74b321f1512b015c83618a6205f683da86b26a_St._Margrethenberg___Tristeli.JPG", "openstreetmap_id": "node/2269512835"}, "geometry": {"type": "Point", "coordinates": ["9.5078917", "46.9810631"]}}]}